{
"type": "FeatureCollection",
"name": "Documentos multimedia",
"features": [
{ "type": "Feature", "properties": { "fid": 1994, "numero_int": 10, "tipo": "(Fotos intervención)", "ruta": "./media/10/media/Fotos intervención/público/ROLLO1-32.JPG", "publico": 1, "url": null }, "geometry": null },
{ "type": "Feature", "properties": { "fid": 1995, "numero_int": 10, "tipo": "(Fotos intervención)", "ruta": "./media/10/media/Fotos intervención/público/ROLLO1-33.JPG", "publico": 1, "url": null }, "geometry": null },
{ "type": "Feature", "properties": { "fid": 1996, "numero_int": 10, "tipo": "(Fotos intervención)", "ruta": "./media/10/media/Fotos intervención/público/ROLLO1-34.JPG", "publico": 1, "url": null }, "geometry": null },
{ "type": "Feature", "properties": { "fid": 1997, "numero_int": 10, "tipo": "(Fotos intervención)", "ruta": "./media/10/media/Fotos intervención/público/ROLLO1-35.jpg", "publico": 1, "url": null }, "geometry": null },
{ "type": "Feature", "properties": { "fid": 1998, "numero_int": 10, "tipo": "(Fotos intervención)", "ruta": "./media/10/media/Fotos intervención/público/ROLLO2-00.jpg", "publico": 1, "url": null }, "geometry": null },
{ "type": "Feature", "properties": { "fid": 1999, "numero_int": 10, "tipo": "(Fotos intervención)", "ruta": "./media/10/media/Fotos intervención/público/ROLLO2-01.jpg", "publico": 1, "url": null }, "geometry": null },
{ "type": "Feature", "properties": { "fid": 2000, "numero_int": 10, "tipo": "(Fotos intervención)", "ruta": "./media/10/media/Fotos intervención/público/ROLLO2-02.jpg", "publico": 1, "url": null }, "geometry": null },
{ "type": "Feature", "properties": { "fid": 2001, "numero_int": 10, "tipo": "(Fotos intervención)", "ruta": "./media/10/media/Fotos intervención/público/ROLLO2-03.jpg", "publico": 1, "url": null }, "geometry": null },
{ "type": "Feature", "properties": { "fid": 2002, "numero_int": 10, "tipo": "(Fotos intervención)", "ruta": "./media/10/media/Fotos intervención/público/ROLLO2-04.jpg", "publico": 1, "url": null }, "geometry": null },
{ "type": "Feature", "properties": { "fid": 2003, "numero_int": 10, "tipo": "(Fotos intervención)", "ruta": "./media/10/media/Fotos intervención/público/ROLLO2-05.jpg", "publico": 1, "url": null }, "geometry": null },
{ "type": "Feature", "properties": { "fid": 2004, "numero_int": 10, "tipo": "(Fotos intervención)", "ruta": "./media/10/media/Fotos intervención/público/ROLLO2-06.jpg", "publico": 1, "url": null }, "geometry": null },
{ "type": "Feature", "properties": { "fid": 2005, "numero_int": 10, "tipo": "(Fotos intervención)", "ruta": "./media/10/media/Fotos intervención/público/ROLLO2-07.jpg", "publico": 1, "url": null }, "geometry": null },
{ "type": "Feature", "properties": { "fid": 2006, "numero_int": 10, "tipo": "(Fotos intervención)", "ruta": "./media/10/media/Fotos intervención/público/ROLLO2-08.jpg", "publico": 1, "url": null }, "geometry": null },
{ "type": "Feature", "properties": { "fid": 2007, "numero_int": 10, "tipo": "(Fotos intervención)", "ruta": "./media/10/media/Fotos intervención/público/ROLLO2-09.jpg", "publico": 1, "url": null }, "geometry": null },
{ "type": "Feature", "properties": { "fid": 2008, "numero_int": 10, "tipo": "(Fotos intervención)", "ruta": "./media/10/media/Fotos intervención/público/ROLLO2-10.JPG", "publico": 1, "url": null }, "geometry": null },
{ "type": "Feature", "properties": { "fid": 2009, "numero_int": 10, "tipo": "(Fotos intervención)", "ruta": "./media/10/media/Fotos intervención/público/ROLLO2-11.JPG", "publico": 1, "url": null }, "geometry": null },
{ "type": "Feature", "properties": { "fid": 2010, "numero_int": 10, "tipo": "(Fotos intervención)", "ruta": "./media/10/media/Fotos intervención/público/ROLLO2-12.JPG", "publico": 1, "url": null }, "geometry": null },
{ "type": "Feature", "properties": { "fid": 2011, "numero_int": 10, "tipo": "(Fotos intervención)", "ruta": "./media/10/media/Fotos intervención/público/ROLLO2-13.JPG", "publico": 1, "url": null }, "geometry": null },
{ "type": "Feature", "properties": { "fid": 2012, "numero_int": 10, "tipo": "(Fotos intervención)", "ruta": "./media/10/media/Fotos intervención/público/ROLLO2-14.JPG", "publico": 1, "url": null }, "geometry": null },
{ "type": "Feature", "properties": { "fid": 2013, "numero_int": 10, "tipo": "(Fotos intervención)", "ruta": "./media/10/media/Fotos intervención/público/ROLLO2-15.JPG", "publico": 1, "url": null }, "geometry": null },
{ "type": "Feature", "properties": { "fid": 2014, "numero_int": 10, "tipo": "(Fotos intervención)", "ruta": "./media/10/media/Fotos intervención/público/ROLLO2-16.JPG", "publico": 1, "url": null }, "geometry": null },
{ "type": "Feature", "properties": { "fid": 2015, "numero_int": 10, "tipo": "(Fotos intervención)", "ruta": "./media/10/media/Fotos intervención/público/ROLLO2-17.JPG", "publico": 1, "url": null }, "geometry": null },
{ "type": "Feature", "properties": { "fid": 2016, "numero_int": 10, "tipo": "(Fotos intervención)", "ruta": "./media/10/media/Fotos intervención/privado/ROLLO2-19.JPG", "publico": 0, "url": null }, "geometry": null },
{ "type": "Feature", "properties": { "fid": 2017, "numero_int": 10, "tipo": "(Fotos intervención)", "ruta": "./media/10/media/Fotos intervención/privado/ROLLO2-20.JPG", "publico": 0, "url": null }, "geometry": null },
{ "type": "Feature", "properties": { "fid": 2018, "numero_int": 10, "tipo": "(Fotos intervención)", "ruta": "./media/10/media/Fotos intervención/privado/ROLLO2-21.JPG", "publico": 0, "url": null }, "geometry": null },
{ "type": "Feature", "properties": { "fid": 2019, "numero_int": 10, "tipo": "(Fotos intervención)", "ruta": "./media/10/media/Fotos intervención/privado/ROLLO2-22.JPG", "publico": 0, "url": null }, "geometry": null },
{ "type": "Feature", "properties": { "fid": 2020, "numero_int": 10, "tipo": "(Fotos intervención)", "ruta": "./media/10/media/Fotos intervención/privado/ROLLO2-23.JPG", "publico": 0, "url": null }, "geometry": null },
{ "type": "Feature", "properties": { "fid": 2021, "numero_int": 10, "tipo": "(Fotos intervención)", "ruta": "./media/10/media/Fotos intervención/privado/ROLLO2-24.JPG", "publico": 0, "url": null }, "geometry": null },
{ "type": "Feature", "properties": { "fid": 2022, "numero_int": 10, "tipo": "(Fotos intervención)", "ruta": "./media/10/media/Fotos intervención/privado/ROLLO2-25.JPG", "publico": 0, "url": null }, "geometry": null },
{ "type": "Feature", "properties": { "fid": 2023, "numero_int": 10, "tipo": "(Fotos intervención)", "ruta": "./media/10/media/Fotos intervención/privado/ROLLO3-01.jpg", "publico": 0, "url": null }, "geometry": null },
{ "type": "Feature", "properties": { "fid": 2024, "numero_int": 10, "tipo": "(Fotos intervención)", "ruta": "./media/10/media/Fotos intervención/privado/ROLLO3-02.jpg", "publico": 0, "url": null }, "geometry": null },
{ "type": "Feature", "properties": { "fid": 2025, "numero_int": 10, "tipo": "(Fotos intervención)", "ruta": "./media/10/media/Fotos intervención/privado/ROLLO3-03.jpg", "publico": 0, "url": null }, "geometry": null },
{ "type": "Feature", "properties": { "fid": 2026, "numero_int": 10, "tipo": "(Fotos intervención)", "ruta": "./media/10/media/Fotos intervención/privado/ROLLO3-04.jpg", "publico": 0, "url": null }, "geometry": null },
{ "type": "Feature", "properties": { "fid": 2027, "numero_int": 10, "tipo": "(Fotos intervención)", "ruta": "./media/10/media/Fotos intervención/privado/ROLLO3-05.jpg", "publico": 0, "url": null }, "geometry": null },
{ "type": "Feature", "properties": { "fid": 2028, "numero_int": 10, "tipo": "(Fotos intervención)", "ruta": "./media/10/media/Fotos intervención/privado/ROLLO3-06.jpg", "publico": 0, "url": null }, "geometry": null },
{ "type": "Feature", "properties": { "fid": 2029, "numero_int": 10, "tipo": "(Fotos intervención)", "ruta": "./media/10/media/Fotos intervención/privado/ROLLO3-07.jpg", "publico": 0, "url": null }, "geometry": null },
{ "type": "Feature", "properties": { "fid": 2030, "numero_int": 10, "tipo": "(Fotos intervención)", "ruta": "./media/10/media/Fotos intervención/privado/ROLLO3-08.jpg", "publico": 0, "url": null }, "geometry": null },
{ "type": "Feature", "properties": { "fid": 2031, "numero_int": 10, "tipo": "(Fotos intervención)", "ruta": "./media/10/media/Fotos intervención/privado/ROLLO3-09.jpg", "publico": 0, "url": null }, "geometry": null },
{ "type": "Feature", "properties": { "fid": 2032, "numero_int": 10, "tipo": "(Fotos intervención)", "ruta": "./media/10/media/Fotos intervención/privado/ROLLO3-10.JPG", "publico": 0, "url": null }, "geometry": null },
{ "type": "Feature", "properties": { "fid": 2033, "numero_int": 10, "tipo": "(Fotos intervención)", "ruta": "./media/10/media/Fotos intervención/privado/ROLLO3-11.JPG", "publico": 0, "url": null }, "geometry": null },
{ "type": "Feature", "properties": { "fid": 2034, "numero_int": 10, "tipo": "(Fotos intervención)", "ruta": "./media/10/media/Fotos intervención/privado/ROLLO3-12.JPG", "publico": 0, "url": null }, "geometry": null },
{ "type": "Feature", "properties": { "fid": 2035, "numero_int": 10, "tipo": "(Fotos intervención)", "ruta": "./media/10/media/Fotos intervención/privado/ROLLO3-13.JPG", "publico": 0, "url": null }, "geometry": null },
{ "type": "Feature", "properties": { "fid": 2036, "numero_int": 10, "tipo": "(Fotos intervención)", "ruta": "./media/10/media/Fotos intervención/privado/ROLLO3-14.JPG", "publico": 0, "url": null }, "geometry": null },
{ "type": "Feature", "properties": { "fid": 2037, "numero_int": 10, "tipo": "(Fotos intervención)", "ruta": "./media/10/media/Fotos intervención/privado/ROLLO3-15.JPG", "publico": 0, "url": null }, "geometry": null },
{ "type": "Feature", "properties": { "fid": 2038, "numero_int": 10, "tipo": "(Fotos intervención)", "ruta": "./media/10/media/Fotos intervención/privado/ROLLO3-16.JPG", "publico": 0, "url": null }, "geometry": null },
{ "type": "Feature", "properties": { "fid": 2039, "numero_int": 10, "tipo": "(Fotos intervención)", "ruta": "./media/10/media/Fotos intervención/privado/ROLLO3-17.JPG", "publico": 0, "url": null }, "geometry": null },
{ "type": "Feature", "properties": { "fid": 2040, "numero_int": 10, "tipo": "(Fotos intervención)", "ruta": "./media/10/media/Fotos intervención/privado/ROLLO3-18.JPG", "publico": 0, "url": null }, "geometry": null },
{ "type": "Feature", "properties": { "fid": 2041, "numero_int": 10, "tipo": "(Fotos intervención)", "ruta": "./media/10/media/Fotos intervención/privado/ROLLO3-19.JPG", "publico": 0, "url": null }, "geometry": null },
{ "type": "Feature", "properties": { "fid": 2042, "numero_int": 10, "tipo": "(Fotos intervención)", "ruta": "./media/10/media/Fotos intervención/privado/ROLLO3-20.JPG", "publico": 0, "url": null }, "geometry": null },
{ "type": "Feature", "properties": { "fid": 2043, "numero_int": 10, "tipo": "(Fotos intervención)", "ruta": "./media/10/media/Fotos intervención/privado/ROLLO3-21.JPG", "publico": 0, "url": null }, "geometry": null },
{ "type": "Feature", "properties": { "fid": 2044, "numero_int": 10, "tipo": "(Fotos intervención)", "ruta": "./media/10/media/Fotos intervención/privado/ROLLO3-22.JPG", "publico": 0, "url": null }, "geometry": null },
{ "type": "Feature", "properties": { "fid": 2045, "numero_int": 10, "tipo": "(Fotos intervención)", "ruta": "./media/10/media/Fotos intervención/privado/ROLLO3-23.JPG", "publico": 0, "url": null }, "geometry": null },
{ "type": "Feature", "properties": { "fid": 2046, "numero_int": 10, "tipo": "(Fotos intervención)", "ruta": "./media/10/media/Fotos intervención/privado/ROLLO3-24.JPG", "publico": 0, "url": null }, "geometry": null },
{ "type": "Feature", "properties": { "fid": 2047, "numero_int": 10, "tipo": "(Fotos intervención)", "ruta": "./media/10/media/Fotos intervención/privado/ROLLO3-25.JPG", "publico": 0, "url": null }, "geometry": null },
{ "type": "Feature", "properties": { "fid": 2048, "numero_int": 10, "tipo": "(Fotos intervención)", "ruta": "./media/10/media/Fotos intervención/privado/ROLLO3-26.JPG", "publico": 0, "url": null }, "geometry": null },
{ "type": "Feature", "properties": { "fid": 2049, "numero_int": 10, "tipo": "(Fotos intervención)", "ruta": "./media/10/media/Fotos intervención/privado/ROLLO3-27.JPG", "publico": 0, "url": null }, "geometry": null },
{ "type": "Feature", "properties": { "fid": 2050, "numero_int": 10, "tipo": "(Fotos intervención)", "ruta": "./media/10/media/Fotos intervención/privado/ROLLO3-28.JPG", "publico": 0, "url": null }, "geometry": null },
{ "type": "Feature", "properties": { "fid": 2051, "numero_int": 10, "tipo": "(Fotos intervención)", "ruta": "./media/10/media/Fotos intervención/privado/ROLLO4-01.jpg", "publico": 0, "url": null }, "geometry": null },
{ "type": "Feature", "properties": { "fid": 2052, "numero_int": 10, "tipo": "(Fotos intervención)", "ruta": "./media/10/media/Fotos intervención/privado/ROLLO4-02.jpg", "publico": 0, "url": null }, "geometry": null },
{ "type": "Feature", "properties": { "fid": 2053, "numero_int": 10, "tipo": "(Fotos intervención)", "ruta": "./media/10/media/Fotos intervención/privado/ROLLO4-03.jpg", "publico": 0, "url": null }, "geometry": null },
{ "type": "Feature", "properties": { "fid": 2054, "numero_int": 10, "tipo": "(Fotos intervención)", "ruta": "./media/10/media/Fotos intervención/privado/ROLLO4-04.jpg", "publico": 0, "url": null }, "geometry": null },
{ "type": "Feature", "properties": { "fid": 2055, "numero_int": 10, "tipo": "(Fotos intervención)", "ruta": "./media/10/media/Fotos intervención/privado/ROLLO4-05.jpg", "publico": 0, "url": null }, "geometry": null },
{ "type": "Feature", "properties": { "fid": 2056, "numero_int": 10, "tipo": "(Fotos intervención)", "ruta": "./media/10/media/Fotos intervención/privado/ROLLO4-06.jpg", "publico": 0, "url": null }, "geometry": null },
{ "type": "Feature", "properties": { "fid": 2057, "numero_int": 10, "tipo": "(Fotos intervención)", "ruta": "./media/10/media/Fotos intervención/privado/ROLLO4-07.jpg", "publico": 0, "url": null }, "geometry": null },
{ "type": "Feature", "properties": { "fid": 2058, "numero_int": 10, "tipo": "(Fotos intervención)", "ruta": "./media/10/media/Fotos intervención/privado/ROLLO4-08.jpg", "publico": 0, "url": null }, "geometry": null },
{ "type": "Feature", "properties": { "fid": 2059, "numero_int": 10, "tipo": "(Fotos intervención)", "ruta": "./media/10/media/Fotos intervención/privado/ROLLO4-10.JPG", "publico": 0, "url": null }, "geometry": null },
{ "type": "Feature", "properties": { "fid": 2060, "numero_int": 10, "tipo": "(Fotos intervención)", "ruta": "./media/10/media/Fotos intervención/privado/ROLLO4-11.JPG", "publico": 0, "url": null }, "geometry": null },
{ "type": "Feature", "properties": { "fid": 2061, "numero_int": 10, "tipo": "(Fotos intervención)", "ruta": "./media/10/media/Fotos intervención/privado/ROLLO4-12.JPG", "publico": 0, "url": null }, "geometry": null },
{ "type": "Feature", "properties": { "fid": 2062, "numero_int": 10, "tipo": "(Fotos intervención)", "ruta": "./media/10/media/Fotos intervención/privado/ROLLO4-14.JPG", "publico": 0, "url": null }, "geometry": null },
{ "type": "Feature", "properties": { "fid": 2063, "numero_int": 10, "tipo": "(Fotos intervención)", "ruta": "./media/10/media/Fotos intervención/privado/ROLLO4-15.JPG", "publico": 0, "url": null }, "geometry": null },
{ "type": "Feature", "properties": { "fid": 2064, "numero_int": 10, "tipo": "(Fotos intervención)", "ruta": "./media/10/media/Fotos intervención/privado/ROLLO4-16.JPG", "publico": 0, "url": null }, "geometry": null },
{ "type": "Feature", "properties": { "fid": 2065, "numero_int": 10, "tipo": "(Fotos intervención)", "ruta": "./media/10/media/Fotos intervención/privado/ROLLO4-17.JPG", "publico": 0, "url": null }, "geometry": null },
{ "type": "Feature", "properties": { "fid": 2066, "numero_int": 10, "tipo": "(Fotos intervención)", "ruta": "./media/10/media/Fotos intervención/privado/ROLLO4-18.JPG", "publico": 0, "url": null }, "geometry": null },
{ "type": "Feature", "properties": { "fid": 2067, "numero_int": 10, "tipo": "(Fotos intervención)", "ruta": "./media/10/media/Fotos intervención/privado/ROLLO4-19.JPG", "publico": 0, "url": null }, "geometry": null },
{ "type": "Feature", "properties": { "fid": 2068, "numero_int": 10, "tipo": "(Fotos intervención)", "ruta": "./media/10/media/Fotos intervención/privado/ROLLO4-20.JPG", "publico": 0, "url": null }, "geometry": null },
{ "type": "Feature", "properties": { "fid": 2069, "numero_int": 10, "tipo": "(Fotos intervención)", "ruta": "./media/10/media/Fotos intervención/privado/ROLLO4-21.JPG", "publico": 0, "url": null }, "geometry": null },
{ "type": "Feature", "properties": { "fid": 2070, "numero_int": 10, "tipo": "(Fotos intervención)", "ruta": "./media/10/media/Fotos intervención/privado/ROLLO4-22.JPG", "publico": 0, "url": null }, "geometry": null },
{ "type": "Feature", "properties": { "fid": 2071, "numero_int": 10, "tipo": "(Fotos intervención)", "ruta": "./media/10/media/Fotos intervención/privado/ROLLO4-23.JPG", "publico": 0, "url": null }, "geometry": null },
{ "type": "Feature", "properties": { "fid": 2072, "numero_int": 10, "tipo": "(Fotos intervención)", "ruta": "./media/10/media/Fotos intervención/privado/ROLLO4-24.JPG", "publico": 0, "url": null }, "geometry": null },
{ "type": "Feature", "properties": { "fid": 2073, "numero_int": 10, "tipo": "(Fotos intervención)", "ruta": "./media/10/media/Fotos intervención/privado/ROLLO4-25.JPG", "publico": 0, "url": null }, "geometry": null },
{ "type": "Feature", "properties": { "fid": 2074, "numero_int": 10, "tipo": "(Hemeroteca)", "ruta": "./media/10/media/Hemeroteca/público/MERCADAL_2000-004.jpg", "publico": 1, "url": null }, "geometry": null },
{ "type": "Feature", "properties": { "fid": 2075, "numero_int": 10, "tipo": "(Hemeroteca)", "ruta": "./media/10/media/Hemeroteca/público/Prensa_MERCADAL_2000.jpg", "publico": 1, "url": null }, "geometry": null },
{ "type": "Feature", "properties": { "fid": 2076, "numero_int": 10, "tipo": "Planimetrías", "ruta": "./media/10/media/Planimetrías/público/INT_27_PlazaMercadal.rar", "publico": 1, "url": null }, "geometry": null },
{ "type": "Feature", "properties": { "fid": 2077, "numero_int": 27, "tipo": "(Fotos intervención)", "ruta": "./media/27/media/Fotos intervención/público/ROLLO1-32.JPG", "publico": 1, "url": null }, "geometry": null },
{ "type": "Feature", "properties": { "fid": 2078, "numero_int": 27, "tipo": "(Fotos intervención)", "ruta": "./media/27/media/Fotos intervención/público/ROLLO1-33.JPG", "publico": 1, "url": null }, "geometry": null },
{ "type": "Feature", "properties": { "fid": 2079, "numero_int": 27, "tipo": "(Fotos intervención)", "ruta": "./media/27/media/Fotos intervención/público/ROLLO1-34.JPG", "publico": 1, "url": null }, "geometry": null },
{ "type": "Feature", "properties": { "fid": 2080, "numero_int": 27, "tipo": "(Fotos intervención)", "ruta": "./media/27/media/Fotos intervención/público/ROLLO1-35.jpg", "publico": 1, "url": null }, "geometry": null },
{ "type": "Feature", "properties": { "fid": 2081, "numero_int": 27, "tipo": "(Fotos intervención)", "ruta": "./media/27/media/Fotos intervención/público/ROLLO2-00.jpg", "publico": 1, "url": null }, "geometry": null },
{ "type": "Feature", "properties": { "fid": 2082, "numero_int": 27, "tipo": "(Fotos intervención)", "ruta": "./media/27/media/Fotos intervención/público/ROLLO2-01.jpg", "publico": 1, "url": null }, "geometry": null },
{ "type": "Feature", "properties": { "fid": 2083, "numero_int": 27, "tipo": "(Fotos intervención)", "ruta": "./media/27/media/Fotos intervención/público/ROLLO2-02.jpg", "publico": 1, "url": null }, "geometry": null },
{ "type": "Feature", "properties": { "fid": 2084, "numero_int": 27, "tipo": "(Fotos intervención)", "ruta": "./media/27/media/Fotos intervención/público/ROLLO2-03.jpg", "publico": 1, "url": null }, "geometry": null },
{ "type": "Feature", "properties": { "fid": 2085, "numero_int": 27, "tipo": "(Fotos intervención)", "ruta": "./media/27/media/Fotos intervención/público/ROLLO2-04.jpg", "publico": 1, "url": null }, "geometry": null },
{ "type": "Feature", "properties": { "fid": 2086, "numero_int": 27, "tipo": "(Fotos intervención)", "ruta": "./media/27/media/Fotos intervención/público/ROLLO2-05.jpg", "publico": 1, "url": null }, "geometry": null },
{ "type": "Feature", "properties": { "fid": 2087, "numero_int": 27, "tipo": "(Fotos intervención)", "ruta": "./media/27/media/Fotos intervención/público/ROLLO2-06.jpg", "publico": 1, "url": null }, "geometry": null },
{ "type": "Feature", "properties": { "fid": 2088, "numero_int": 27, "tipo": "(Fotos intervención)", "ruta": "./media/27/media/Fotos intervención/público/ROLLO2-07.jpg", "publico": 1, "url": null }, "geometry": null },
{ "type": "Feature", "properties": { "fid": 2089, "numero_int": 27, "tipo": "(Fotos intervención)", "ruta": "./media/27/media/Fotos intervención/público/ROLLO2-08.jpg", "publico": 1, "url": null }, "geometry": null },
{ "type": "Feature", "properties": { "fid": 2090, "numero_int": 27, "tipo": "(Fotos intervención)", "ruta": "./media/27/media/Fotos intervención/público/ROLLO2-09.jpg", "publico": 1, "url": null }, "geometry": null },
{ "type": "Feature", "properties": { "fid": 2091, "numero_int": 27, "tipo": "(Fotos intervención)", "ruta": "./media/27/media/Fotos intervención/público/ROLLO2-10.JPG", "publico": 1, "url": null }, "geometry": null },
{ "type": "Feature", "properties": { "fid": 2092, "numero_int": 27, "tipo": "(Fotos intervención)", "ruta": "./media/27/media/Fotos intervención/público/ROLLO2-11.JPG", "publico": 1, "url": null }, "geometry": null },
{ "type": "Feature", "properties": { "fid": 2093, "numero_int": 27, "tipo": "(Fotos intervención)", "ruta": "./media/27/media/Fotos intervención/público/ROLLO2-12.JPG", "publico": 1, "url": null }, "geometry": null },
{ "type": "Feature", "properties": { "fid": 2094, "numero_int": 27, "tipo": "(Fotos intervención)", "ruta": "./media/27/media/Fotos intervención/público/ROLLO2-13.JPG", "publico": 1, "url": null }, "geometry": null },
{ "type": "Feature", "properties": { "fid": 2095, "numero_int": 27, "tipo": "(Fotos intervención)", "ruta": "./media/27/media/Fotos intervención/público/ROLLO2-14.JPG", "publico": 1, "url": null }, "geometry": null },
{ "type": "Feature", "properties": { "fid": 2096, "numero_int": 27, "tipo": "(Fotos intervención)", "ruta": "./media/27/media/Fotos intervención/público/ROLLO2-15.JPG", "publico": 1, "url": null }, "geometry": null },
{ "type": "Feature", "properties": { "fid": 2097, "numero_int": 27, "tipo": "(Fotos intervención)", "ruta": "./media/27/media/Fotos intervención/público/ROLLO2-16.JPG", "publico": 1, "url": null }, "geometry": null },
{ "type": "Feature", "properties": { "fid": 2098, "numero_int": 27, "tipo": "(Fotos intervención)", "ruta": "./media/27/media/Fotos intervención/público/ROLLO2-17.JPG", "publico": 1, "url": null }, "geometry": null },
{ "type": "Feature", "properties": { "fid": 2099, "numero_int": 27, "tipo": "(Fotos intervención)", "ruta": "./media/27/media/Fotos intervención/privado/ROLLO2-19.JPG", "publico": 0, "url": null }, "geometry": null },
{ "type": "Feature", "properties": { "fid": 2100, "numero_int": 27, "tipo": "(Fotos intervención)", "ruta": "./media/27/media/Fotos intervención/privado/ROLLO2-20.JPG", "publico": 0, "url": null }, "geometry": null },
{ "type": "Feature", "properties": { "fid": 2101, "numero_int": 27, "tipo": "(Fotos intervención)", "ruta": "./media/27/media/Fotos intervención/privado/ROLLO2-21.JPG", "publico": 0, "url": null }, "geometry": null },
{ "type": "Feature", "properties": { "fid": 2102, "numero_int": 27, "tipo": "(Fotos intervención)", "ruta": "./media/27/media/Fotos intervención/privado/ROLLO2-22.JPG", "publico": 0, "url": null }, "geometry": null },
{ "type": "Feature", "properties": { "fid": 2103, "numero_int": 27, "tipo": "(Fotos intervención)", "ruta": "./media/27/media/Fotos intervención/privado/ROLLO2-23.JPG", "publico": 0, "url": null }, "geometry": null },
{ "type": "Feature", "properties": { "fid": 2104, "numero_int": 27, "tipo": "(Fotos intervención)", "ruta": "./media/27/media/Fotos intervención/privado/ROLLO2-24.JPG", "publico": 0, "url": null }, "geometry": null },
{ "type": "Feature", "properties": { "fid": 2105, "numero_int": 27, "tipo": "(Fotos intervención)", "ruta": "./media/27/media/Fotos intervención/privado/ROLLO2-25.JPG", "publico": 0, "url": null }, "geometry": null },
{ "type": "Feature", "properties": { "fid": 2106, "numero_int": 27, "tipo": "(Fotos intervención)", "ruta": "./media/27/media/Fotos intervención/privado/ROLLO3-01.jpg", "publico": 0, "url": null }, "geometry": null },
{ "type": "Feature", "properties": { "fid": 2107, "numero_int": 27, "tipo": "(Fotos intervención)", "ruta": "./media/27/media/Fotos intervención/privado/ROLLO3-02.jpg", "publico": 0, "url": null }, "geometry": null },
{ "type": "Feature", "properties": { "fid": 2108, "numero_int": 27, "tipo": "(Fotos intervención)", "ruta": "./media/27/media/Fotos intervención/privado/ROLLO3-03.jpg", "publico": 0, "url": null }, "geometry": null },
{ "type": "Feature", "properties": { "fid": 2109, "numero_int": 27, "tipo": "(Fotos intervención)", "ruta": "./media/27/media/Fotos intervención/privado/ROLLO3-04.jpg", "publico": 0, "url": null }, "geometry": null },
{ "type": "Feature", "properties": { "fid": 2110, "numero_int": 27, "tipo": "(Fotos intervención)", "ruta": "./media/27/media/Fotos intervención/privado/ROLLO3-05.jpg", "publico": 0, "url": null }, "geometry": null },
{ "type": "Feature", "properties": { "fid": 2111, "numero_int": 27, "tipo": "(Fotos intervención)", "ruta": "./media/27/media/Fotos intervención/privado/ROLLO3-06.jpg", "publico": 0, "url": null }, "geometry": null },
{ "type": "Feature", "properties": { "fid": 2112, "numero_int": 27, "tipo": "(Fotos intervención)", "ruta": "./media/27/media/Fotos intervención/privado/ROLLO3-07.jpg", "publico": 0, "url": null }, "geometry": null },
{ "type": "Feature", "properties": { "fid": 2113, "numero_int": 27, "tipo": "(Fotos intervención)", "ruta": "./media/27/media/Fotos intervención/privado/ROLLO3-08.jpg", "publico": 0, "url": null }, "geometry": null },
{ "type": "Feature", "properties": { "fid": 2114, "numero_int": 27, "tipo": "(Fotos intervención)", "ruta": "./media/27/media/Fotos intervención/privado/ROLLO3-09.jpg", "publico": 0, "url": null }, "geometry": null },
{ "type": "Feature", "properties": { "fid": 2115, "numero_int": 27, "tipo": "(Fotos intervención)", "ruta": "./media/27/media/Fotos intervención/privado/ROLLO3-10.JPG", "publico": 0, "url": null }, "geometry": null },
{ "type": "Feature", "properties": { "fid": 2116, "numero_int": 27, "tipo": "(Fotos intervención)", "ruta": "./media/27/media/Fotos intervención/privado/ROLLO3-11.JPG", "publico": 0, "url": null }, "geometry": null },
{ "type": "Feature", "properties": { "fid": 2117, "numero_int": 27, "tipo": "(Fotos intervención)", "ruta": "./media/27/media/Fotos intervención/privado/ROLLO3-12.JPG", "publico": 0, "url": null }, "geometry": null },
{ "type": "Feature", "properties": { "fid": 2118, "numero_int": 27, "tipo": "(Fotos intervención)", "ruta": "./media/27/media/Fotos intervención/privado/ROLLO3-13.JPG", "publico": 0, "url": null }, "geometry": null },
{ "type": "Feature", "properties": { "fid": 2119, "numero_int": 27, "tipo": "(Fotos intervención)", "ruta": "./media/27/media/Fotos intervención/privado/ROLLO3-14.JPG", "publico": 0, "url": null }, "geometry": null },
{ "type": "Feature", "properties": { "fid": 2120, "numero_int": 27, "tipo": "(Fotos intervención)", "ruta": "./media/27/media/Fotos intervención/privado/ROLLO3-15.JPG", "publico": 0, "url": null }, "geometry": null },
{ "type": "Feature", "properties": { "fid": 2121, "numero_int": 27, "tipo": "(Fotos intervención)", "ruta": "./media/27/media/Fotos intervención/privado/ROLLO3-16.JPG", "publico": 0, "url": null }, "geometry": null },
{ "type": "Feature", "properties": { "fid": 2122, "numero_int": 27, "tipo": "(Fotos intervención)", "ruta": "./media/27/media/Fotos intervención/privado/ROLLO3-17.JPG", "publico": 0, "url": null }, "geometry": null },
{ "type": "Feature", "properties": { "fid": 2123, "numero_int": 27, "tipo": "(Fotos intervención)", "ruta": "./media/27/media/Fotos intervención/privado/ROLLO3-18.JPG", "publico": 0, "url": null }, "geometry": null },
{ "type": "Feature", "properties": { "fid": 2124, "numero_int": 27, "tipo": "(Fotos intervención)", "ruta": "./media/27/media/Fotos intervención/privado/ROLLO3-19.JPG", "publico": 0, "url": null }, "geometry": null },
{ "type": "Feature", "properties": { "fid": 2125, "numero_int": 27, "tipo": "(Fotos intervención)", "ruta": "./media/27/media/Fotos intervención/privado/ROLLO3-20.JPG", "publico": 0, "url": null }, "geometry": null },
{ "type": "Feature", "properties": { "fid": 2126, "numero_int": 27, "tipo": "(Fotos intervención)", "ruta": "./media/27/media/Fotos intervención/privado/ROLLO3-21.JPG", "publico": 0, "url": null }, "geometry": null },
{ "type": "Feature", "properties": { "fid": 2127, "numero_int": 27, "tipo": "(Fotos intervención)", "ruta": "./media/27/media/Fotos intervención/privado/ROLLO3-22.JPG", "publico": 0, "url": null }, "geometry": null },
{ "type": "Feature", "properties": { "fid": 2128, "numero_int": 27, "tipo": "(Fotos intervención)", "ruta": "./media/27/media/Fotos intervención/privado/ROLLO3-23.JPG", "publico": 0, "url": null }, "geometry": null },
{ "type": "Feature", "properties": { "fid": 2129, "numero_int": 27, "tipo": "(Fotos intervención)", "ruta": "./media/27/media/Fotos intervención/privado/ROLLO3-24.JPG", "publico": 0, "url": null }, "geometry": null },
{ "type": "Feature", "properties": { "fid": 2130, "numero_int": 27, "tipo": "(Fotos intervención)", "ruta": "./media/27/media/Fotos intervención/privado/ROLLO3-25.JPG", "publico": 0, "url": null }, "geometry": null },
{ "type": "Feature", "properties": { "fid": 2131, "numero_int": 27, "tipo": "(Fotos intervención)", "ruta": "./media/27/media/Fotos intervención/privado/ROLLO3-26.JPG", "publico": 0, "url": null }, "geometry": null },
{ "type": "Feature", "properties": { "fid": 2132, "numero_int": 27, "tipo": "(Fotos intervención)", "ruta": "./media/27/media/Fotos intervención/privado/ROLLO3-27.JPG", "publico": 0, "url": null }, "geometry": null },
{ "type": "Feature", "properties": { "fid": 2133, "numero_int": 27, "tipo": "(Fotos intervención)", "ruta": "./media/27/media/Fotos intervención/privado/ROLLO3-28.JPG", "publico": 0, "url": null }, "geometry": null },
{ "type": "Feature", "properties": { "fid": 2134, "numero_int": 27, "tipo": "(Fotos intervención)", "ruta": "./media/27/media/Fotos intervención/privado/ROLLO4-01.jpg", "publico": 0, "url": null }, "geometry": null },
{ "type": "Feature", "properties": { "fid": 2135, "numero_int": 27, "tipo": "(Fotos intervención)", "ruta": "./media/27/media/Fotos intervención/privado/ROLLO4-02.jpg", "publico": 0, "url": null }, "geometry": null },
{ "type": "Feature", "properties": { "fid": 2136, "numero_int": 27, "tipo": "(Fotos intervención)", "ruta": "./media/27/media/Fotos intervención/privado/ROLLO4-03.jpg", "publico": 0, "url": null }, "geometry": null },
{ "type": "Feature", "properties": { "fid": 2137, "numero_int": 27, "tipo": "(Fotos intervención)", "ruta": "./media/27/media/Fotos intervención/privado/ROLLO4-04.jpg", "publico": 0, "url": null }, "geometry": null },
{ "type": "Feature", "properties": { "fid": 2138, "numero_int": 27, "tipo": "(Fotos intervención)", "ruta": "./media/27/media/Fotos intervención/privado/ROLLO4-05.jpg", "publico": 0, "url": null }, "geometry": null },
{ "type": "Feature", "properties": { "fid": 2139, "numero_int": 27, "tipo": "(Fotos intervención)", "ruta": "./media/27/media/Fotos intervención/privado/ROLLO4-06.jpg", "publico": 0, "url": null }, "geometry": null },
{ "type": "Feature", "properties": { "fid": 2140, "numero_int": 27, "tipo": "(Fotos intervención)", "ruta": "./media/27/media/Fotos intervención/privado/ROLLO4-07.jpg", "publico": 0, "url": null }, "geometry": null },
{ "type": "Feature", "properties": { "fid": 2141, "numero_int": 27, "tipo": "(Fotos intervención)", "ruta": "./media/27/media/Fotos intervención/privado/ROLLO4-08.jpg", "publico": 0, "url": null }, "geometry": null },
{ "type": "Feature", "properties": { "fid": 2142, "numero_int": 27, "tipo": "(Fotos intervención)", "ruta": "./media/27/media/Fotos intervención/privado/ROLLO4-10.JPG", "publico": 0, "url": null }, "geometry": null },
{ "type": "Feature", "properties": { "fid": 2143, "numero_int": 27, "tipo": "(Fotos intervención)", "ruta": "./media/27/media/Fotos intervención/privado/ROLLO4-11.JPG", "publico": 0, "url": null }, "geometry": null },
{ "type": "Feature", "properties": { "fid": 2144, "numero_int": 27, "tipo": "(Fotos intervención)", "ruta": "./media/27/media/Fotos intervención/privado/ROLLO4-12.JPG", "publico": 0, "url": null }, "geometry": null },
{ "type": "Feature", "properties": { "fid": 2145, "numero_int": 27, "tipo": "(Fotos intervención)", "ruta": "./media/27/media/Fotos intervención/privado/ROLLO4-14.JPG", "publico": 0, "url": null }, "geometry": null },
{ "type": "Feature", "properties": { "fid": 2146, "numero_int": 27, "tipo": "(Fotos intervención)", "ruta": "./media/27/media/Fotos intervención/privado/ROLLO4-15.JPG", "publico": 0, "url": null }, "geometry": null },
{ "type": "Feature", "properties": { "fid": 2147, "numero_int": 27, "tipo": "(Fotos intervención)", "ruta": "./media/27/media/Fotos intervención/privado/ROLLO4-16.JPG", "publico": 0, "url": null }, "geometry": null },
{ "type": "Feature", "properties": { "fid": 2148, "numero_int": 27, "tipo": "(Fotos intervención)", "ruta": "./media/27/media/Fotos intervención/privado/ROLLO4-17.JPG", "publico": 0, "url": null }, "geometry": null },
{ "type": "Feature", "properties": { "fid": 2149, "numero_int": 27, "tipo": "(Fotos intervención)", "ruta": "./media/27/media/Fotos intervención/privado/ROLLO4-18.JPG", "publico": 0, "url": null }, "geometry": null },
{ "type": "Feature", "properties": { "fid": 2150, "numero_int": 27, "tipo": "(Fotos intervención)", "ruta": "./media/27/media/Fotos intervención/privado/ROLLO4-19.JPG", "publico": 0, "url": null }, "geometry": null },
{ "type": "Feature", "properties": { "fid": 2151, "numero_int": 27, "tipo": "(Fotos intervención)", "ruta": "./media/27/media/Fotos intervención/privado/ROLLO4-20.JPG", "publico": 0, "url": null }, "geometry": null },
{ "type": "Feature", "properties": { "fid": 2152, "numero_int": 27, "tipo": "(Fotos intervención)", "ruta": "./media/27/media/Fotos intervención/privado/ROLLO4-21.JPG", "publico": 0, "url": null }, "geometry": null },
{ "type": "Feature", "properties": { "fid": 2153, "numero_int": 27, "tipo": "(Fotos intervención)", "ruta": "./media/27/media/Fotos intervención/privado/ROLLO4-22.JPG", "publico": 0, "url": null }, "geometry": null },
{ "type": "Feature", "properties": { "fid": 2154, "numero_int": 27, "tipo": "(Fotos intervención)", "ruta": "./media/27/media/Fotos intervención/privado/ROLLO4-23.JPG", "publico": 0, "url": null }, "geometry": null },
{ "type": "Feature", "properties": { "fid": 2155, "numero_int": 27, "tipo": "(Fotos intervención)", "ruta": "./media/27/media/Fotos intervención/privado/ROLLO4-24.JPG", "publico": 0, "url": null }, "geometry": null },
{ "type": "Feature", "properties": { "fid": 2156, "numero_int": 27, "tipo": "(Fotos intervención)", "ruta": "./media/27/media/Fotos intervención/privado/ROLLO4-25.JPG", "publico": 0, "url": null }, "geometry": null },
{ "type": "Feature", "properties": { "fid": 2157, "numero_int": 27, "tipo": "(Hemeroteca)", "ruta": "./media/27/media/Hemeroteca/público/MERCADAL_2000-004.jpg", "publico": 1, "url": null }, "geometry": null },
{ "type": "Feature", "properties": { "fid": 2158, "numero_int": 27, "tipo": "(Hemeroteca)", "ruta": "./media/27/media/Hemeroteca/público/Prensa_MERCADAL_2000.jpg", "publico": 1, "url": null }, "geometry": null },
{ "type": "Feature", "properties": { "fid": 2159, "numero_int": 27, "tipo": "Planimetrías", "ruta": "./media/27/media/Planimetrías/público/INT_27_PlazaMercadal.rar", "publico": 1, "url": null }, "geometry": null },
{ "type": "Feature", "properties": { "fid": 2160, "numero_int": 55555, "tipo": "(Fotos intervención)", "ruta": "./media/55555/media/Fotos intervención/público/Foto 3   7 Terraplenado sobre el terreno.jpg", "publico": 1, "url": null }, "geometry": null },
{ "type": "Feature", "properties": { "fid": 2161, "numero_int": 81, "tipo": "(Fotos intervención)", "ruta": "./media/81/media/Fotos intervención/público/ROLLO1-32.JPG", "publico": 1, "url": null }, "geometry": null },
{ "type": "Feature", "properties": { "fid": 2162, "numero_int": 81, "tipo": "(Fotos intervención)", "ruta": "./media/81/media/Fotos intervención/público/ROLLO1-33.JPG", "publico": 1, "url": null }, "geometry": null },
{ "type": "Feature", "properties": { "fid": 2163, "numero_int": 81, "tipo": "(Fotos intervención)", "ruta": "./media/81/media/Fotos intervención/público/ROLLO1-34.JPG", "publico": 1, "url": null }, "geometry": null },
{ "type": "Feature", "properties": { "fid": 2164, "numero_int": 81, "tipo": "(Fotos intervención)", "ruta": "./media/81/media/Fotos intervención/público/ROLLO1-35.jpg", "publico": 1, "url": null }, "geometry": null },
{ "type": "Feature", "properties": { "fid": 2165, "numero_int": 81, "tipo": "(Fotos intervención)", "ruta": "./media/81/media/Fotos intervención/público/ROLLO2-00.jpg", "publico": 1, "url": null }, "geometry": null },
{ "type": "Feature", "properties": { "fid": 2166, "numero_int": 81, "tipo": "(Fotos intervención)", "ruta": "./media/81/media/Fotos intervención/público/ROLLO2-01.jpg", "publico": 1, "url": null }, "geometry": null },
{ "type": "Feature", "properties": { "fid": 2167, "numero_int": 81, "tipo": "(Fotos intervención)", "ruta": "./media/81/media/Fotos intervención/público/ROLLO2-02.jpg", "publico": 1, "url": null }, "geometry": null },
{ "type": "Feature", "properties": { "fid": 2168, "numero_int": 81, "tipo": "(Fotos intervención)", "ruta": "./media/81/media/Fotos intervención/público/ROLLO2-03.jpg", "publico": 1, "url": null }, "geometry": null },
{ "type": "Feature", "properties": { "fid": 2169, "numero_int": 81, "tipo": "(Fotos intervención)", "ruta": "./media/81/media/Fotos intervención/público/ROLLO2-04.jpg", "publico": 1, "url": null }, "geometry": null },
{ "type": "Feature", "properties": { "fid": 2170, "numero_int": 81, "tipo": "(Fotos intervención)", "ruta": "./media/81/media/Fotos intervención/público/ROLLO2-05.jpg", "publico": 1, "url": null }, "geometry": null },
{ "type": "Feature", "properties": { "fid": 2171, "numero_int": 81, "tipo": "(Fotos intervención)", "ruta": "./media/81/media/Fotos intervención/público/ROLLO2-06.jpg", "publico": 1, "url": null }, "geometry": null },
{ "type": "Feature", "properties": { "fid": 2172, "numero_int": 81, "tipo": "(Fotos intervención)", "ruta": "./media/81/media/Fotos intervención/público/ROLLO2-07.jpg", "publico": 1, "url": null }, "geometry": null },
{ "type": "Feature", "properties": { "fid": 2173, "numero_int": 81, "tipo": "(Fotos intervención)", "ruta": "./media/81/media/Fotos intervención/público/ROLLO2-08.jpg", "publico": 1, "url": null }, "geometry": null },
{ "type": "Feature", "properties": { "fid": 2174, "numero_int": 81, "tipo": "(Fotos intervención)", "ruta": "./media/81/media/Fotos intervención/público/ROLLO2-09.jpg", "publico": 1, "url": null }, "geometry": null },
{ "type": "Feature", "properties": { "fid": 2175, "numero_int": 81, "tipo": "(Fotos intervención)", "ruta": "./media/81/media/Fotos intervención/público/ROLLO2-10.JPG", "publico": 1, "url": null }, "geometry": null },
{ "type": "Feature", "properties": { "fid": 2176, "numero_int": 81, "tipo": "(Fotos intervención)", "ruta": "./media/81/media/Fotos intervención/público/ROLLO2-11.JPG", "publico": 1, "url": null }, "geometry": null },
{ "type": "Feature", "properties": { "fid": 2177, "numero_int": 81, "tipo": "(Fotos intervención)", "ruta": "./media/81/media/Fotos intervención/público/ROLLO2-12.JPG", "publico": 1, "url": null }, "geometry": null },
{ "type": "Feature", "properties": { "fid": 2178, "numero_int": 81, "tipo": "(Fotos intervención)", "ruta": "./media/81/media/Fotos intervención/público/ROLLO2-13.JPG", "publico": 1, "url": null }, "geometry": null },
{ "type": "Feature", "properties": { "fid": 2179, "numero_int": 81, "tipo": "(Fotos intervención)", "ruta": "./media/81/media/Fotos intervención/público/ROLLO2-14.JPG", "publico": 1, "url": null }, "geometry": null },
{ "type": "Feature", "properties": { "fid": 2180, "numero_int": 81, "tipo": "(Fotos intervención)", "ruta": "./media/81/media/Fotos intervención/público/ROLLO2-15.JPG", "publico": 1, "url": null }, "geometry": null },
{ "type": "Feature", "properties": { "fid": 2181, "numero_int": 81, "tipo": "(Fotos intervención)", "ruta": "./media/81/media/Fotos intervención/público/ROLLO2-16.JPG", "publico": 1, "url": null }, "geometry": null },
{ "type": "Feature", "properties": { "fid": 2182, "numero_int": 81, "tipo": "(Fotos intervención)", "ruta": "./media/81/media/Fotos intervención/público/ROLLO2-17.JPG", "publico": 1, "url": null }, "geometry": null },
{ "type": "Feature", "properties": { "fid": 2183, "numero_int": 81, "tipo": "(Fotos intervención)", "ruta": "./media/81/media/Fotos intervención/privado/ROLLO2-19.JPG", "publico": 0, "url": null }, "geometry": null },
{ "type": "Feature", "properties": { "fid": 2184, "numero_int": 81, "tipo": "(Fotos intervención)", "ruta": "./media/81/media/Fotos intervención/privado/ROLLO2-20.JPG", "publico": 0, "url": null }, "geometry": null },
{ "type": "Feature", "properties": { "fid": 2185, "numero_int": 81, "tipo": "(Fotos intervención)", "ruta": "./media/81/media/Fotos intervención/privado/ROLLO2-21.JPG", "publico": 0, "url": null }, "geometry": null },
{ "type": "Feature", "properties": { "fid": 2186, "numero_int": 81, "tipo": "(Fotos intervención)", "ruta": "./media/81/media/Fotos intervención/privado/ROLLO2-22.JPG", "publico": 0, "url": null }, "geometry": null },
{ "type": "Feature", "properties": { "fid": 2187, "numero_int": 81, "tipo": "(Fotos intervención)", "ruta": "./media/81/media/Fotos intervención/privado/ROLLO2-23.JPG", "publico": 0, "url": null }, "geometry": null },
{ "type": "Feature", "properties": { "fid": 2188, "numero_int": 81, "tipo": "(Fotos intervención)", "ruta": "./media/81/media/Fotos intervención/privado/ROLLO2-24.JPG", "publico": 0, "url": null }, "geometry": null },
{ "type": "Feature", "properties": { "fid": 2189, "numero_int": 81, "tipo": "(Fotos intervención)", "ruta": "./media/81/media/Fotos intervención/privado/ROLLO2-25.JPG", "publico": 0, "url": null }, "geometry": null },
{ "type": "Feature", "properties": { "fid": 2190, "numero_int": 81, "tipo": "(Fotos intervención)", "ruta": "./media/81/media/Fotos intervención/privado/ROLLO3-01.jpg", "publico": 0, "url": null }, "geometry": null },
{ "type": "Feature", "properties": { "fid": 2191, "numero_int": 81, "tipo": "(Fotos intervención)", "ruta": "./media/81/media/Fotos intervención/privado/ROLLO3-02.jpg", "publico": 0, "url": null }, "geometry": null },
{ "type": "Feature", "properties": { "fid": 2192, "numero_int": 81, "tipo": "(Fotos intervención)", "ruta": "./media/81/media/Fotos intervención/privado/ROLLO3-03.jpg", "publico": 0, "url": null }, "geometry": null },
{ "type": "Feature", "properties": { "fid": 2193, "numero_int": 81, "tipo": "(Fotos intervención)", "ruta": "./media/81/media/Fotos intervención/privado/ROLLO3-04.jpg", "publico": 0, "url": null }, "geometry": null },
{ "type": "Feature", "properties": { "fid": 2194, "numero_int": 81, "tipo": "(Fotos intervención)", "ruta": "./media/81/media/Fotos intervención/privado/ROLLO3-05.jpg", "publico": 0, "url": null }, "geometry": null },
{ "type": "Feature", "properties": { "fid": 2195, "numero_int": 81, "tipo": "(Fotos intervención)", "ruta": "./media/81/media/Fotos intervención/privado/ROLLO3-06.jpg", "publico": 0, "url": null }, "geometry": null },
{ "type": "Feature", "properties": { "fid": 2196, "numero_int": 81, "tipo": "(Fotos intervención)", "ruta": "./media/81/media/Fotos intervención/privado/ROLLO3-07.jpg", "publico": 0, "url": null }, "geometry": null },
{ "type": "Feature", "properties": { "fid": 2197, "numero_int": 81, "tipo": "(Fotos intervención)", "ruta": "./media/81/media/Fotos intervención/privado/ROLLO3-08.jpg", "publico": 0, "url": null }, "geometry": null },
{ "type": "Feature", "properties": { "fid": 2198, "numero_int": 81, "tipo": "(Fotos intervención)", "ruta": "./media/81/media/Fotos intervención/privado/ROLLO3-09.jpg", "publico": 0, "url": null }, "geometry": null },
{ "type": "Feature", "properties": { "fid": 2199, "numero_int": 81, "tipo": "(Fotos intervención)", "ruta": "./media/81/media/Fotos intervención/privado/ROLLO3-10.JPG", "publico": 0, "url": null }, "geometry": null },
{ "type": "Feature", "properties": { "fid": 2200, "numero_int": 81, "tipo": "(Fotos intervención)", "ruta": "./media/81/media/Fotos intervención/privado/ROLLO3-11.JPG", "publico": 0, "url": null }, "geometry": null },
{ "type": "Feature", "properties": { "fid": 2201, "numero_int": 81, "tipo": "(Fotos intervención)", "ruta": "./media/81/media/Fotos intervención/privado/ROLLO3-12.JPG", "publico": 0, "url": null }, "geometry": null },
{ "type": "Feature", "properties": { "fid": 2202, "numero_int": 81, "tipo": "(Fotos intervención)", "ruta": "./media/81/media/Fotos intervención/privado/ROLLO3-13.JPG", "publico": 0, "url": null }, "geometry": null },
{ "type": "Feature", "properties": { "fid": 2203, "numero_int": 81, "tipo": "(Fotos intervención)", "ruta": "./media/81/media/Fotos intervención/privado/ROLLO3-14.JPG", "publico": 0, "url": null }, "geometry": null },
{ "type": "Feature", "properties": { "fid": 2204, "numero_int": 81, "tipo": "(Fotos intervención)", "ruta": "./media/81/media/Fotos intervención/privado/ROLLO3-15.JPG", "publico": 0, "url": null }, "geometry": null },
{ "type": "Feature", "properties": { "fid": 2205, "numero_int": 81, "tipo": "(Fotos intervención)", "ruta": "./media/81/media/Fotos intervención/privado/ROLLO3-16.JPG", "publico": 0, "url": null }, "geometry": null },
{ "type": "Feature", "properties": { "fid": 2206, "numero_int": 81, "tipo": "(Fotos intervención)", "ruta": "./media/81/media/Fotos intervención/privado/ROLLO3-17.JPG", "publico": 0, "url": null }, "geometry": null },
{ "type": "Feature", "properties": { "fid": 2207, "numero_int": 81, "tipo": "(Fotos intervención)", "ruta": "./media/81/media/Fotos intervención/privado/ROLLO3-18.JPG", "publico": 0, "url": null }, "geometry": null },
{ "type": "Feature", "properties": { "fid": 2208, "numero_int": 81, "tipo": "(Fotos intervención)", "ruta": "./media/81/media/Fotos intervención/privado/ROLLO3-19.JPG", "publico": 0, "url": null }, "geometry": null },
{ "type": "Feature", "properties": { "fid": 2209, "numero_int": 81, "tipo": "(Fotos intervención)", "ruta": "./media/81/media/Fotos intervención/privado/ROLLO3-20.JPG", "publico": 0, "url": null }, "geometry": null },
{ "type": "Feature", "properties": { "fid": 2210, "numero_int": 81, "tipo": "(Fotos intervención)", "ruta": "./media/81/media/Fotos intervención/privado/ROLLO3-21.JPG", "publico": 0, "url": null }, "geometry": null },
{ "type": "Feature", "properties": { "fid": 2211, "numero_int": 81, "tipo": "(Fotos intervención)", "ruta": "./media/81/media/Fotos intervención/privado/ROLLO3-22.JPG", "publico": 0, "url": null }, "geometry": null },
{ "type": "Feature", "properties": { "fid": 2212, "numero_int": 81, "tipo": "(Fotos intervención)", "ruta": "./media/81/media/Fotos intervención/privado/ROLLO3-23.JPG", "publico": 0, "url": null }, "geometry": null },
{ "type": "Feature", "properties": { "fid": 2213, "numero_int": 81, "tipo": "(Fotos intervención)", "ruta": "./media/81/media/Fotos intervención/privado/ROLLO3-24.JPG", "publico": 0, "url": null }, "geometry": null },
{ "type": "Feature", "properties": { "fid": 2214, "numero_int": 81, "tipo": "(Fotos intervención)", "ruta": "./media/81/media/Fotos intervención/privado/ROLLO3-25.JPG", "publico": 0, "url": null }, "geometry": null },
{ "type": "Feature", "properties": { "fid": 2215, "numero_int": 81, "tipo": "(Fotos intervención)", "ruta": "./media/81/media/Fotos intervención/privado/ROLLO3-26.JPG", "publico": 0, "url": null }, "geometry": null },
{ "type": "Feature", "properties": { "fid": 2216, "numero_int": 81, "tipo": "(Fotos intervención)", "ruta": "./media/81/media/Fotos intervención/privado/ROLLO3-27.JPG", "publico": 0, "url": null }, "geometry": null },
{ "type": "Feature", "properties": { "fid": 2217, "numero_int": 81, "tipo": "(Fotos intervención)", "ruta": "./media/81/media/Fotos intervención/privado/ROLLO3-28.JPG", "publico": 0, "url": null }, "geometry": null },
{ "type": "Feature", "properties": { "fid": 2218, "numero_int": 81, "tipo": "(Fotos intervención)", "ruta": "./media/81/media/Fotos intervención/privado/ROLLO4-01.jpg", "publico": 0, "url": null }, "geometry": null },
{ "type": "Feature", "properties": { "fid": 2219, "numero_int": 81, "tipo": "(Fotos intervención)", "ruta": "./media/81/media/Fotos intervención/privado/ROLLO4-02.jpg", "publico": 0, "url": null }, "geometry": null },
{ "type": "Feature", "properties": { "fid": 2220, "numero_int": 81, "tipo": "(Fotos intervención)", "ruta": "./media/81/media/Fotos intervención/privado/ROLLO4-03.jpg", "publico": 0, "url": null }, "geometry": null },
{ "type": "Feature", "properties": { "fid": 2221, "numero_int": 81, "tipo": "(Fotos intervención)", "ruta": "./media/81/media/Fotos intervención/privado/ROLLO4-04.jpg", "publico": 0, "url": null }, "geometry": null },
{ "type": "Feature", "properties": { "fid": 2222, "numero_int": 81, "tipo": "(Fotos intervención)", "ruta": "./media/81/media/Fotos intervención/privado/ROLLO4-05.jpg", "publico": 0, "url": null }, "geometry": null },
{ "type": "Feature", "properties": { "fid": 2223, "numero_int": 81, "tipo": "(Fotos intervención)", "ruta": "./media/81/media/Fotos intervención/privado/ROLLO4-06.jpg", "publico": 0, "url": null }, "geometry": null },
{ "type": "Feature", "properties": { "fid": 2224, "numero_int": 81, "tipo": "(Fotos intervención)", "ruta": "./media/81/media/Fotos intervención/privado/ROLLO4-07.jpg", "publico": 0, "url": null }, "geometry": null },
{ "type": "Feature", "properties": { "fid": 2225, "numero_int": 81, "tipo": "(Fotos intervención)", "ruta": "./media/81/media/Fotos intervención/privado/ROLLO4-08.jpg", "publico": 0, "url": null }, "geometry": null },
{ "type": "Feature", "properties": { "fid": 2226, "numero_int": 81, "tipo": "(Fotos intervención)", "ruta": "./media/81/media/Fotos intervención/privado/ROLLO4-10.JPG", "publico": 0, "url": null }, "geometry": null },
{ "type": "Feature", "properties": { "fid": 2227, "numero_int": 81, "tipo": "(Fotos intervención)", "ruta": "./media/81/media/Fotos intervención/privado/ROLLO4-11.JPG", "publico": 0, "url": null }, "geometry": null },
{ "type": "Feature", "properties": { "fid": 2228, "numero_int": 81, "tipo": "(Fotos intervención)", "ruta": "./media/81/media/Fotos intervención/privado/ROLLO4-12.JPG", "publico": 0, "url": null }, "geometry": null },
{ "type": "Feature", "properties": { "fid": 2229, "numero_int": 81, "tipo": "(Fotos intervención)", "ruta": "./media/81/media/Fotos intervención/privado/ROLLO4-14.JPG", "publico": 0, "url": null }, "geometry": null },
{ "type": "Feature", "properties": { "fid": 2230, "numero_int": 81, "tipo": "(Fotos intervención)", "ruta": "./media/81/media/Fotos intervención/privado/ROLLO4-15.JPG", "publico": 0, "url": null }, "geometry": null },
{ "type": "Feature", "properties": { "fid": 2231, "numero_int": 81, "tipo": "(Fotos intervención)", "ruta": "./media/81/media/Fotos intervención/privado/ROLLO4-16.JPG", "publico": 0, "url": null }, "geometry": null },
{ "type": "Feature", "properties": { "fid": 2232, "numero_int": 81, "tipo": "(Fotos intervención)", "ruta": "./media/81/media/Fotos intervención/privado/ROLLO4-17.JPG", "publico": 0, "url": null }, "geometry": null },
{ "type": "Feature", "properties": { "fid": 2233, "numero_int": 81, "tipo": "(Fotos intervención)", "ruta": "./media/81/media/Fotos intervención/privado/ROLLO4-18.JPG", "publico": 0, "url": null }, "geometry": null },
{ "type": "Feature", "properties": { "fid": 2234, "numero_int": 81, "tipo": "(Fotos intervención)", "ruta": "./media/81/media/Fotos intervención/privado/ROLLO4-19.JPG", "publico": 0, "url": null }, "geometry": null },
{ "type": "Feature", "properties": { "fid": 2235, "numero_int": 81, "tipo": "(Fotos intervención)", "ruta": "./media/81/media/Fotos intervención/privado/ROLLO4-20.JPG", "publico": 0, "url": null }, "geometry": null },
{ "type": "Feature", "properties": { "fid": 2236, "numero_int": 81, "tipo": "(Fotos intervención)", "ruta": "./media/81/media/Fotos intervención/privado/ROLLO4-21.JPG", "publico": 0, "url": null }, "geometry": null },
{ "type": "Feature", "properties": { "fid": 2237, "numero_int": 81, "tipo": "(Fotos intervención)", "ruta": "./media/81/media/Fotos intervención/privado/ROLLO4-22.JPG", "publico": 0, "url": null }, "geometry": null },
{ "type": "Feature", "properties": { "fid": 2238, "numero_int": 81, "tipo": "(Fotos intervención)", "ruta": "./media/81/media/Fotos intervención/privado/ROLLO4-23.JPG", "publico": 0, "url": null }, "geometry": null },
{ "type": "Feature", "properties": { "fid": 2239, "numero_int": 81, "tipo": "(Fotos intervención)", "ruta": "./media/81/media/Fotos intervención/privado/ROLLO4-24.JPG", "publico": 0, "url": null }, "geometry": null },
{ "type": "Feature", "properties": { "fid": 2240, "numero_int": 81, "tipo": "(Fotos intervención)", "ruta": "./media/81/media/Fotos intervención/privado/ROLLO4-25.JPG", "publico": 0, "url": null }, "geometry": null },
{ "type": "Feature", "properties": { "fid": 2241, "numero_int": 81, "tipo": "(Hemeroteca)", "ruta": "./media/81/media/Hemeroteca/público/MERCADAL_2000-004.jpg", "publico": 1, "url": null }, "geometry": null },
{ "type": "Feature", "properties": { "fid": 2242, "numero_int": 81, "tipo": "(Hemeroteca)", "ruta": "./media/81/media/Hemeroteca/público/Prensa_MERCADAL_2000.jpg", "publico": 1, "url": null }, "geometry": null },
{ "type": "Feature", "properties": { "fid": 2243, "numero_int": 81, "tipo": "Planimetrías", "ruta": "./media/81/media/Planimetrías/público/INT_27_PlazaMercadal.rar", "publico": 1, "url": null }, "geometry": null }
]
}
