{
"type": "FeatureCollection",
"name": "Parcelas catastrales en intervención",
"features": [
{ "type": "Feature", "properties": { "fid": 445, "numero_int": 95, "tipo": "Urbana", "cod_muni": 232, "cod_poligono": 5, "num_parcela": 406 }, "geometry": null },
{ "type": "Feature", "properties": { "fid": 446, "numero_int": 94, "tipo": "Urbana", "cod_muni": 232, "cod_poligono": 5, "num_parcela": 337 }, "geometry": null },
{ "type": "Feature", "properties": { "fid": 447, "numero_int": 91, "tipo": "Urbana", "cod_muni": 232, "cod_poligono": 5, "num_parcela": 1863 }, "geometry": null },
{ "type": "Feature", "properties": { "fid": 448, "numero_int": 90, "tipo": "Urbana", "cod_muni": 232, "cod_poligono": 3, "num_parcela": 1113 }, "geometry": null },
{ "type": "Feature", "properties": { "fid": 449, "numero_int": 90, "tipo": "Urbana", "cod_muni": 232, "cod_poligono": 3, "num_parcela": 1230 }, "geometry": null },
{ "type": "Feature", "properties": { "fid": 450, "numero_int": 90, "tipo": "Urbana", "cod_muni": 232, "cod_poligono": 3, "num_parcela": 2386 }, "geometry": null },
{ "type": "Feature", "properties": { "fid": 451, "numero_int": 93, "tipo": "Urbana", "cod_muni": 232, "cod_poligono": 3, "num_parcela": 1117 }, "geometry": null },
{ "type": "Feature", "properties": { "fid": 452, "numero_int": 92, "tipo": "Urbana", "cod_muni": 232, "cod_poligono": 5, "num_parcela": 46 }, "geometry": null },
{ "type": "Feature", "properties": { "fid": 453, "numero_int": 7, "tipo": "Urbana", "cod_muni": 232, "cod_poligono": 5, "num_parcela": 267 }, "geometry": null },
{ "type": "Feature", "properties": { "fid": 454, "numero_int": 6, "tipo": "Urbana", "cod_muni": 232, "cod_poligono": 3, "num_parcela": 2391 }, "geometry": null },
{ "type": "Feature", "properties": { "fid": 455, "numero_int": 9, "tipo": "Urbana", "cod_muni": 232, "cod_poligono": 5, "num_parcela": 901 }, "geometry": null },
{ "type": "Feature", "properties": { "fid": 456, "numero_int": 8, "tipo": "Urbana", "cod_muni": 232, "cod_poligono": 5, "num_parcela": 1481 }, "geometry": null },
{ "type": "Feature", "properties": { "fid": 457, "numero_int": 3, "tipo": "Urbana", "cod_muni": 232, "cod_poligono": 5, "num_parcela": 1698 }, "geometry": null },
{ "type": "Feature", "properties": { "fid": 458, "numero_int": 5, "tipo": "Mixta", "cod_muni": 232, "cod_poligono": 7, "num_parcela": 912 }, "geometry": null },
{ "type": "Feature", "properties": { "fid": 459, "numero_int": 4, "tipo": "Mixta", "cod_muni": 232, "cod_poligono": 7, "num_parcela": 912 }, "geometry": null },
{ "type": "Feature", "properties": { "fid": 460, "numero_int": 14, "tipo": "Urbana", "cod_muni": 232, "cod_poligono": 3, "num_parcela": 1516 }, "geometry": null },
{ "type": "Feature", "properties": { "fid": 461, "numero_int": 14, "tipo": "Urbana", "cod_muni": 232, "cod_poligono": 3, "num_parcela": 1522 }, "geometry": null },
{ "type": "Feature", "properties": { "fid": 462, "numero_int": 15, "tipo": "Vía", "cod_muni": 232, "cod_poligono": 5, "num_parcela": 8043 }, "geometry": null },
{ "type": "Feature", "properties": { "fid": 463, "numero_int": 17, "tipo": "Urbana", "cod_muni": 232, "cod_poligono": 5, "num_parcela": 1653 }, "geometry": null },
{ "type": "Feature", "properties": { "fid": 464, "numero_int": 16, "tipo": "Vía", "cod_muni": 232, "cod_poligono": 5, "num_parcela": 8122 }, "geometry": null },
{ "type": "Feature", "properties": { "fid": 465, "numero_int": 11, "tipo": "Mixta", "cod_muni": 232, "cod_poligono": 7, "num_parcela": 912 }, "geometry": null },
{ "type": "Feature", "properties": { "fid": 466, "numero_int": 10, "tipo": "Urbana", "cod_muni": 232, "cod_poligono": 5, "num_parcela": 450 }, "geometry": null },
{ "type": "Feature", "properties": { "fid": 467, "numero_int": 13, "tipo": "Mixta", "cod_muni": 232, "cod_poligono": 7, "num_parcela": 912 }, "geometry": null },
{ "type": "Feature", "properties": { "fid": 468, "numero_int": 12, "tipo": "Mixta", "cod_muni": 232, "cod_poligono": 7, "num_parcela": 912 }, "geometry": null },
{ "type": "Feature", "properties": { "fid": 469, "numero_int": 23, "tipo": "Urbana", "cod_muni": 232, "cod_poligono": 5, "num_parcela": 1694 }, "geometry": null },
{ "type": "Feature", "properties": { "fid": 470, "numero_int": 22, "tipo": "(Rústica)", "cod_muni": 232, "cod_poligono": 7, "num_parcela": 279 }, "geometry": null },
{ "type": "Feature", "properties": { "fid": 471, "numero_int": 22, "tipo": "(Rústica)", "cod_muni": 232, "cod_poligono": 7, "num_parcela": 281 }, "geometry": null },
{ "type": "Feature", "properties": { "fid": 472, "numero_int": 22, "tipo": "(Rústica)", "cod_muni": 232, "cod_poligono": 7, "num_parcela": 278 }, "geometry": null },
{ "type": "Feature", "properties": { "fid": 473, "numero_int": 25, "tipo": "Urbana", "cod_muni": 232, "cod_poligono": 5, "num_parcela": 115 }, "geometry": null },
{ "type": "Feature", "properties": { "fid": 474, "numero_int": 25, "tipo": "Urbana", "cod_muni": 232, "cod_poligono": 5, "num_parcela": 117 }, "geometry": null },
{ "type": "Feature", "properties": { "fid": 475, "numero_int": 24, "tipo": "Urbana", "cod_muni": 232, "cod_poligono": 5, "num_parcela": 937 }, "geometry": null },
{ "type": "Feature", "properties": { "fid": 476, "numero_int": 19, "tipo": "Urbana", "cod_muni": 232, "cod_poligono": 5, "num_parcela": 1601 }, "geometry": null },
{ "type": "Feature", "properties": { "fid": 477, "numero_int": 19, "tipo": "Urbana", "cod_muni": 232, "cod_poligono": 5, "num_parcela": 1602 }, "geometry": null },
{ "type": "Feature", "properties": { "fid": 478, "numero_int": 18, "tipo": "Urbana", "cod_muni": 232, "cod_poligono": 5, "num_parcela": 1652 }, "geometry": null },
{ "type": "Feature", "properties": { "fid": 479, "numero_int": 21, "tipo": "Urbana", "cod_muni": 232, "cod_poligono": 7, "num_parcela": 233 }, "geometry": null },
{ "type": "Feature", "properties": { "fid": 480, "numero_int": 20, "tipo": "Mixta", "cod_muni": 232, "cod_poligono": 7, "num_parcela": 912 }, "geometry": null },
{ "type": "Feature", "properties": { "fid": 481, "numero_int": 31, "tipo": "Urbana", "cod_muni": 232, "cod_poligono": 5, "num_parcela": 1041 }, "geometry": null },
{ "type": "Feature", "properties": { "fid": 482, "numero_int": 30, "tipo": "Urbana", "cod_muni": 232, "cod_poligono": 5, "num_parcela": 164 }, "geometry": null },
{ "type": "Feature", "properties": { "fid": 483, "numero_int": 33, "tipo": "Vía", "cod_muni": 232, "cod_poligono": 5, "num_parcela": 8120 }, "geometry": null },
{ "type": "Feature", "properties": { "fid": 484, "numero_int": 32, "tipo": "Urbana", "cod_muni": 232, "cod_poligono": 5, "num_parcela": 347 }, "geometry": null },
{ "type": "Feature", "properties": { "fid": 485, "numero_int": 27, "tipo": "Vía", "cod_muni": 232, "cod_poligono": 5, "num_parcela": 8048 }, "geometry": null },
{ "type": "Feature", "properties": { "fid": 486, "numero_int": 27, "tipo": "Vía", "cod_muni": 232, "cod_poligono": 5, "num_parcela": 8061 }, "geometry": null },
{ "type": "Feature", "properties": { "fid": 487, "numero_int": 27, "tipo": "Vía", "cod_muni": 232, "cod_poligono": 5, "num_parcela": 8157 }, "geometry": null },
{ "type": "Feature", "properties": { "fid": 488, "numero_int": 26, "tipo": "Urbana", "cod_muni": 232, "cod_poligono": 7, "num_parcela": 158 }, "geometry": null },
{ "type": "Feature", "properties": { "fid": 489, "numero_int": 29, "tipo": "Urbana", "cod_muni": 232, "cod_poligono": 5, "num_parcela": 1730 }, "geometry": null },
{ "type": "Feature", "properties": { "fid": 490, "numero_int": 28, "tipo": "Urbana", "cod_muni": 232, "cod_poligono": 5, "num_parcela": 730 }, "geometry": null },
{ "type": "Feature", "properties": { "fid": 491, "numero_int": 39, "tipo": "(Rústica)", "cod_muni": 232, "cod_poligono": 8, "num_parcela": 444 }, "geometry": null },
{ "type": "Feature", "properties": { "fid": 492, "numero_int": 38, "tipo": "Urbana", "cod_muni": 232, "cod_poligono": 5, "num_parcela": 1733 }, "geometry": null },
{ "type": "Feature", "properties": { "fid": 493, "numero_int": 41, "tipo": "Urbana", "cod_muni": 232, "cod_poligono": 5, "num_parcela": 1721 }, "geometry": null },
{ "type": "Feature", "properties": { "fid": 494, "numero_int": 40, "tipo": "Urbana", "cod_muni": 232, "cod_poligono": 5, "num_parcela": 1194 }, "geometry": null },
{ "type": "Feature", "properties": { "fid": 495, "numero_int": 35, "tipo": "Mixta", "cod_muni": 232, "cod_poligono": 7, "num_parcela": 912 }, "geometry": null },
{ "type": "Feature", "properties": { "fid": 496, "numero_int": 34, "tipo": "(Rústica)", "cod_muni": 232, "cod_poligono": 7, "num_parcela": 307 }, "geometry": null },
{ "type": "Feature", "properties": { "fid": 497, "numero_int": 34, "tipo": "Mixta", "cod_muni": 232, "cod_poligono": 7, "num_parcela": 912 }, "geometry": null },
{ "type": "Feature", "properties": { "fid": 498, "numero_int": 37, "tipo": "Urbana", "cod_muni": 232, "cod_poligono": 5, "num_parcela": 1710 }, "geometry": null },
{ "type": "Feature", "properties": { "fid": 499, "numero_int": 36, "tipo": "Mixta", "cod_muni": 232, "cod_poligono": 7, "num_parcela": 912 }, "geometry": null },
{ "type": "Feature", "properties": { "fid": 500, "numero_int": 47, "tipo": "Urbana", "cod_muni": 232, "cod_poligono": 5, "num_parcela": 161 }, "geometry": null },
{ "type": "Feature", "properties": { "fid": 501, "numero_int": 46, "tipo": "Mixta", "cod_muni": 232, "cod_poligono": 7, "num_parcela": 912 }, "geometry": null },
{ "type": "Feature", "properties": { "fid": 502, "numero_int": 49, "tipo": "Urbana", "cod_muni": 232, "cod_poligono": 3, "num_parcela": 1588 }, "geometry": null },
{ "type": "Feature", "properties": { "fid": 503, "numero_int": 48, "tipo": "Urbana", "cod_muni": 232, "cod_poligono": 5, "num_parcela": 1813 }, "geometry": null },
{ "type": "Feature", "properties": { "fid": 504, "numero_int": 43, "tipo": "Urbana", "cod_muni": 232, "cod_poligono": 5, "num_parcela": 1086 }, "geometry": null },
{ "type": "Feature", "properties": { "fid": 505, "numero_int": 42, "tipo": "Urbana", "cod_muni": 232, "cod_poligono": 5, "num_parcela": 1731 }, "geometry": null },
{ "type": "Feature", "properties": { "fid": 506, "numero_int": 45, "tipo": "Mixta", "cod_muni": 232, "cod_poligono": 7, "num_parcela": 912 }, "geometry": null },
{ "type": "Feature", "properties": { "fid": 507, "numero_int": 44, "tipo": "Urbana", "cod_muni": 232, "cod_poligono": 5, "num_parcela": 686 }, "geometry": null },
{ "type": "Feature", "properties": { "fid": 508, "numero_int": 55, "tipo": "Urbana", "cod_muni": 232, "cod_poligono": 5, "num_parcela": 346 }, "geometry": null },
{ "type": "Feature", "properties": { "fid": 509, "numero_int": 54, "tipo": "Urbana", "cod_muni": 232, "cod_poligono": 5, "num_parcela": 1815 }, "geometry": null },
{ "type": "Feature", "properties": { "fid": 510, "numero_int": 57, "tipo": "Urbana", "cod_muni": 232, "cod_poligono": 5, "num_parcela": 776 }, "geometry": null },
{ "type": "Feature", "properties": { "fid": 511, "numero_int": 56, "tipo": "Urbana", "cod_muni": 232, "cod_poligono": 3, "num_parcela": 1024 }, "geometry": null },
{ "type": "Feature", "properties": { "fid": 512, "numero_int": 56, "tipo": "Urbana", "cod_muni": 232, "cod_poligono": 3, "num_parcela": 1025 }, "geometry": null },
{ "type": "Feature", "properties": { "fid": 513, "numero_int": 51, "tipo": "Urbana", "cod_muni": 232, "cod_poligono": 5, "num_parcela": 1180 }, "geometry": null },
{ "type": "Feature", "properties": { "fid": 514, "numero_int": 50, "tipo": "Mixta", "cod_muni": 232, "cod_poligono": 7, "num_parcela": 912 }, "geometry": null },
{ "type": "Feature", "properties": { "fid": 515, "numero_int": 53, "tipo": "Urbana", "cod_muni": 232, "cod_poligono": 5, "num_parcela": 12 }, "geometry": null },
{ "type": "Feature", "properties": { "fid": 516, "numero_int": 52, "tipo": "Urbana", "cod_muni": 232, "cod_poligono": 5, "num_parcela": 978 }, "geometry": null },
{ "type": "Feature", "properties": { "fid": 517, "numero_int": 63, "tipo": "Urbana", "cod_muni": 232, "cod_poligono": 5, "num_parcela": 974 }, "geometry": null },
{ "type": "Feature", "properties": { "fid": 518, "numero_int": 62, "tipo": "Urbana", "cod_muni": 232, "cod_poligono": 5, "num_parcela": 156 }, "geometry": null },
{ "type": "Feature", "properties": { "fid": 519, "numero_int": 65, "tipo": "Urbana", "cod_muni": 232, "cod_poligono": 5, "num_parcela": 766 }, "geometry": null },
{ "type": "Feature", "properties": { "fid": 520, "numero_int": 64, "tipo": "Urbana", "cod_muni": 232, "cod_poligono": 5, "num_parcela": 493 }, "geometry": null },
{ "type": "Feature", "properties": { "fid": 521, "numero_int": 59, "tipo": "Vía", "cod_muni": 232, "cod_poligono": 5, "num_parcela": 8060 }, "geometry": null },
{ "type": "Feature", "properties": { "fid": 522, "numero_int": 58, "tipo": "Urbana", "cod_muni": 232, "cod_poligono": 5, "num_parcela": 902 }, "geometry": null },
{ "type": "Feature", "properties": { "fid": 523, "numero_int": 61, "tipo": "Urbana", "cod_muni": 232, "cod_poligono": 5, "num_parcela": 295 }, "geometry": null },
{ "type": "Feature", "properties": { "fid": 524, "numero_int": 60, "tipo": "Urbana", "cod_muni": 232, "cod_poligono": 5, "num_parcela": 211 }, "geometry": null },
{ "type": "Feature", "properties": { "fid": 525, "numero_int": 71, "tipo": "Urbana", "cod_muni": 232, "cod_poligono": 5, "num_parcela": 1229 }, "geometry": null },
{ "type": "Feature", "properties": { "fid": 526, "numero_int": 70, "tipo": "Urbana", "cod_muni": 232, "cod_poligono": 5, "num_parcela": 755 }, "geometry": null },
{ "type": "Feature", "properties": { "fid": 527, "numero_int": 73, "tipo": "Urbana", "cod_muni": 232, "cod_poligono": 5, "num_parcela": 690 }, "geometry": null },
{ "type": "Feature", "properties": { "fid": 528, "numero_int": 72, "tipo": "Urbana", "cod_muni": 232, "cod_poligono": 5, "num_parcela": 734 }, "geometry": null },
{ "type": "Feature", "properties": { "fid": 529, "numero_int": 67, "tipo": "Urbana", "cod_muni": 232, "cod_poligono": 5, "num_parcela": 44 }, "geometry": null },
{ "type": "Feature", "properties": { "fid": 530, "numero_int": 66, "tipo": "Urbana", "cod_muni": 232, "cod_poligono": 5, "num_parcela": 1133 }, "geometry": null },
{ "type": "Feature", "properties": { "fid": 531, "numero_int": 69, "tipo": "Urbana", "cod_muni": 232, "cod_poligono": 5, "num_parcela": 752 }, "geometry": null },
{ "type": "Feature", "properties": { "fid": 532, "numero_int": 68, "tipo": "Urbana", "cod_muni": 232, "cod_poligono": 5, "num_parcela": 1800 }, "geometry": null },
{ "type": "Feature", "properties": { "fid": 533, "numero_int": 79, "tipo": "Urbana", "cod_muni": 232, "cod_poligono": 5, "num_parcela": 1840 }, "geometry": null },
{ "type": "Feature", "properties": { "fid": 534, "numero_int": 78, "tipo": "Urbana", "cod_muni": 232, "cod_poligono": 5, "num_parcela": 581 }, "geometry": null },
{ "type": "Feature", "properties": { "fid": 535, "numero_int": 81, "tipo": "Urbana", "cod_muni": 232, "cod_poligono": 5, "num_parcela": 671 }, "geometry": null },
{ "type": "Feature", "properties": { "fid": 536, "numero_int": 81, "tipo": "Urbana", "cod_muni": 232, "cod_poligono": 5, "num_parcela": 675 }, "geometry": null },
{ "type": "Feature", "properties": { "fid": 537, "numero_int": 81, "tipo": "Urbana", "cod_muni": 232, "cod_poligono": 5, "num_parcela": 1871 }, "geometry": null },
{ "type": "Feature", "properties": { "fid": 538, "numero_int": 81, "tipo": "Urbana", "cod_muni": 232, "cod_poligono": 5, "num_parcela": 658 }, "geometry": null },
{ "type": "Feature", "properties": { "fid": 539, "numero_int": 81, "tipo": "Urbana", "cod_muni": 232, "cod_poligono": 5, "num_parcela": 1851 }, "geometry": null },
{ "type": "Feature", "properties": { "fid": 540, "numero_int": 81, "tipo": "Urbana", "cod_muni": 232, "cod_poligono": 5, "num_parcela": 683 }, "geometry": null },
{ "type": "Feature", "properties": { "fid": 541, "numero_int": 80, "tipo": "Urbana", "cod_muni": 232, "cod_poligono": 5, "num_parcela": 561 }, "geometry": null },
{ "type": "Feature", "properties": { "fid": 542, "numero_int": 75, "tipo": "Vía", "cod_muni": 232, "cod_poligono": 5, "num_parcela": 8050 }, "geometry": null },
{ "type": "Feature", "properties": { "fid": 543, "numero_int": 75, "tipo": "Vía", "cod_muni": 232, "cod_poligono": 5, "num_parcela": 8013 }, "geometry": null },
{ "type": "Feature", "properties": { "fid": 544, "numero_int": 75, "tipo": "Vía", "cod_muni": 232, "cod_poligono": 5, "num_parcela": 8014 }, "geometry": null },
{ "type": "Feature", "properties": { "fid": 545, "numero_int": 74, "tipo": "Urbana", "cod_muni": 232, "cod_poligono": 5, "num_parcela": 70 }, "geometry": null },
{ "type": "Feature", "properties": { "fid": 546, "numero_int": 77, "tipo": "Urbana", "cod_muni": 232, "cod_poligono": 5, "num_parcela": 19 }, "geometry": null },
{ "type": "Feature", "properties": { "fid": 547, "numero_int": 76, "tipo": "Urbana", "cod_muni": 232, "cod_poligono": 5, "num_parcela": 996 }, "geometry": null },
{ "type": "Feature", "properties": { "fid": 548, "numero_int": 87, "tipo": "Urbana", "cod_muni": 232, "cod_poligono": 5, "num_parcela": 769 }, "geometry": null },
{ "type": "Feature", "properties": { "fid": 549, "numero_int": 86, "tipo": "Urbana", "cod_muni": 232, "cod_poligono": 5, "num_parcela": 624 }, "geometry": null },
{ "type": "Feature", "properties": { "fid": 550, "numero_int": 89, "tipo": "Urbana", "cod_muni": 232, "cod_poligono": 5, "num_parcela": 631 }, "geometry": null },
{ "type": "Feature", "properties": { "fid": 551, "numero_int": 88, "tipo": "Urbana", "cod_muni": 232, "cod_poligono": 5, "num_parcela": 1864 }, "geometry": null },
{ "type": "Feature", "properties": { "fid": 552, "numero_int": 83, "tipo": "Urbana", "cod_muni": 232, "cod_poligono": 4, "num_parcela": 136 }, "geometry": null },
{ "type": "Feature", "properties": { "fid": 553, "numero_int": 82, "tipo": "Mixta", "cod_muni": 232, "cod_poligono": 4, "num_parcela": 307 }, "geometry": null },
{ "type": "Feature", "properties": { "fid": 554, "numero_int": 85, "tipo": "Urbana", "cod_muni": 232, "cod_poligono": 5, "num_parcela": 1851 }, "geometry": null },
{ "type": "Feature", "properties": { "fid": 555, "numero_int": 84, "tipo": "Urbana", "cod_muni": 232, "cod_poligono": 5, "num_parcela": 54 }, "geometry": null }
]
}
