{
"type": "FeatureCollection",
"name": "Piezas destacadas",
"features": [
{ "type": "Feature", "properties": { "fid": 1, "num_pieza": 1, "numero_int": 10, "sigla": null, "morfologia": "Ataifor", "objeto": null, "cronologia": "ALT_IMP_ROMA", "produccion": null, "descripcion": null, "decoracion": null, "dimensiones": null, "bibliografia": null, "enlace_3D": "" }, "geometry": null },
{ "type": "Feature", "properties": { "fid": 2, "num_pieza": 2, "numero_int": 81, "sigla": "uo", "morfologia": "Artefacto", "objeto": "Plato carenado", "cronologia": "MODE", "produccion": "Artesana", "descripcion": "Cuenco carenado con perfil y pieza completa con pie anular. Decoración sencilla radial vegetal esquemática. Esmalte interior. Loza verde y morada.", "decoracion": "Un plato de cerámica con dibujos.", "dimensiones": "20 cm de diámetro", "bibliografia": null, "enlace_3D": "https://sketchfab.com/3d-models/cuenco-carenado-ceramica-bajomedieval-3427a81d223940b7ba8380b36e1f6d76" }, "geometry": null },
{ "type": "Feature", "properties": { "fid": 3, "num_pieza": 3, "numero_int": 81, "sigla": "er", "morfologia": "Redondo", "objeto": "Plato carenado", "cronologia": "MODE", "produccion": "Artesanal", "descripcion": "Decoración con motivo central cuadrado con bandas paralelas. Decoración radial con motivos vegetales y geométricos, al exterior círculos paralelas.", "decoracion": "Dibujos variados.", "dimensiones": "20 cm de diámetro", "bibliografia": null, "enlace_3D": "https://sketchfab.com/3d-models/plato-loza-dorada-99b36cb9227640db8627bc1bb0989931" }, "geometry": null },
{ "type": "Feature", "properties": { "fid": 4, "num_pieza": 4, "numero_int": 81, "sigla": "er", "morfologia": "Redondo", "objeto": "Cuenco", "cronologia": "AND", "produccion": "Artesanal", "descripcion": "Cuenco de forma globular con perfil completo. Cerámica andalusí (s. X-inicios S.XII). Común oxidante.", "decoracion": null, "dimensiones": "10 cm de diámetro y 10 cm de altura.", "bibliografia": null, "enlace_3D": "https://sketchfab.com/3d-models/cuenco-ceramica-andalusi-55ca6bd615c84184bf83c7c60015b401" }, "geometry": null },
{ "type": "Feature", "properties": { "fid": 5, "num_pieza": 1000, "numero_int": 55555, "sigla": "aaaa", "morfologia": null, "objeto": null, "cronologia": "ALT_IMP_ROMA", "produccion": null, "descripcion": null, "decoracion": null, "dimensiones": null, "bibliografia": null, "enlace_3D": "https://sketchfab.com/3d-models/cuenco-carenado-ceramica-bajomedieval-3427a81d223940b7ba8380b36e1f6d76" }, "geometry": null },
{ "type": "Feature", "properties": { "fid": 6, "num_pieza": 1001, "numero_int": 55555, "sigla": null, "morfologia": null, "objeto": null, "cronologia": "ALT_IMP_ROMA", "produccion": null, "descripcion": null, "decoracion": null, "dimensiones": null, "bibliografia": null, "enlace_3D": null }, "geometry": null }
]
}
