{
"type": "FeatureCollection",
"name": "Restos en intervención",
"features": [
{ "type": "Feature", "properties": { "fid": 1, "numero_int": 10, "conserva_restos": 0, "restos_in_situ": 0, "restos_visibles": 0, "restos_visitables": 0, "res_observaci": null, "tipo_resto": "VIV", "subtipo_resto": "ALMA", "fase_hist": "AND_MUS" }, "geometry": null },
{ "type": "Feature", "properties": { "fid": 2, "numero_int": 27, "conserva_restos": 1, "restos_in_situ": 0, "restos_visibles": 0, "restos_visitables": 0, "res_observaci": null, "tipo_resto": "FORT", "subtipo_resto": "MURA", "fase_hist": "AND_MUS" }, "geometry": null },
{ "type": "Feature", "properties": { "fid": 3, "numero_int": 66, "conserva_restos": 1, "restos_in_situ": 0, "restos_visibles": 0, "restos_visitables": 0, "res_observaci": null, "tipo_resto": "ESP_DOM", "subtipo_resto": "COCI", "fase_hist": "MED_CRI" }, "geometry": null },
{ "type": "Feature", "properties": { "fid": 4, "numero_int": 81, "conserva_restos": 1, "restos_in_situ": 0, "restos_visibles": 0, "restos_visitables": 0, "res_observaci": null, "tipo_resto": "ESP_DOM", "subtipo_resto": "BODE", "fase_hist": "MED_CRI" }, "geometry": null },
{ "type": "Feature", "properties": { "fid": 5, "numero_int": 81, "conserva_restos": 1, "restos_in_situ": 0, "restos_visibles": 0, "restos_visitables": 0, "res_observaci": null, "tipo_resto": "ESP_ART", "subtipo_resto": "HORN_ART", "fase_hist": "MODERN" }, "geometry": null },
{ "type": "Feature", "properties": { "fid": 6, "numero_int": 11, "conserva_restos": 1, "restos_in_situ": 0, "restos_visibles": 0, "restos_visitables": 0, "res_observaci": null, "tipo_resto": "ESP_DOM", "subtipo_resto": "CASA", "fase_hist": "MED_JUD" }, "geometry": null },
{ "type": "Feature", "properties": { "fid": 7, "numero_int": 11, "conserva_restos": 0, "restos_in_situ": 0, "restos_visibles": 0, "restos_visitables": 0, "res_observaci": null, "tipo_resto": "VIV", "subtipo_resto": "CASA", "fase_hist": "MED_CRI" }, "geometry": null },
{ "type": "Feature", "properties": { "fid": 8, "numero_int": 11, "conserva_restos": 1, "restos_in_situ": 0, "restos_visibles": 0, "restos_visitables": 0, "res_observaci": null, "tipo_resto": "ESP_DOM", "subtipo_resto": "PATI", "fase_hist": "MED_JUD" }, "geometry": null },
{ "type": "Feature", "properties": { "fid": 9, "numero_int": 11, "conserva_restos": 0, "restos_in_situ": 0, "restos_visibles": 0, "restos_visitables": 0, "res_observaci": null, "tipo_resto": "ESP_DOM", "subtipo_resto": "PATI", "fase_hist": "MED_CRI" }, "geometry": null },
{ "type": "Feature", "properties": { "fid": 10, "numero_int": 11, "conserva_restos": 1, "restos_in_situ": 0, "restos_visibles": 0, "restos_visitables": 0, "res_observaci": null, "tipo_resto": "FORT", "subtipo_resto": "TORON", "fase_hist": "MED_CRI" }, "geometry": null },
{ "type": "Feature", "properties": { "fid": 11, "numero_int": 12, "conserva_restos": 1, "restos_in_situ": 1, "restos_visibles": 1, "restos_visitables": 0, "res_observaci": null, "tipo_resto": "FORT", "subtipo_resto": "MURA", "fase_hist": "MED_CRI" }, "geometry": null },
{ "type": "Feature", "properties": { "fid": 12, "numero_int": 13, "conserva_restos": 1, "restos_in_situ": 0, "restos_visibles": 0, "restos_visitables": 0, "res_observaci": null, "tipo_resto": "VIV", "subtipo_resto": "CASA", "fase_hist": "MED_CRI" }, "geometry": null },
{ "type": "Feature", "properties": { "fid": 13, "numero_int": 13, "conserva_restos": 1, "restos_in_situ": 0, "restos_visibles": 0, "restos_visitables": 0, "res_observaci": null, "tipo_resto": "VIV", "subtipo_resto": "CASA", "fase_hist": "ROM" }, "geometry": null },
{ "type": "Feature", "properties": { "fid": 14, "numero_int": 13, "conserva_restos": 1, "restos_in_situ": 0, "restos_visibles": 0, "restos_visitables": 0, "res_observaci": null, "tipo_resto": "VIV", "subtipo_resto": "CASA", "fase_hist": "EDA_HIE_II" }, "geometry": null },
{ "type": "Feature", "properties": { "fid": 15, "numero_int": 13, "conserva_restos": 1, "restos_in_situ": 0, "restos_visibles": 0, "restos_visitables": 0, "res_observaci": null, "tipo_resto": "VIV", "subtipo_resto": "CASA", "fase_hist": "EDA_HIE_I" }, "geometry": null },
{ "type": "Feature", "properties": { "fid": 16, "numero_int": 14, "conserva_restos": 1, "restos_in_situ": 0, "restos_visibles": 0, "restos_visitables": 0, "res_observaci": null, "tipo_resto": "EDI_REL", "subtipo_resto": "CONV", "fase_hist": "MODERN" }, "geometry": null },
{ "type": "Feature", "properties": { "fid": 17, "numero_int": 14, "conserva_restos": 0, "restos_in_situ": 0, "restos_visibles": 0, "restos_visitables": 0, "res_observaci": null, "tipo_resto": "VIV", "subtipo_resto": "CASA", "fase_hist": "MODERN" }, "geometry": null },
{ "type": "Feature", "properties": { "fid": 18, "numero_int": 14, "conserva_restos": 0, "restos_in_situ": 0, "restos_visibles": 0, "restos_visitables": 0, "res_observaci": null, "tipo_resto": "VIV", "subtipo_resto": "CASA", "fase_hist": "CONTEM" }, "geometry": null },
{ "type": "Feature", "properties": { "fid": 19, "numero_int": 14, "conserva_restos": 0, "restos_in_situ": 0, "restos_visibles": 0, "restos_visitables": 0, "res_observaci": null, "tipo_resto": "ESP_ART", "subtipo_resto": "HORN_ART", "fase_hist": "MED_MUD" }, "geometry": null },
{ "type": "Feature", "properties": { "fid": 20, "numero_int": 15, "conserva_restos": 1, "restos_in_situ": 0, "restos_visibles": 0, "restos_visitables": 0, "res_observaci": null, "tipo_resto": "EDI_REL", "subtipo_resto": "MEZQ", "fase_hist": "AND_MUS" }, "geometry": null },
{ "type": "Feature", "properties": { "fid": 21, "numero_int": 15, "conserva_restos": 1, "restos_in_situ": 0, "restos_visibles": 0, "restos_visitables": 0, "res_observaci": null, "tipo_resto": "EDI_REL", "subtipo_resto": "CATE", "fase_hist": "MED_CRI" }, "geometry": null },
{ "type": "Feature", "properties": { "fid": 22, "numero_int": 15, "conserva_restos": 0, "restos_in_situ": 0, "restos_visibles": 0, "restos_visitables": 0, "res_observaci": null, "tipo_resto": "ESP_PUB", "subtipo_resto": "PLAZ", "fase_hist": "MODERN" }, "geometry": null },
{ "type": "Feature", "properties": { "fid": 23, "numero_int": 15, "conserva_restos": 0, "restos_in_situ": 0, "restos_visibles": 0, "restos_visitables": 0, "res_observaci": null, "tipo_resto": "ESP_PUB", "subtipo_resto": "PLAZ", "fase_hist": "CONTEM" }, "geometry": null },
{ "type": "Feature", "properties": { "fid": 24, "numero_int": 15, "conserva_restos": 1, "restos_in_situ": 0, "restos_visibles": 0, "restos_visitables": 0, "res_observaci": null, "tipo_resto": "INFRA", "subtipo_resto": "POZO", "fase_hist": "AND_MUS" }, "geometry": null },
{ "type": "Feature", "properties": { "fid": 25, "numero_int": 16, "conserva_restos": 0, "restos_in_situ": 0, "restos_visibles": 0, "restos_visitables": 0, "res_observaci": null, "tipo_resto": "EDI_REL", "subtipo_resto": "CONV", "fase_hist": "MED_CRI" }, "geometry": null },
{ "type": "Feature", "properties": { "fid": 26, "numero_int": 16, "conserva_restos": 0, "restos_in_situ": 0, "restos_visibles": 0, "restos_visitables": 0, "res_observaci": null, "tipo_resto": "ESP_PUB", "subtipo_resto": "CALL", "fase_hist": "AND_MUS" }, "geometry": null },
{ "type": "Feature", "properties": { "fid": 27, "numero_int": 16, "conserva_restos": 0, "restos_in_situ": 0, "restos_visibles": 0, "restos_visitables": 0, "res_observaci": null, "tipo_resto": "ESP_PUB", "subtipo_resto": "CALL", "fase_hist": "MED_CRI" }, "geometry": null },
{ "type": "Feature", "properties": { "fid": 28, "numero_int": 16, "conserva_restos": 0, "restos_in_situ": 0, "restos_visibles": 0, "restos_visitables": 0, "res_observaci": null, "tipo_resto": "VIV", "subtipo_resto": "CASA", "fase_hist": "AND_MUS" }, "geometry": null },
{ "type": "Feature", "properties": { "fid": 29, "numero_int": 16, "conserva_restos": 0, "restos_in_situ": 0, "restos_visibles": 0, "restos_visitables": 0, "res_observaci": null, "tipo_resto": "VIV", "subtipo_resto": "CASA", "fase_hist": "MED_CRI" }, "geometry": null },
{ "type": "Feature", "properties": { "fid": 30, "numero_int": 16, "conserva_restos": 0, "restos_in_situ": 0, "restos_visibles": 0, "restos_visitables": 0, "res_observaci": null, "tipo_resto": "ESP_DOM", "subtipo_resto": "PATI", "fase_hist": "MODERN" }, "geometry": null },
{ "type": "Feature", "properties": { "fid": 31, "numero_int": 16, "conserva_restos": 0, "restos_in_situ": 0, "restos_visibles": 0, "restos_visitables": 0, "res_observaci": null, "tipo_resto": "ESP_DOM", "subtipo_resto": "ZAGU", "fase_hist": "MODERN" }, "geometry": null },
{ "type": "Feature", "properties": { "fid": 32, "numero_int": 16, "conserva_restos": 0, "restos_in_situ": 0, "restos_visibles": 0, "restos_visitables": 0, "res_observaci": null, "tipo_resto": "ESP_DOM", "subtipo_resto": "SILO", "fase_hist": "AND_MUS" }, "geometry": null },
{ "type": "Feature", "properties": { "fid": 33, "numero_int": 17, "conserva_restos": 1, "restos_in_situ": 0, "restos_visibles": 0, "restos_visitables": 0, "res_observaci": null, "tipo_resto": "FORT", "subtipo_resto": "MURA", "fase_hist": "AND_MUS" }, "geometry": null },
{ "type": "Feature", "properties": { "fid": 34, "numero_int": 17, "conserva_restos": 1, "restos_in_situ": 0, "restos_visibles": 0, "restos_visitables": 0, "res_observaci": null, "tipo_resto": "ESP_PUB", "subtipo_resto": "CALL", "fase_hist": "MED_CRI" }, "geometry": null },
{ "type": "Feature", "properties": { "fid": 35, "numero_int": 17, "conserva_restos": 1, "restos_in_situ": 0, "restos_visibles": 0, "restos_visitables": 0, "res_observaci": null, "tipo_resto": "VIV", "subtipo_resto": "CASA", "fase_hist": "MED_CRI" }, "geometry": null },
{ "type": "Feature", "properties": { "fid": 36, "numero_int": 17, "conserva_restos": 0, "restos_in_situ": 0, "restos_visibles": 0, "restos_visitables": 0, "res_observaci": null, "tipo_resto": "INFRA", "subtipo_resto": "POZO", "fase_hist": "MED_CRI" }, "geometry": null },
{ "type": "Feature", "properties": { "fid": 37, "numero_int": 18, "conserva_restos": 0, "restos_in_situ": 0, "restos_visibles": 0, "restos_visitables": 0, "res_observaci": null, "tipo_resto": "VIV", "subtipo_resto": "CASA", "fase_hist": "MED_CRI" }, "geometry": null },
{ "type": "Feature", "properties": { "fid": 38, "numero_int": 18, "conserva_restos": 0, "restos_in_situ": 0, "restos_visibles": 0, "restos_visitables": 0, "res_observaci": null, "tipo_resto": "ESP_DOM", "subtipo_resto": "BODE", "fase_hist": "MODERN" }, "geometry": null },
{ "type": "Feature", "properties": { "fid": 39, "numero_int": 19, "conserva_restos": 0, "restos_in_situ": 0, "restos_visibles": 0, "restos_visitables": 0, "res_observaci": null, "tipo_resto": "VIV", "subtipo_resto": "CASA", "fase_hist": "AND_MUS" }, "geometry": null },
{ "type": "Feature", "properties": { "fid": 40, "numero_int": 19, "conserva_restos": 0, "restos_in_situ": 0, "restos_visibles": 0, "restos_visitables": 0, "res_observaci": null, "tipo_resto": "VIV", "subtipo_resto": "CASA", "fase_hist": "MED_CRI" }, "geometry": null },
{ "type": "Feature", "properties": { "fid": 41, "numero_int": 19, "conserva_restos": 0, "restos_in_situ": 0, "restos_visibles": 0, "restos_visitables": 0, "res_observaci": null, "tipo_resto": "ESP_DOM", "subtipo_resto": "SILO", "fase_hist": "AND_MUS" }, "geometry": null },
{ "type": "Feature", "properties": { "fid": 42, "numero_int": 19, "conserva_restos": 0, "restos_in_situ": 0, "restos_visibles": 0, "restos_visitables": 0, "res_observaci": null, "tipo_resto": "INFRA", "subtipo_resto": "CANA", "fase_hist": "AND_MUS" }, "geometry": null },
{ "type": "Feature", "properties": { "fid": 43, "numero_int": 19, "conserva_restos": 0, "restos_in_situ": 0, "restos_visibles": 0, "restos_visitables": 0, "res_observaci": null, "tipo_resto": "INFRA", "subtipo_resto": "CANA", "fase_hist": "MED_CRI" }, "geometry": null },
{ "type": "Feature", "properties": { "fid": 44, "numero_int": 19, "conserva_restos": 0, "restos_in_situ": 0, "restos_visibles": 0, "restos_visitables": 0, "res_observaci": null, "tipo_resto": "ESP_DOM", "subtipo_resto": "BODE", "fase_hist": "MODERN" }, "geometry": null },
{ "type": "Feature", "properties": { "fid": 45, "numero_int": 20, "conserva_restos": 1, "restos_in_situ": 1, "restos_visibles": 1, "restos_visitables": 0, "res_observaci": null, "tipo_resto": "FORT", "subtipo_resto": "MURA", "fase_hist": "MED_CRI" }, "geometry": null },
{ "type": "Feature", "properties": { "fid": 46, "numero_int": 20, "conserva_restos": 1, "restos_in_situ": 1, "restos_visibles": 0, "restos_visitables": 0, "res_observaci": null, "tipo_resto": "FORT", "subtipo_resto": "TORON", "fase_hist": "MED_CRI" }, "geometry": null },
{ "type": "Feature", "properties": { "fid": 47, "numero_int": 20, "conserva_restos": 1, "restos_in_situ": 1, "restos_visibles": 0, "restos_visitables": 0, "res_observaci": null, "tipo_resto": "FORT", "subtipo_resto": "BARB", "fase_hist": "MED_CRI" }, "geometry": null },
{ "type": "Feature", "properties": { "fid": 48, "numero_int": 20, "conserva_restos": 1, "restos_in_situ": 1, "restos_visibles": 0, "restos_visitables": 0, "res_observaci": null, "tipo_resto": "FORT", "subtipo_resto": "FOSO", "fase_hist": "MED_CRI" }, "geometry": null },
{ "type": "Feature", "properties": { "fid": 49, "numero_int": 23, "conserva_restos": 1, "restos_in_situ": 0, "restos_visibles": 0, "restos_visitables": 0, "res_observaci": null, "tipo_resto": "FORT", "subtipo_resto": "MURA", "fase_hist": "AND_MUS" }, "geometry": null },
{ "type": "Feature", "properties": { "fid": 50, "numero_int": 23, "conserva_restos": 1, "restos_in_situ": 0, "restos_visibles": 0, "restos_visitables": 0, "res_observaci": null, "tipo_resto": "FORT", "subtipo_resto": "TORON", "fase_hist": "AND_MUS" }, "geometry": null },
{ "type": "Feature", "properties": { "fid": 51, "numero_int": 24, "conserva_restos": 0, "restos_in_situ": 0, "restos_visibles": 0, "restos_visitables": 0, "res_observaci": null, "tipo_resto": "ESP_DOM", "subtipo_resto": "SILO", "fase_hist": "AND_MUS" }, "geometry": null },
{ "type": "Feature", "properties": { "fid": 52, "numero_int": 25, "conserva_restos": 1, "restos_in_situ": 0, "restos_visibles": 0, "restos_visitables": 0, "res_observaci": null, "tipo_resto": "FORT", "subtipo_resto": "MURA", "fase_hist": "AND_MUS" }, "geometry": null },
{ "type": "Feature", "properties": { "fid": 53, "numero_int": 25, "conserva_restos": 0, "restos_in_situ": 0, "restos_visibles": 0, "restos_visitables": 0, "res_observaci": null, "tipo_resto": "ESP_DOM", "subtipo_resto": "BODE", "fase_hist": "MODERN" }, "geometry": null },
{ "type": "Feature", "properties": { "fid": 54, "numero_int": 25, "conserva_restos": 0, "restos_in_situ": 0, "restos_visibles": 0, "restos_visitables": 0, "res_observaci": null, "tipo_resto": "INFRA", "subtipo_resto": "POZO", "fase_hist": "MODERN" }, "geometry": null },
{ "type": "Feature", "properties": { "fid": 55, "numero_int": 25, "conserva_restos": 0, "restos_in_situ": 0, "restos_visibles": 0, "restos_visitables": 0, "res_observaci": null, "tipo_resto": "VIV", "subtipo_resto": "CASA", "fase_hist": "MED_CRI" }, "geometry": null },
{ "type": "Feature", "properties": { "fid": 56, "numero_int": 26, "conserva_restos": 0, "restos_in_situ": 0, "restos_visibles": 0, "restos_visitables": 0, "res_observaci": null, "tipo_resto": "ESP_PUB", "subtipo_resto": "CALL", "fase_hist": "MED_CRI" }, "geometry": null },
{ "type": "Feature", "properties": { "fid": 57, "numero_int": 26, "conserva_restos": 0, "restos_in_situ": 0, "restos_visibles": 0, "restos_visitables": 0, "res_observaci": null, "tipo_resto": "VIV", "subtipo_resto": "CASA", "fase_hist": "MED_CRI" }, "geometry": null },
{ "type": "Feature", "properties": { "fid": 58, "numero_int": 26, "conserva_restos": 0, "restos_in_situ": 0, "restos_visibles": 0, "restos_visitables": 0, "res_observaci": null, "tipo_resto": "ESP_DOM", "subtipo_resto": "COCI", "fase_hist": "MED_CRI" }, "geometry": null },
{ "type": "Feature", "properties": { "fid": 59, "numero_int": 26, "conserva_restos": 0, "restos_in_situ": 0, "restos_visibles": 0, "restos_visitables": 0, "res_observaci": null, "tipo_resto": "VIV", "subtipo_resto": "CASA", "fase_hist": "AND_MUS" }, "geometry": null },
{ "type": "Feature", "properties": { "fid": 60, "numero_int": 27, "conserva_restos": 0, "restos_in_situ": 0, "restos_visibles": 0, "restos_visitables": 0, "res_observaci": null, "tipo_resto": "EDI_REL", "subtipo_resto": "IGLE", "fase_hist": "MED_CRI" }, "geometry": null },
{ "type": "Feature", "properties": { "fid": 61, "numero_int": 27, "conserva_restos": 0, "restos_in_situ": 0, "restos_visibles": 0, "restos_visitables": 0, "res_observaci": null, "tipo_resto": "ESP_PUB", "subtipo_resto": "CALL", "fase_hist": "AND_MUS" }, "geometry": null },
{ "type": "Feature", "properties": { "fid": 62, "numero_int": 27, "conserva_restos": 0, "restos_in_situ": 0, "restos_visibles": 0, "restos_visitables": 0, "res_observaci": null, "tipo_resto": "ESP_DOM", "subtipo_resto": "LETR", "fase_hist": "CONTEM" }, "geometry": null },
{ "type": "Feature", "properties": { "fid": 63, "numero_int": 27, "conserva_restos": 0, "restos_in_situ": 0, "restos_visibles": 0, "restos_visitables": 0, "res_observaci": null, "tipo_resto": "INFRA", "subtipo_resto": "POZO", "fase_hist": "MODERN" }, "geometry": null },
{ "type": "Feature", "properties": { "fid": 64, "numero_int": 28, "conserva_restos": 0, "restos_in_situ": 0, "restos_visibles": 0, "restos_visitables": 0, "res_observaci": null, "tipo_resto": "VIV", "subtipo_resto": "CASA", "fase_hist": "AND_MUS" }, "geometry": null },
{ "type": "Feature", "properties": { "fid": 65, "numero_int": 29, "conserva_restos": 0, "restos_in_situ": 0, "restos_visibles": 0, "restos_visitables": 0, "res_observaci": null, "tipo_resto": "ESP_PUB", "subtipo_resto": "CALL", "fase_hist": "MED_CRI" }, "geometry": null },
{ "type": "Feature", "properties": { "fid": 66, "numero_int": 29, "conserva_restos": 0, "restos_in_situ": 0, "restos_visibles": 0, "restos_visitables": 0, "res_observaci": null, "tipo_resto": "ESP_DOM", "subtipo_resto": "SILO", "fase_hist": "AND_MUS" }, "geometry": null },
{ "type": "Feature", "properties": { "fid": 67, "numero_int": 29, "conserva_restos": 0, "restos_in_situ": 0, "restos_visibles": 0, "restos_visitables": 0, "res_observaci": null, "tipo_resto": "ESP_DOM", "subtipo_resto": "BODE", "fase_hist": "MED_CRI" }, "geometry": null },
{ "type": "Feature", "properties": { "fid": 68, "numero_int": 31, "conserva_restos": 0, "restos_in_situ": 0, "restos_visibles": 0, "restos_visitables": 0, "res_observaci": null, "tipo_resto": "VIV", "subtipo_resto": "CASA", "fase_hist": "MED_MUD" }, "geometry": null },
{ "type": "Feature", "properties": { "fid": 69, "numero_int": 31, "conserva_restos": 0, "restos_in_situ": 0, "restos_visibles": 0, "restos_visitables": 0, "res_observaci": null, "tipo_resto": "ESP_DOM", "subtipo_resto": "HORN_DOM", "fase_hist": "MED_MUD" }, "geometry": null },
{ "type": "Feature", "properties": { "fid": 70, "numero_int": 31, "conserva_restos": 0, "restos_in_situ": 0, "restos_visibles": 0, "restos_visitables": 0, "res_observaci": "Se recogieron restos asociados a un Testar que estaría en las proximidades", "tipo_resto": "ESP_ART", "subtipo_resto": "HORN_ART", "fase_hist": "MED_MUD" }, "geometry": null },
{ "type": "Feature", "properties": { "fid": 71, "numero_int": 32, "conserva_restos": 0, "restos_in_situ": 0, "restos_visibles": 0, "restos_visitables": 0, "res_observaci": null, "tipo_resto": "VIV", "subtipo_resto": "CASA", "fase_hist": "AND_MUS" }, "geometry": null },
{ "type": "Feature", "properties": { "fid": 72, "numero_int": 32, "conserva_restos": 0, "restos_in_situ": 0, "restos_visibles": 0, "restos_visitables": 0, "res_observaci": null, "tipo_resto": "VIV", "subtipo_resto": "CASA", "fase_hist": "MED_CRI" }, "geometry": null },
{ "type": "Feature", "properties": { "fid": 73, "numero_int": 32, "conserva_restos": 0, "restos_in_situ": 0, "restos_visibles": 0, "restos_visitables": 0, "res_observaci": null, "tipo_resto": "VIV", "subtipo_resto": "CASA", "fase_hist": "CONTEM" }, "geometry": null },
{ "type": "Feature", "properties": { "fid": 74, "numero_int": 32, "conserva_restos": 0, "restos_in_situ": 0, "restos_visibles": 0, "restos_visitables": 0, "res_observaci": null, "tipo_resto": "VIV", "subtipo_resto": "CASA", "fase_hist": "MODERN" }, "geometry": null },
{ "type": "Feature", "properties": { "fid": 75, "numero_int": 33, "conserva_restos": 0, "restos_in_situ": 0, "restos_visibles": 0, "restos_visitables": 0, "res_observaci": null, "tipo_resto": "ESP_PUB", "subtipo_resto": "PLAZ", "fase_hist": "CONTEM" }, "geometry": null },
{ "type": "Feature", "properties": { "fid": 76, "numero_int": 33, "conserva_restos": 0, "restos_in_situ": 0, "restos_visibles": 0, "restos_visitables": 0, "res_observaci": null, "tipo_resto": "VIV", "subtipo_resto": "CASA", "fase_hist": "AND_MUS" }, "geometry": null },
{ "type": "Feature", "properties": { "fid": 77, "numero_int": 33, "conserva_restos": 0, "restos_in_situ": 0, "restos_visibles": 0, "restos_visitables": 0, "res_observaci": null, "tipo_resto": "ESP_DOM", "subtipo_resto": "SILO", "fase_hist": "AND_MUS" }, "geometry": null },
{ "type": "Feature", "properties": { "fid": 78, "numero_int": 33, "conserva_restos": 0, "restos_in_situ": 0, "restos_visibles": 0, "restos_visitables": 0, "res_observaci": null, "tipo_resto": "VIV", "subtipo_resto": "CASA", "fase_hist": "MED_CRI" }, "geometry": null },
{ "type": "Feature", "properties": { "fid": 79, "numero_int": 33, "conserva_restos": 0, "restos_in_situ": 0, "restos_visibles": 0, "restos_visitables": 0, "res_observaci": null, "tipo_resto": "VIV", "subtipo_resto": "CASA", "fase_hist": "MODERN" }, "geometry": null },
{ "type": "Feature", "properties": { "fid": 80, "numero_int": 33, "conserva_restos": 0, "restos_in_situ": 0, "restos_visibles": 0, "restos_visitables": 0, "res_observaci": null, "tipo_resto": "ESP_ART", "subtipo_resto": "HORN_ART", "fase_hist": "MODERN" }, "geometry": null },
{ "type": "Feature", "properties": { "fid": 81, "numero_int": 34, "conserva_restos": 1, "restos_in_situ": 0, "restos_visibles": 0, "restos_visitables": 0, "res_observaci": null, "tipo_resto": "FORT", "subtipo_resto": "ALCA", "fase_hist": "AND_MUS" }, "geometry": null },
{ "type": "Feature", "properties": { "fid": 82, "numero_int": 34, "conserva_restos": 1, "restos_in_situ": 0, "restos_visibles": 0, "restos_visitables": 0, "res_observaci": null, "tipo_resto": "FORT", "subtipo_resto": "TORON", "fase_hist": "MED_CRI" }, "geometry": null },
{ "type": "Feature", "properties": { "fid": 83, "numero_int": 34, "conserva_restos": 1, "restos_in_situ": 0, "restos_visibles": 0, "restos_visitables": 0, "res_observaci": null, "tipo_resto": "INFRA", "subtipo_resto": "ALJI", "fase_hist": "MED_CRI" }, "geometry": null },
{ "type": "Feature", "properties": { "fid": 84, "numero_int": 35, "conserva_restos": 1, "restos_in_situ": 0, "restos_visibles": 0, "restos_visitables": 0, "res_observaci": null, "tipo_resto": "FORT", "subtipo_resto": "BARB", "fase_hist": "MED_CRI" }, "geometry": null },
{ "type": "Feature", "properties": { "fid": 85, "numero_int": 35, "conserva_restos": 0, "restos_in_situ": 0, "restos_visibles": 0, "restos_visitables": 0, "res_observaci": null, "tipo_resto": "FORT", "subtipo_resto": "MURA", "fase_hist": "MED_CRI" }, "geometry": null },
{ "type": "Feature", "properties": { "fid": 86, "numero_int": 35, "conserva_restos": 0, "restos_in_situ": 0, "restos_visibles": 0, "restos_visitables": 0, "res_observaci": null, "tipo_resto": "FORT", "subtipo_resto": "TORON", "fase_hist": "MED_CRI" }, "geometry": null },
{ "type": "Feature", "properties": { "fid": 87, "numero_int": 35, "conserva_restos": 0, "restos_in_situ": 0, "restos_visibles": 0, "restos_visitables": 0, "res_observaci": null, "tipo_resto": "FORT", "subtipo_resto": "FOSO", "fase_hist": "MED_CRI" }, "geometry": null },
{ "type": "Feature", "properties": { "fid": 88, "numero_int": 36, "conserva_restos": 1, "restos_in_situ": 0, "restos_visibles": 0, "restos_visitables": 0, "res_observaci": null, "tipo_resto": "FORT", "subtipo_resto": "MURA", "fase_hist": "MED_CRI" }, "geometry": null },
{ "type": "Feature", "properties": { "fid": 89, "numero_int": 36, "conserva_restos": 1, "restos_in_situ": 0, "restos_visibles": 0, "restos_visitables": 0, "res_observaci": null, "tipo_resto": "FORT", "subtipo_resto": "BARB", "fase_hist": "MED_CRI" }, "geometry": null },
{ "type": "Feature", "properties": { "fid": 90, "numero_int": 36, "conserva_restos": 1, "restos_in_situ": 0, "restos_visibles": 0, "restos_visitables": 0, "res_observaci": "Posible Torreón", "tipo_resto": "FORT", "subtipo_resto": "TORON", "fase_hist": "MED_CRI" }, "geometry": null },
{ "type": "Feature", "properties": { "fid": 91, "numero_int": 36, "conserva_restos": 0, "restos_in_situ": 0, "restos_visibles": 0, "restos_visitables": 0, "res_observaci": null, "tipo_resto": "VIV", "subtipo_resto": "CASA", "fase_hist": "MED_JUD" }, "geometry": null },
{ "type": "Feature", "properties": { "fid": 92, "numero_int": 37, "conserva_restos": 1, "restos_in_situ": 0, "restos_visibles": 0, "restos_visitables": 0, "res_observaci": null, "tipo_resto": "FORT", "subtipo_resto": "FOSO", "fase_hist": "AND_MUS" }, "geometry": null },
{ "type": "Feature", "properties": { "fid": 93, "numero_int": 37, "conserva_restos": 0, "restos_in_situ": 0, "restos_visibles": 0, "restos_visitables": 0, "res_observaci": null, "tipo_resto": "FORT", "subtipo_resto": "FOSO", "fase_hist": "MED_CRI" }, "geometry": null },
{ "type": "Feature", "properties": { "fid": 94, "numero_int": 37, "conserva_restos": 0, "restos_in_situ": 0, "restos_visibles": 0, "restos_visitables": 0, "res_observaci": null, "tipo_resto": "ESP_DOM", "subtipo_resto": "BODE", "fase_hist": "MODERN" }, "geometry": null },
{ "type": "Feature", "properties": { "fid": 95, "numero_int": 38, "conserva_restos": 1, "restos_in_situ": 0, "restos_visibles": 0, "restos_visitables": 0, "res_observaci": null, "tipo_resto": "FORT", "subtipo_resto": "MURA", "fase_hist": "AND_MUS" }, "geometry": null },
{ "type": "Feature", "properties": { "fid": 96, "numero_int": 38, "conserva_restos": 0, "restos_in_situ": 0, "restos_visibles": 0, "restos_visitables": 0, "res_observaci": null, "tipo_resto": "ESP_DOM", "subtipo_resto": "BODE", "fase_hist": "MODERN" }, "geometry": null },
{ "type": "Feature", "properties": { "fid": 97, "numero_int": 41, "conserva_restos": 1, "restos_in_situ": 0, "restos_visibles": 0, "restos_visitables": 0, "res_observaci": null, "tipo_resto": "FORT", "subtipo_resto": "MURA", "fase_hist": "MED_MUD" }, "geometry": null },
{ "type": "Feature", "properties": { "fid": 98, "numero_int": 43, "conserva_restos": 0, "restos_in_situ": 0, "restos_visibles": 0, "restos_visitables": 0, "res_observaci": null, "tipo_resto": "ESP_DOM", "subtipo_resto": "SILO", "fase_hist": "AND_MUS" }, "geometry": null },
{ "type": "Feature", "properties": { "fid": 99, "numero_int": 43, "conserva_restos": 0, "restos_in_situ": 0, "restos_visibles": 0, "restos_visitables": 0, "res_observaci": null, "tipo_resto": "ESP_ART", "subtipo_resto": "HORN_ART", "fase_hist": "AND_MUS" }, "geometry": null },
{ "type": "Feature", "properties": { "fid": 100, "numero_int": 44, "conserva_restos": 1, "restos_in_situ": 0, "restos_visibles": 0, "restos_visitables": 0, "res_observaci": null, "tipo_resto": "EDI_REL", "subtipo_resto": "MEZQ", "fase_hist": "AND_MUS" }, "geometry": null },
{ "type": "Feature", "properties": { "fid": 101, "numero_int": 44, "conserva_restos": 1, "restos_in_situ": 1, "restos_visibles": 1, "restos_visitables": 1, "res_observaci": null, "tipo_resto": "EDI_REL", "subtipo_resto": "CATE", "fase_hist": "MED_CRI" }, "geometry": null },
{ "type": "Feature", "properties": { "fid": 102, "numero_int": 44, "conserva_restos": 1, "restos_in_situ": 0, "restos_visibles": 0, "restos_visitables": 0, "res_observaci": null, "tipo_resto": "ESP_PUB", "subtipo_resto": "CALL", "fase_hist": "AND_MUS" }, "geometry": null },
{ "type": "Feature", "properties": { "fid": 103, "numero_int": 44, "conserva_restos": 1, "restos_in_situ": 1, "restos_visibles": 0, "restos_visitables": 0, "res_observaci": null, "tipo_resto": "VIV", "subtipo_resto": "CASA", "fase_hist": "AND_MUS" }, "geometry": null },
{ "type": "Feature", "properties": { "fid": 108, "numero_int": 45, "conserva_restos": 1, "restos_in_situ": 1, "restos_visibles": 1, "restos_visitables": 1, "res_observaci": null, "tipo_resto": "VIV", "subtipo_resto": "CASA", "fase_hist": "EDA_HIE_I" }, "geometry": null },
{ "type": "Feature", "properties": { "fid": 109, "numero_int": 45, "conserva_restos": 1, "restos_in_situ": 1, "restos_visibles": 1, "restos_visitables": 1, "res_observaci": null, "tipo_resto": "VIV", "subtipo_resto": "CASA", "fase_hist": "AND_MUS" }, "geometry": null },
{ "type": "Feature", "properties": { "fid": 110, "numero_int": 45, "conserva_restos": 1, "restos_in_situ": 1, "restos_visibles": 1, "restos_visitables": 1, "res_observaci": null, "tipo_resto": "VIV", "subtipo_resto": "CASA", "fase_hist": "MED_JUD" }, "geometry": null },
{ "type": "Feature", "properties": { "fid": 111, "numero_int": 45, "conserva_restos": 0, "restos_in_situ": 0, "restos_visibles": 0, "restos_visitables": 0, "res_observaci": null, "tipo_resto": "ESP_DOM", "subtipo_resto": "SILO", "fase_hist": "MED_JUD" }, "geometry": null }
]
}
