{
"type": "FeatureCollection",
"name": "Tipos de contexto cultural en intervención",
"features": [
{ "type": "Feature", "properties": { "fid": 1, "numero_int": 10, "cod_con_cul": "AND_MUS" }, "geometry": null },
{ "type": "Feature", "properties": { "fid": 2, "numero_int": 27, "cod_con_cul": "MED_CRI" }, "geometry": null },
{ "type": "Feature", "properties": { "fid": 3, "numero_int": 66, "cod_con_cul": "MED_CRI" }, "geometry": null },
{ "type": "Feature", "properties": { "fid": 4, "numero_int": 81, "cod_con_cul": "MED_CRI" }, "geometry": null },
{ "type": "Feature", "properties": { "fid": 5, "numero_int": 81, "cod_con_cul": "MODE" }, "geometry": null },
{ "type": "Feature", "properties": { "fid": 6, "numero_int": 4, "cod_con_cul": "CONT" }, "geometry": null },
{ "type": "Feature", "properties": { "fid": 7, "numero_int": 5, "cod_con_cul": "AND_JUD" }, "geometry": null },
{ "type": "Feature", "properties": { "fid": 8, "numero_int": 5, "cod_con_cul": "MED_CRI" }, "geometry": null },
{ "type": "Feature", "properties": { "fid": 9, "numero_int": 6, "cod_con_cul": "MED_CRI" }, "geometry": null },
{ "type": "Feature", "properties": { "fid": 10, "numero_int": 6, "cod_con_cul": "CONT" }, "geometry": null },
{ "type": "Feature", "properties": { "fid": 11, "numero_int": 7, "cod_con_cul": "E_H_I" }, "geometry": null },
{ "type": "Feature", "properties": { "fid": 12, "numero_int": 7, "cod_con_cul": "ROMA" }, "geometry": null },
{ "type": "Feature", "properties": { "fid": 13, "numero_int": 7, "cod_con_cul": "VISI" }, "geometry": null },
{ "type": "Feature", "properties": { "fid": 14, "numero_int": 7, "cod_con_cul": "AND_MUS" }, "geometry": null },
{ "type": "Feature", "properties": { "fid": 15, "numero_int": 7, "cod_con_cul": "MED_CRI" }, "geometry": null },
{ "type": "Feature", "properties": { "fid": 16, "numero_int": 7, "cod_con_cul": "MODE" }, "geometry": null },
{ "type": "Feature", "properties": { "fid": 17, "numero_int": 7, "cod_con_cul": "CONT" }, "geometry": null },
{ "type": "Feature", "properties": { "fid": 18, "numero_int": 8, "cod_con_cul": "MED_CRI" }, "geometry": null },
{ "type": "Feature", "properties": { "fid": 19, "numero_int": 8, "cod_con_cul": "MODE" }, "geometry": null },
{ "type": "Feature", "properties": { "fid": 20, "numero_int": 8, "cod_con_cul": "CONT" }, "geometry": null },
{ "type": "Feature", "properties": { "fid": 21, "numero_int": 9, "cod_con_cul": "MODE" }, "geometry": null },
{ "type": "Feature", "properties": { "fid": 22, "numero_int": 9, "cod_con_cul": "CONT" }, "geometry": null },
{ "type": "Feature", "properties": { "fid": 23, "numero_int": 10, "cod_con_cul": "E_H_II" }, "geometry": null },
{ "type": "Feature", "properties": { "fid": 24, "numero_int": 10, "cod_con_cul": "ROMA" }, "geometry": null },
{ "type": "Feature", "properties": { "fid": 25, "numero_int": 10, "cod_con_cul": "MED_CRI" }, "geometry": null },
{ "type": "Feature", "properties": { "fid": 26, "numero_int": 11, "cod_con_cul": "MED_CRI" }, "geometry": null },
{ "type": "Feature", "properties": { "fid": 27, "numero_int": 11, "cod_con_cul": "MED_JUD" }, "geometry": null },
{ "type": "Feature", "properties": { "fid": 28, "numero_int": 12, "cod_con_cul": "MED_CRI" }, "geometry": null },
{ "type": "Feature", "properties": { "fid": 29, "numero_int": 13, "cod_con_cul": "E_H_I" }, "geometry": null },
{ "type": "Feature", "properties": { "fid": 30, "numero_int": 13, "cod_con_cul": "E_H_II" }, "geometry": null },
{ "type": "Feature", "properties": { "fid": 31, "numero_int": 13, "cod_con_cul": "ROMA" }, "geometry": null },
{ "type": "Feature", "properties": { "fid": 32, "numero_int": 13, "cod_con_cul": "MED_CRI" }, "geometry": null },
{ "type": "Feature", "properties": { "fid": 33, "numero_int": 13, "cod_con_cul": "CONT" }, "geometry": null },
{ "type": "Feature", "properties": { "fid": 34, "numero_int": 14, "cod_con_cul": "MED_MUD" }, "geometry": null },
{ "type": "Feature", "properties": { "fid": 35, "numero_int": 14, "cod_con_cul": "MODE" }, "geometry": null },
{ "type": "Feature", "properties": { "fid": 36, "numero_int": 14, "cod_con_cul": "CONT" }, "geometry": null },
{ "type": "Feature", "properties": { "fid": 37, "numero_int": 15, "cod_con_cul": "AND_MUS" }, "geometry": null },
{ "type": "Feature", "properties": { "fid": 38, "numero_int": 15, "cod_con_cul": "MED_CRI" }, "geometry": null },
{ "type": "Feature", "properties": { "fid": 39, "numero_int": 15, "cod_con_cul": "MODE" }, "geometry": null },
{ "type": "Feature", "properties": { "fid": 40, "numero_int": 16, "cod_con_cul": "AND_MUS" }, "geometry": null },
{ "type": "Feature", "properties": { "fid": 41, "numero_int": 16, "cod_con_cul": "MED_CRI" }, "geometry": null },
{ "type": "Feature", "properties": { "fid": 42, "numero_int": 16, "cod_con_cul": "MODE" }, "geometry": null },
{ "type": "Feature", "properties": { "fid": 43, "numero_int": 16, "cod_con_cul": "CONT" }, "geometry": null },
{ "type": "Feature", "properties": { "fid": 44, "numero_int": 17, "cod_con_cul": "AND_MUS" }, "geometry": null },
{ "type": "Feature", "properties": { "fid": 45, "numero_int": 17, "cod_con_cul": "MED_CRI" }, "geometry": null },
{ "type": "Feature", "properties": { "fid": 46, "numero_int": 18, "cod_con_cul": "ROMA" }, "geometry": null },
{ "type": "Feature", "properties": { "fid": 47, "numero_int": 18, "cod_con_cul": "MED_CRI" }, "geometry": null },
{ "type": "Feature", "properties": { "fid": 48, "numero_int": 18, "cod_con_cul": "MODE" }, "geometry": null },
{ "type": "Feature", "properties": { "fid": 49, "numero_int": 18, "cod_con_cul": "CONT" }, "geometry": null },
{ "type": "Feature", "properties": { "fid": 50, "numero_int": 19, "cod_con_cul": "ROMA" }, "geometry": null },
{ "type": "Feature", "properties": { "fid": 51, "numero_int": 19, "cod_con_cul": "AND_MUS" }, "geometry": null },
{ "type": "Feature", "properties": { "fid": 52, "numero_int": 19, "cod_con_cul": "MED_CRI" }, "geometry": null },
{ "type": "Feature", "properties": { "fid": 53, "numero_int": 19, "cod_con_cul": "MODE" }, "geometry": null },
{ "type": "Feature", "properties": { "fid": 54, "numero_int": 19, "cod_con_cul": "CONT" }, "geometry": null },
{ "type": "Feature", "properties": { "fid": 55, "numero_int": 20, "cod_con_cul": "MED_CRI" }, "geometry": null },
{ "type": "Feature", "properties": { "fid": 56, "numero_int": 21, "cod_con_cul": "CONT" }, "geometry": null },
{ "type": "Feature", "properties": { "fid": 57, "numero_int": 22, "cod_con_cul": "MED_JUD" }, "geometry": null },
{ "type": "Feature", "properties": { "fid": 58, "numero_int": 22, "cod_con_cul": "MED_CRI" }, "geometry": null },
{ "type": "Feature", "properties": { "fid": 59, "numero_int": 22, "cod_con_cul": "MODE" }, "geometry": null },
{ "type": "Feature", "properties": { "fid": 60, "numero_int": 23, "cod_con_cul": "AND_MUS" }, "geometry": null },
{ "type": "Feature", "properties": { "fid": 61, "numero_int": 23, "cod_con_cul": "MED_CRI" }, "geometry": null },
{ "type": "Feature", "properties": { "fid": 62, "numero_int": 24, "cod_con_cul": "AND_MUS" }, "geometry": null },
{ "type": "Feature", "properties": { "fid": 63, "numero_int": 24, "cod_con_cul": "MED_CRI" }, "geometry": null },
{ "type": "Feature", "properties": { "fid": 64, "numero_int": 24, "cod_con_cul": "MODE" }, "geometry": null },
{ "type": "Feature", "properties": { "fid": 65, "numero_int": 24, "cod_con_cul": "CONT" }, "geometry": null },
{ "type": "Feature", "properties": { "fid": 66, "numero_int": 25, "cod_con_cul": "AND_MUS" }, "geometry": null },
{ "type": "Feature", "properties": { "fid": 67, "numero_int": 25, "cod_con_cul": "MED_CRI" }, "geometry": null },
{ "type": "Feature", "properties": { "fid": 68, "numero_int": 25, "cod_con_cul": "MODE" }, "geometry": null },
{ "type": "Feature", "properties": { "fid": 69, "numero_int": 25, "cod_con_cul": "CONT" }, "geometry": null },
{ "type": "Feature", "properties": { "fid": 70, "numero_int": 26, "cod_con_cul": "E_H_II" }, "geometry": null },
{ "type": "Feature", "properties": { "fid": 71, "numero_int": 26, "cod_con_cul": "ROMA" }, "geometry": null },
{ "type": "Feature", "properties": { "fid": 72, "numero_int": 26, "cod_con_cul": "AND_MUS" }, "geometry": null },
{ "type": "Feature", "properties": { "fid": 73, "numero_int": 26, "cod_con_cul": "MED_CRI" }, "geometry": null },
{ "type": "Feature", "properties": { "fid": 74, "numero_int": 26, "cod_con_cul": "CONT" }, "geometry": null },
{ "type": "Feature", "properties": { "fid": 75, "numero_int": 27, "cod_con_cul": "AND_MUS" }, "geometry": null },
{ "type": "Feature", "properties": { "fid": 76, "numero_int": 27, "cod_con_cul": "MED_CRI" }, "geometry": null },
{ "type": "Feature", "properties": { "fid": 77, "numero_int": 27, "cod_con_cul": "MODE" }, "geometry": null },
{ "type": "Feature", "properties": { "fid": 78, "numero_int": 28, "cod_con_cul": "AND_MUS" }, "geometry": null },
{ "type": "Feature", "properties": { "fid": 79, "numero_int": 28, "cod_con_cul": "MED_CRI" }, "geometry": null },
{ "type": "Feature", "properties": { "fid": 80, "numero_int": 29, "cod_con_cul": "AND_MUS" }, "geometry": null },
{ "type": "Feature", "properties": { "fid": 81, "numero_int": 29, "cod_con_cul": "MED_CRI" }, "geometry": null },
{ "type": "Feature", "properties": { "fid": 82, "numero_int": 31, "cod_con_cul": "MED_MUD" }, "geometry": null },
{ "type": "Feature", "properties": { "fid": 83, "numero_int": 31, "cod_con_cul": "MODE" }, "geometry": null },
{ "type": "Feature", "properties": { "fid": 84, "numero_int": 32, "cod_con_cul": "AND_MUS" }, "geometry": null },
{ "type": "Feature", "properties": { "fid": 85, "numero_int": 32, "cod_con_cul": "MED_CRI" }, "geometry": null },
{ "type": "Feature", "properties": { "fid": 86, "numero_int": 32, "cod_con_cul": "MODE" }, "geometry": null },
{ "type": "Feature", "properties": { "fid": 87, "numero_int": 32, "cod_con_cul": "CONT" }, "geometry": null },
{ "type": "Feature", "properties": { "fid": 88, "numero_int": 33, "cod_con_cul": "AND_MUS" }, "geometry": null },
{ "type": "Feature", "properties": { "fid": 89, "numero_int": 33, "cod_con_cul": "MED_CRI" }, "geometry": null },
{ "type": "Feature", "properties": { "fid": 90, "numero_int": 33, "cod_con_cul": "MODE" }, "geometry": null },
{ "type": "Feature", "properties": { "fid": 91, "numero_int": 33, "cod_con_cul": "CONT" }, "geometry": null },
{ "type": "Feature", "properties": { "fid": 92, "numero_int": 33, "cod_con_cul": "AND_JUD" }, "geometry": null },
{ "type": "Feature", "properties": { "fid": 93, "numero_int": 34, "cod_con_cul": "ROMA" }, "geometry": null },
{ "type": "Feature", "properties": { "fid": 94, "numero_int": 34, "cod_con_cul": "AND_MUS" }, "geometry": null },
{ "type": "Feature", "properties": { "fid": 95, "numero_int": 34, "cod_con_cul": "MED_CRI" }, "geometry": null },
{ "type": "Feature", "properties": { "fid": 96, "numero_int": 34, "cod_con_cul": "CONT" }, "geometry": null },
{ "type": "Feature", "properties": { "fid": 97, "numero_int": 35, "cod_con_cul": "MED_CRI" }, "geometry": null },
{ "type": "Feature", "properties": { "fid": 98, "numero_int": 36, "cod_con_cul": "MED_JUD" }, "geometry": null },
{ "type": "Feature", "properties": { "fid": 99, "numero_int": 36, "cod_con_cul": "MED_CRI" }, "geometry": null },
{ "type": "Feature", "properties": { "fid": 100, "numero_int": 37, "cod_con_cul": "MODE" }, "geometry": null },
{ "type": "Feature", "properties": { "fid": 101, "numero_int": 38, "cod_con_cul": "AND_MUS" }, "geometry": null },
{ "type": "Feature", "properties": { "fid": 102, "numero_int": 38, "cod_con_cul": "MED_CRI" }, "geometry": null },
{ "type": "Feature", "properties": { "fid": 103, "numero_int": 38, "cod_con_cul": "MODE" }, "geometry": null },
{ "type": "Feature", "properties": { "fid": 104, "numero_int": 38, "cod_con_cul": "CONT" }, "geometry": null },
{ "type": "Feature", "properties": { "fid": 105, "numero_int": 39, "cod_con_cul": "MODE" }, "geometry": null },
{ "type": "Feature", "properties": { "fid": 106, "numero_int": 39, "cod_con_cul": "CONT" }, "geometry": null },
{ "type": "Feature", "properties": { "fid": 107, "numero_int": 40, "cod_con_cul": "MODE" }, "geometry": null },
{ "type": "Feature", "properties": { "fid": 108, "numero_int": 40, "cod_con_cul": "CONT" }, "geometry": null },
{ "type": "Feature", "properties": { "fid": 109, "numero_int": 41, "cod_con_cul": "MED_MUD" }, "geometry": null },
{ "type": "Feature", "properties": { "fid": 110, "numero_int": 41, "cod_con_cul": "MODE" }, "geometry": null },
{ "type": "Feature", "properties": { "fid": 111, "numero_int": 42, "cod_con_cul": "CONT" }, "geometry": null },
{ "type": "Feature", "properties": { "fid": 112, "numero_int": 43, "cod_con_cul": "AND_MUS" }, "geometry": null },
{ "type": "Feature", "properties": { "fid": 113, "numero_int": 44, "cod_con_cul": "E_H_I" }, "geometry": null },
{ "type": "Feature", "properties": { "fid": 114, "numero_int": 44, "cod_con_cul": "ROMA" }, "geometry": null },
{ "type": "Feature", "properties": { "fid": 115, "numero_int": 44, "cod_con_cul": "AND_MUS" }, "geometry": null },
{ "type": "Feature", "properties": { "fid": 116, "numero_int": 44, "cod_con_cul": "MED_CRI" }, "geometry": null },
{ "type": "Feature", "properties": { "fid": 117, "numero_int": 44, "cod_con_cul": "MODE" }, "geometry": null },
{ "type": "Feature", "properties": { "fid": 118, "numero_int": 44, "cod_con_cul": "CONT" }, "geometry": null },
{ "type": "Feature", "properties": { "fid": 119, "numero_int": 45, "cod_con_cul": "E_H_I" }, "geometry": null },
{ "type": "Feature", "properties": { "fid": 120, "numero_int": 45, "cod_con_cul": "ROMA" }, "geometry": null },
{ "type": "Feature", "properties": { "fid": 121, "numero_int": 45, "cod_con_cul": "AND_MUS" }, "geometry": null },
{ "type": "Feature", "properties": { "fid": 122, "numero_int": 45, "cod_con_cul": "AND_JUD" }, "geometry": null },
{ "type": "Feature", "properties": { "fid": 123, "numero_int": 45, "cod_con_cul": "CONT" }, "geometry": null }
]
}
