{
"type": "FeatureCollection",
"name": "Documentos multimedia",
"features": [
{ "type": "Feature", "properties": { "fid": 1246, "numero_int": 10, "tipo": "(Fotos intervención)", "ruta": "./media/10/media/Fotos intervención/público/ROLLO1-32.JPG", "publico": 1 }, "geometry": null },
{ "type": "Feature", "properties": { "fid": 1247, "numero_int": 10, "tipo": "(Fotos intervención)", "ruta": "./media/10/media/Fotos intervención/público/ROLLO1-33.JPG", "publico": 1 }, "geometry": null },
{ "type": "Feature", "properties": { "fid": 1248, "numero_int": 10, "tipo": "(Fotos intervención)", "ruta": "./media/10/media/Fotos intervención/público/ROLLO1-34.JPG", "publico": 1 }, "geometry": null },
{ "type": "Feature", "properties": { "fid": 1249, "numero_int": 10, "tipo": "(Fotos intervención)", "ruta": "./media/10/media/Fotos intervención/público/ROLLO1-35.jpg", "publico": 1 }, "geometry": null },
{ "type": "Feature", "properties": { "fid": 1250, "numero_int": 10, "tipo": "(Fotos intervención)", "ruta": "./media/10/media/Fotos intervención/público/ROLLO2-00.jpg", "publico": 1 }, "geometry": null },
{ "type": "Feature", "properties": { "fid": 1251, "numero_int": 10, "tipo": "(Fotos intervención)", "ruta": "./media/10/media/Fotos intervención/público/ROLLO2-01.jpg", "publico": 1 }, "geometry": null },
{ "type": "Feature", "properties": { "fid": 1252, "numero_int": 10, "tipo": "(Fotos intervención)", "ruta": "./media/10/media/Fotos intervención/público/ROLLO2-02.jpg", "publico": 1 }, "geometry": null },
{ "type": "Feature", "properties": { "fid": 1253, "numero_int": 10, "tipo": "(Fotos intervención)", "ruta": "./media/10/media/Fotos intervención/público/ROLLO2-03.jpg", "publico": 1 }, "geometry": null },
{ "type": "Feature", "properties": { "fid": 1254, "numero_int": 10, "tipo": "(Fotos intervención)", "ruta": "./media/10/media/Fotos intervención/público/ROLLO2-04.jpg", "publico": 1 }, "geometry": null },
{ "type": "Feature", "properties": { "fid": 1255, "numero_int": 10, "tipo": "(Fotos intervención)", "ruta": "./media/10/media/Fotos intervención/público/ROLLO2-05.jpg", "publico": 1 }, "geometry": null },
{ "type": "Feature", "properties": { "fid": 1256, "numero_int": 10, "tipo": "(Fotos intervención)", "ruta": "./media/10/media/Fotos intervención/público/ROLLO2-06.jpg", "publico": 1 }, "geometry": null },
{ "type": "Feature", "properties": { "fid": 1257, "numero_int": 10, "tipo": "(Fotos intervención)", "ruta": "./media/10/media/Fotos intervención/público/ROLLO2-07.jpg", "publico": 1 }, "geometry": null },
{ "type": "Feature", "properties": { "fid": 1258, "numero_int": 10, "tipo": "(Fotos intervención)", "ruta": "./media/10/media/Fotos intervención/público/ROLLO2-08.jpg", "publico": 1 }, "geometry": null },
{ "type": "Feature", "properties": { "fid": 1259, "numero_int": 10, "tipo": "(Fotos intervención)", "ruta": "./media/10/media/Fotos intervención/público/ROLLO2-09.jpg", "publico": 1 }, "geometry": null },
{ "type": "Feature", "properties": { "fid": 1260, "numero_int": 10, "tipo": "(Fotos intervención)", "ruta": "./media/10/media/Fotos intervención/público/ROLLO2-10.JPG", "publico": 1 }, "geometry": null },
{ "type": "Feature", "properties": { "fid": 1261, "numero_int": 10, "tipo": "(Fotos intervención)", "ruta": "./media/10/media/Fotos intervención/público/ROLLO2-11.JPG", "publico": 1 }, "geometry": null },
{ "type": "Feature", "properties": { "fid": 1262, "numero_int": 10, "tipo": "(Fotos intervención)", "ruta": "./media/10/media/Fotos intervención/público/ROLLO2-12.JPG", "publico": 1 }, "geometry": null },
{ "type": "Feature", "properties": { "fid": 1263, "numero_int": 10, "tipo": "(Fotos intervención)", "ruta": "./media/10/media/Fotos intervención/público/ROLLO2-13.JPG", "publico": 1 }, "geometry": null },
{ "type": "Feature", "properties": { "fid": 1264, "numero_int": 10, "tipo": "(Fotos intervención)", "ruta": "./media/10/media/Fotos intervención/público/ROLLO2-14.JPG", "publico": 1 }, "geometry": null },
{ "type": "Feature", "properties": { "fid": 1265, "numero_int": 10, "tipo": "(Fotos intervención)", "ruta": "./media/10/media/Fotos intervención/público/ROLLO2-15.JPG", "publico": 1 }, "geometry": null },
{ "type": "Feature", "properties": { "fid": 1266, "numero_int": 10, "tipo": "(Fotos intervención)", "ruta": "./media/10/media/Fotos intervención/público/ROLLO2-16.JPG", "publico": 1 }, "geometry": null },
{ "type": "Feature", "properties": { "fid": 1267, "numero_int": 10, "tipo": "(Fotos intervención)", "ruta": "./media/10/media/Fotos intervención/público/ROLLO2-17.JPG", "publico": 1 }, "geometry": null },
{ "type": "Feature", "properties": { "fid": 1268, "numero_int": 10, "tipo": "(Fotos intervención)", "ruta": "./media/10/media/Fotos intervención/privado/ROLLO2-19.JPG", "publico": 0 }, "geometry": null },
{ "type": "Feature", "properties": { "fid": 1269, "numero_int": 10, "tipo": "(Fotos intervención)", "ruta": "./media/10/media/Fotos intervención/privado/ROLLO2-20.JPG", "publico": 0 }, "geometry": null },
{ "type": "Feature", "properties": { "fid": 1270, "numero_int": 10, "tipo": "(Fotos intervención)", "ruta": "./media/10/media/Fotos intervención/privado/ROLLO2-21.JPG", "publico": 0 }, "geometry": null },
{ "type": "Feature", "properties": { "fid": 1271, "numero_int": 10, "tipo": "(Fotos intervención)", "ruta": "./media/10/media/Fotos intervención/privado/ROLLO2-22.JPG", "publico": 0 }, "geometry": null },
{ "type": "Feature", "properties": { "fid": 1272, "numero_int": 10, "tipo": "(Fotos intervención)", "ruta": "./media/10/media/Fotos intervención/privado/ROLLO2-23.JPG", "publico": 0 }, "geometry": null },
{ "type": "Feature", "properties": { "fid": 1273, "numero_int": 10, "tipo": "(Fotos intervención)", "ruta": "./media/10/media/Fotos intervención/privado/ROLLO2-24.JPG", "publico": 0 }, "geometry": null },
{ "type": "Feature", "properties": { "fid": 1274, "numero_int": 10, "tipo": "(Fotos intervención)", "ruta": "./media/10/media/Fotos intervención/privado/ROLLO2-25.JPG", "publico": 0 }, "geometry": null },
{ "type": "Feature", "properties": { "fid": 1275, "numero_int": 10, "tipo": "(Fotos intervención)", "ruta": "./media/10/media/Fotos intervención/privado/ROLLO3-01.jpg", "publico": 0 }, "geometry": null },
{ "type": "Feature", "properties": { "fid": 1276, "numero_int": 10, "tipo": "(Fotos intervención)", "ruta": "./media/10/media/Fotos intervención/privado/ROLLO3-02.jpg", "publico": 0 }, "geometry": null },
{ "type": "Feature", "properties": { "fid": 1277, "numero_int": 10, "tipo": "(Fotos intervención)", "ruta": "./media/10/media/Fotos intervención/privado/ROLLO3-03.jpg", "publico": 0 }, "geometry": null },
{ "type": "Feature", "properties": { "fid": 1278, "numero_int": 10, "tipo": "(Fotos intervención)", "ruta": "./media/10/media/Fotos intervención/privado/ROLLO3-04.jpg", "publico": 0 }, "geometry": null },
{ "type": "Feature", "properties": { "fid": 1279, "numero_int": 10, "tipo": "(Fotos intervención)", "ruta": "./media/10/media/Fotos intervención/privado/ROLLO3-05.jpg", "publico": 0 }, "geometry": null },
{ "type": "Feature", "properties": { "fid": 1280, "numero_int": 10, "tipo": "(Fotos intervención)", "ruta": "./media/10/media/Fotos intervención/privado/ROLLO3-06.jpg", "publico": 0 }, "geometry": null },
{ "type": "Feature", "properties": { "fid": 1281, "numero_int": 10, "tipo": "(Fotos intervención)", "ruta": "./media/10/media/Fotos intervención/privado/ROLLO3-07.jpg", "publico": 0 }, "geometry": null },
{ "type": "Feature", "properties": { "fid": 1282, "numero_int": 10, "tipo": "(Fotos intervención)", "ruta": "./media/10/media/Fotos intervención/privado/ROLLO3-08.jpg", "publico": 0 }, "geometry": null },
{ "type": "Feature", "properties": { "fid": 1283, "numero_int": 10, "tipo": "(Fotos intervención)", "ruta": "./media/10/media/Fotos intervención/privado/ROLLO3-09.jpg", "publico": 0 }, "geometry": null },
{ "type": "Feature", "properties": { "fid": 1284, "numero_int": 10, "tipo": "(Fotos intervención)", "ruta": "./media/10/media/Fotos intervención/privado/ROLLO3-10.JPG", "publico": 0 }, "geometry": null },
{ "type": "Feature", "properties": { "fid": 1285, "numero_int": 10, "tipo": "(Fotos intervención)", "ruta": "./media/10/media/Fotos intervención/privado/ROLLO3-11.JPG", "publico": 0 }, "geometry": null },
{ "type": "Feature", "properties": { "fid": 1286, "numero_int": 10, "tipo": "(Fotos intervención)", "ruta": "./media/10/media/Fotos intervención/privado/ROLLO3-12.JPG", "publico": 0 }, "geometry": null },
{ "type": "Feature", "properties": { "fid": 1287, "numero_int": 10, "tipo": "(Fotos intervención)", "ruta": "./media/10/media/Fotos intervención/privado/ROLLO3-13.JPG", "publico": 0 }, "geometry": null },
{ "type": "Feature", "properties": { "fid": 1288, "numero_int": 10, "tipo": "(Fotos intervención)", "ruta": "./media/10/media/Fotos intervención/privado/ROLLO3-14.JPG", "publico": 0 }, "geometry": null },
{ "type": "Feature", "properties": { "fid": 1289, "numero_int": 10, "tipo": "(Fotos intervención)", "ruta": "./media/10/media/Fotos intervención/privado/ROLLO3-15.JPG", "publico": 0 }, "geometry": null },
{ "type": "Feature", "properties": { "fid": 1290, "numero_int": 10, "tipo": "(Fotos intervención)", "ruta": "./media/10/media/Fotos intervención/privado/ROLLO3-16.JPG", "publico": 0 }, "geometry": null },
{ "type": "Feature", "properties": { "fid": 1291, "numero_int": 10, "tipo": "(Fotos intervención)", "ruta": "./media/10/media/Fotos intervención/privado/ROLLO3-17.JPG", "publico": 0 }, "geometry": null },
{ "type": "Feature", "properties": { "fid": 1292, "numero_int": 10, "tipo": "(Fotos intervención)", "ruta": "./media/10/media/Fotos intervención/privado/ROLLO3-18.JPG", "publico": 0 }, "geometry": null },
{ "type": "Feature", "properties": { "fid": 1293, "numero_int": 10, "tipo": "(Fotos intervención)", "ruta": "./media/10/media/Fotos intervención/privado/ROLLO3-19.JPG", "publico": 0 }, "geometry": null },
{ "type": "Feature", "properties": { "fid": 1294, "numero_int": 10, "tipo": "(Fotos intervención)", "ruta": "./media/10/media/Fotos intervención/privado/ROLLO3-20.JPG", "publico": 0 }, "geometry": null },
{ "type": "Feature", "properties": { "fid": 1295, "numero_int": 10, "tipo": "(Fotos intervención)", "ruta": "./media/10/media/Fotos intervención/privado/ROLLO3-21.JPG", "publico": 0 }, "geometry": null },
{ "type": "Feature", "properties": { "fid": 1296, "numero_int": 10, "tipo": "(Fotos intervención)", "ruta": "./media/10/media/Fotos intervención/privado/ROLLO3-22.JPG", "publico": 0 }, "geometry": null },
{ "type": "Feature", "properties": { "fid": 1297, "numero_int": 10, "tipo": "(Fotos intervención)", "ruta": "./media/10/media/Fotos intervención/privado/ROLLO3-23.JPG", "publico": 0 }, "geometry": null },
{ "type": "Feature", "properties": { "fid": 1298, "numero_int": 10, "tipo": "(Fotos intervención)", "ruta": "./media/10/media/Fotos intervención/privado/ROLLO3-24.JPG", "publico": 0 }, "geometry": null },
{ "type": "Feature", "properties": { "fid": 1299, "numero_int": 10, "tipo": "(Fotos intervención)", "ruta": "./media/10/media/Fotos intervención/privado/ROLLO3-25.JPG", "publico": 0 }, "geometry": null },
{ "type": "Feature", "properties": { "fid": 1300, "numero_int": 10, "tipo": "(Fotos intervención)", "ruta": "./media/10/media/Fotos intervención/privado/ROLLO3-26.JPG", "publico": 0 }, "geometry": null },
{ "type": "Feature", "properties": { "fid": 1301, "numero_int": 10, "tipo": "(Fotos intervención)", "ruta": "./media/10/media/Fotos intervención/privado/ROLLO3-27.JPG", "publico": 0 }, "geometry": null },
{ "type": "Feature", "properties": { "fid": 1302, "numero_int": 10, "tipo": "(Fotos intervención)", "ruta": "./media/10/media/Fotos intervención/privado/ROLLO3-28.JPG", "publico": 0 }, "geometry": null },
{ "type": "Feature", "properties": { "fid": 1303, "numero_int": 10, "tipo": "(Fotos intervención)", "ruta": "./media/10/media/Fotos intervención/privado/ROLLO4-01.jpg", "publico": 0 }, "geometry": null },
{ "type": "Feature", "properties": { "fid": 1304, "numero_int": 10, "tipo": "(Fotos intervención)", "ruta": "./media/10/media/Fotos intervención/privado/ROLLO4-02.jpg", "publico": 0 }, "geometry": null },
{ "type": "Feature", "properties": { "fid": 1305, "numero_int": 10, "tipo": "(Fotos intervención)", "ruta": "./media/10/media/Fotos intervención/privado/ROLLO4-03.jpg", "publico": 0 }, "geometry": null },
{ "type": "Feature", "properties": { "fid": 1306, "numero_int": 10, "tipo": "(Fotos intervención)", "ruta": "./media/10/media/Fotos intervención/privado/ROLLO4-04.jpg", "publico": 0 }, "geometry": null },
{ "type": "Feature", "properties": { "fid": 1307, "numero_int": 10, "tipo": "(Fotos intervención)", "ruta": "./media/10/media/Fotos intervención/privado/ROLLO4-05.jpg", "publico": 0 }, "geometry": null },
{ "type": "Feature", "properties": { "fid": 1308, "numero_int": 10, "tipo": "(Fotos intervención)", "ruta": "./media/10/media/Fotos intervención/privado/ROLLO4-06.jpg", "publico": 0 }, "geometry": null },
{ "type": "Feature", "properties": { "fid": 1309, "numero_int": 10, "tipo": "(Fotos intervención)", "ruta": "./media/10/media/Fotos intervención/privado/ROLLO4-07.jpg", "publico": 0 }, "geometry": null },
{ "type": "Feature", "properties": { "fid": 1310, "numero_int": 10, "tipo": "(Fotos intervención)", "ruta": "./media/10/media/Fotos intervención/privado/ROLLO4-08.jpg", "publico": 0 }, "geometry": null },
{ "type": "Feature", "properties": { "fid": 1311, "numero_int": 10, "tipo": "(Fotos intervención)", "ruta": "./media/10/media/Fotos intervención/privado/ROLLO4-10.JPG", "publico": 0 }, "geometry": null },
{ "type": "Feature", "properties": { "fid": 1312, "numero_int": 10, "tipo": "(Fotos intervención)", "ruta": "./media/10/media/Fotos intervención/privado/ROLLO4-11.JPG", "publico": 0 }, "geometry": null },
{ "type": "Feature", "properties": { "fid": 1313, "numero_int": 10, "tipo": "(Fotos intervención)", "ruta": "./media/10/media/Fotos intervención/privado/ROLLO4-12.JPG", "publico": 0 }, "geometry": null },
{ "type": "Feature", "properties": { "fid": 1314, "numero_int": 10, "tipo": "(Fotos intervención)", "ruta": "./media/10/media/Fotos intervención/privado/ROLLO4-14.JPG", "publico": 0 }, "geometry": null },
{ "type": "Feature", "properties": { "fid": 1315, "numero_int": 10, "tipo": "(Fotos intervención)", "ruta": "./media/10/media/Fotos intervención/privado/ROLLO4-15.JPG", "publico": 0 }, "geometry": null },
{ "type": "Feature", "properties": { "fid": 1316, "numero_int": 10, "tipo": "(Fotos intervención)", "ruta": "./media/10/media/Fotos intervención/privado/ROLLO4-16.JPG", "publico": 0 }, "geometry": null },
{ "type": "Feature", "properties": { "fid": 1317, "numero_int": 10, "tipo": "(Fotos intervención)", "ruta": "./media/10/media/Fotos intervención/privado/ROLLO4-17.JPG", "publico": 0 }, "geometry": null },
{ "type": "Feature", "properties": { "fid": 1318, "numero_int": 10, "tipo": "(Fotos intervención)", "ruta": "./media/10/media/Fotos intervención/privado/ROLLO4-18.JPG", "publico": 0 }, "geometry": null },
{ "type": "Feature", "properties": { "fid": 1319, "numero_int": 10, "tipo": "(Fotos intervención)", "ruta": "./media/10/media/Fotos intervención/privado/ROLLO4-19.JPG", "publico": 0 }, "geometry": null },
{ "type": "Feature", "properties": { "fid": 1320, "numero_int": 10, "tipo": "(Fotos intervención)", "ruta": "./media/10/media/Fotos intervención/privado/ROLLO4-20.JPG", "publico": 0 }, "geometry": null },
{ "type": "Feature", "properties": { "fid": 1321, "numero_int": 10, "tipo": "(Fotos intervención)", "ruta": "./media/10/media/Fotos intervención/privado/ROLLO4-21.JPG", "publico": 0 }, "geometry": null },
{ "type": "Feature", "properties": { "fid": 1322, "numero_int": 10, "tipo": "(Fotos intervención)", "ruta": "./media/10/media/Fotos intervención/privado/ROLLO4-22.JPG", "publico": 0 }, "geometry": null },
{ "type": "Feature", "properties": { "fid": 1323, "numero_int": 10, "tipo": "(Fotos intervención)", "ruta": "./media/10/media/Fotos intervención/privado/ROLLO4-23.JPG", "publico": 0 }, "geometry": null },
{ "type": "Feature", "properties": { "fid": 1324, "numero_int": 10, "tipo": "(Fotos intervención)", "ruta": "./media/10/media/Fotos intervención/privado/ROLLO4-24.JPG", "publico": 0 }, "geometry": null },
{ "type": "Feature", "properties": { "fid": 1325, "numero_int": 10, "tipo": "(Fotos intervención)", "ruta": "./media/10/media/Fotos intervención/privado/ROLLO4-25.JPG", "publico": 0 }, "geometry": null },
{ "type": "Feature", "properties": { "fid": 1326, "numero_int": 10, "tipo": "(Hemeroteca)", "ruta": "./media/10/media/Hemeroteca/público/MERCADAL_2000-004.jpg", "publico": 1 }, "geometry": null },
{ "type": "Feature", "properties": { "fid": 1327, "numero_int": 10, "tipo": "(Hemeroteca)", "ruta": "./media/10/media/Hemeroteca/público/Prensa_MERCADAL_2000.jpg", "publico": 1 }, "geometry": null },
{ "type": "Feature", "properties": { "fid": 1328, "numero_int": 10, "tipo": "Planimetrías", "ruta": "./media/10/media/Planimetrías/público/INT_27_PlazaMercadal.rar", "publico": 1 }, "geometry": null },
{ "type": "Feature", "properties": { "fid": 1329, "numero_int": 27, "tipo": "(Fotos intervención)", "ruta": "./media/27/media/Fotos intervención/público/ROLLO1-32.JPG", "publico": 1 }, "geometry": null },
{ "type": "Feature", "properties": { "fid": 1330, "numero_int": 27, "tipo": "(Fotos intervención)", "ruta": "./media/27/media/Fotos intervención/público/ROLLO1-33.JPG", "publico": 1 }, "geometry": null },
{ "type": "Feature", "properties": { "fid": 1331, "numero_int": 27, "tipo": "(Fotos intervención)", "ruta": "./media/27/media/Fotos intervención/público/ROLLO1-34.JPG", "publico": 1 }, "geometry": null },
{ "type": "Feature", "properties": { "fid": 1332, "numero_int": 27, "tipo": "(Fotos intervención)", "ruta": "./media/27/media/Fotos intervención/público/ROLLO1-35.jpg", "publico": 1 }, "geometry": null },
{ "type": "Feature", "properties": { "fid": 1333, "numero_int": 27, "tipo": "(Fotos intervención)", "ruta": "./media/27/media/Fotos intervención/público/ROLLO2-00.jpg", "publico": 1 }, "geometry": null },
{ "type": "Feature", "properties": { "fid": 1334, "numero_int": 27, "tipo": "(Fotos intervención)", "ruta": "./media/27/media/Fotos intervención/público/ROLLO2-01.jpg", "publico": 1 }, "geometry": null },
{ "type": "Feature", "properties": { "fid": 1335, "numero_int": 27, "tipo": "(Fotos intervención)", "ruta": "./media/27/media/Fotos intervención/público/ROLLO2-02.jpg", "publico": 1 }, "geometry": null },
{ "type": "Feature", "properties": { "fid": 1336, "numero_int": 27, "tipo": "(Fotos intervención)", "ruta": "./media/27/media/Fotos intervención/público/ROLLO2-03.jpg", "publico": 1 }, "geometry": null },
{ "type": "Feature", "properties": { "fid": 1337, "numero_int": 27, "tipo": "(Fotos intervención)", "ruta": "./media/27/media/Fotos intervención/público/ROLLO2-04.jpg", "publico": 1 }, "geometry": null },
{ "type": "Feature", "properties": { "fid": 1338, "numero_int": 27, "tipo": "(Fotos intervención)", "ruta": "./media/27/media/Fotos intervención/público/ROLLO2-05.jpg", "publico": 1 }, "geometry": null },
{ "type": "Feature", "properties": { "fid": 1339, "numero_int": 27, "tipo": "(Fotos intervención)", "ruta": "./media/27/media/Fotos intervención/público/ROLLO2-06.jpg", "publico": 1 }, "geometry": null },
{ "type": "Feature", "properties": { "fid": 1340, "numero_int": 27, "tipo": "(Fotos intervención)", "ruta": "./media/27/media/Fotos intervención/público/ROLLO2-07.jpg", "publico": 1 }, "geometry": null },
{ "type": "Feature", "properties": { "fid": 1341, "numero_int": 27, "tipo": "(Fotos intervención)", "ruta": "./media/27/media/Fotos intervención/público/ROLLO2-08.jpg", "publico": 1 }, "geometry": null },
{ "type": "Feature", "properties": { "fid": 1342, "numero_int": 27, "tipo": "(Fotos intervención)", "ruta": "./media/27/media/Fotos intervención/público/ROLLO2-09.jpg", "publico": 1 }, "geometry": null },
{ "type": "Feature", "properties": { "fid": 1343, "numero_int": 27, "tipo": "(Fotos intervención)", "ruta": "./media/27/media/Fotos intervención/público/ROLLO2-10.JPG", "publico": 1 }, "geometry": null },
{ "type": "Feature", "properties": { "fid": 1344, "numero_int": 27, "tipo": "(Fotos intervención)", "ruta": "./media/27/media/Fotos intervención/público/ROLLO2-11.JPG", "publico": 1 }, "geometry": null },
{ "type": "Feature", "properties": { "fid": 1345, "numero_int": 27, "tipo": "(Fotos intervención)", "ruta": "./media/27/media/Fotos intervención/público/ROLLO2-12.JPG", "publico": 1 }, "geometry": null },
{ "type": "Feature", "properties": { "fid": 1346, "numero_int": 27, "tipo": "(Fotos intervención)", "ruta": "./media/27/media/Fotos intervención/público/ROLLO2-13.JPG", "publico": 1 }, "geometry": null },
{ "type": "Feature", "properties": { "fid": 1347, "numero_int": 27, "tipo": "(Fotos intervención)", "ruta": "./media/27/media/Fotos intervención/público/ROLLO2-14.JPG", "publico": 1 }, "geometry": null },
{ "type": "Feature", "properties": { "fid": 1348, "numero_int": 27, "tipo": "(Fotos intervención)", "ruta": "./media/27/media/Fotos intervención/público/ROLLO2-15.JPG", "publico": 1 }, "geometry": null },
{ "type": "Feature", "properties": { "fid": 1349, "numero_int": 27, "tipo": "(Fotos intervención)", "ruta": "./media/27/media/Fotos intervención/público/ROLLO2-16.JPG", "publico": 1 }, "geometry": null },
{ "type": "Feature", "properties": { "fid": 1350, "numero_int": 27, "tipo": "(Fotos intervención)", "ruta": "./media/27/media/Fotos intervención/público/ROLLO2-17.JPG", "publico": 1 }, "geometry": null },
{ "type": "Feature", "properties": { "fid": 1351, "numero_int": 27, "tipo": "(Fotos intervención)", "ruta": "./media/27/media/Fotos intervención/privado/ROLLO2-19.JPG", "publico": 0 }, "geometry": null },
{ "type": "Feature", "properties": { "fid": 1352, "numero_int": 27, "tipo": "(Fotos intervención)", "ruta": "./media/27/media/Fotos intervención/privado/ROLLO2-20.JPG", "publico": 0 }, "geometry": null },
{ "type": "Feature", "properties": { "fid": 1353, "numero_int": 27, "tipo": "(Fotos intervención)", "ruta": "./media/27/media/Fotos intervención/privado/ROLLO2-21.JPG", "publico": 0 }, "geometry": null },
{ "type": "Feature", "properties": { "fid": 1354, "numero_int": 27, "tipo": "(Fotos intervención)", "ruta": "./media/27/media/Fotos intervención/privado/ROLLO2-22.JPG", "publico": 0 }, "geometry": null },
{ "type": "Feature", "properties": { "fid": 1355, "numero_int": 27, "tipo": "(Fotos intervención)", "ruta": "./media/27/media/Fotos intervención/privado/ROLLO2-23.JPG", "publico": 0 }, "geometry": null },
{ "type": "Feature", "properties": { "fid": 1356, "numero_int": 27, "tipo": "(Fotos intervención)", "ruta": "./media/27/media/Fotos intervención/privado/ROLLO2-24.JPG", "publico": 0 }, "geometry": null },
{ "type": "Feature", "properties": { "fid": 1357, "numero_int": 27, "tipo": "(Fotos intervención)", "ruta": "./media/27/media/Fotos intervención/privado/ROLLO2-25.JPG", "publico": 0 }, "geometry": null },
{ "type": "Feature", "properties": { "fid": 1358, "numero_int": 27, "tipo": "(Fotos intervención)", "ruta": "./media/27/media/Fotos intervención/privado/ROLLO3-01.jpg", "publico": 0 }, "geometry": null },
{ "type": "Feature", "properties": { "fid": 1359, "numero_int": 27, "tipo": "(Fotos intervención)", "ruta": "./media/27/media/Fotos intervención/privado/ROLLO3-02.jpg", "publico": 0 }, "geometry": null },
{ "type": "Feature", "properties": { "fid": 1360, "numero_int": 27, "tipo": "(Fotos intervención)", "ruta": "./media/27/media/Fotos intervención/privado/ROLLO3-03.jpg", "publico": 0 }, "geometry": null },
{ "type": "Feature", "properties": { "fid": 1361, "numero_int": 27, "tipo": "(Fotos intervención)", "ruta": "./media/27/media/Fotos intervención/privado/ROLLO3-04.jpg", "publico": 0 }, "geometry": null },
{ "type": "Feature", "properties": { "fid": 1362, "numero_int": 27, "tipo": "(Fotos intervención)", "ruta": "./media/27/media/Fotos intervención/privado/ROLLO3-05.jpg", "publico": 0 }, "geometry": null },
{ "type": "Feature", "properties": { "fid": 1363, "numero_int": 27, "tipo": "(Fotos intervención)", "ruta": "./media/27/media/Fotos intervención/privado/ROLLO3-06.jpg", "publico": 0 }, "geometry": null },
{ "type": "Feature", "properties": { "fid": 1364, "numero_int": 27, "tipo": "(Fotos intervención)", "ruta": "./media/27/media/Fotos intervención/privado/ROLLO3-07.jpg", "publico": 0 }, "geometry": null },
{ "type": "Feature", "properties": { "fid": 1365, "numero_int": 27, "tipo": "(Fotos intervención)", "ruta": "./media/27/media/Fotos intervención/privado/ROLLO3-08.jpg", "publico": 0 }, "geometry": null },
{ "type": "Feature", "properties": { "fid": 1366, "numero_int": 27, "tipo": "(Fotos intervención)", "ruta": "./media/27/media/Fotos intervención/privado/ROLLO3-09.jpg", "publico": 0 }, "geometry": null },
{ "type": "Feature", "properties": { "fid": 1367, "numero_int": 27, "tipo": "(Fotos intervención)", "ruta": "./media/27/media/Fotos intervención/privado/ROLLO3-10.JPG", "publico": 0 }, "geometry": null },
{ "type": "Feature", "properties": { "fid": 1368, "numero_int": 27, "tipo": "(Fotos intervención)", "ruta": "./media/27/media/Fotos intervención/privado/ROLLO3-11.JPG", "publico": 0 }, "geometry": null },
{ "type": "Feature", "properties": { "fid": 1369, "numero_int": 27, "tipo": "(Fotos intervención)", "ruta": "./media/27/media/Fotos intervención/privado/ROLLO3-12.JPG", "publico": 0 }, "geometry": null },
{ "type": "Feature", "properties": { "fid": 1370, "numero_int": 27, "tipo": "(Fotos intervención)", "ruta": "./media/27/media/Fotos intervención/privado/ROLLO3-13.JPG", "publico": 0 }, "geometry": null },
{ "type": "Feature", "properties": { "fid": 1371, "numero_int": 27, "tipo": "(Fotos intervención)", "ruta": "./media/27/media/Fotos intervención/privado/ROLLO3-14.JPG", "publico": 0 }, "geometry": null },
{ "type": "Feature", "properties": { "fid": 1372, "numero_int": 27, "tipo": "(Fotos intervención)", "ruta": "./media/27/media/Fotos intervención/privado/ROLLO3-15.JPG", "publico": 0 }, "geometry": null },
{ "type": "Feature", "properties": { "fid": 1373, "numero_int": 27, "tipo": "(Fotos intervención)", "ruta": "./media/27/media/Fotos intervención/privado/ROLLO3-16.JPG", "publico": 0 }, "geometry": null },
{ "type": "Feature", "properties": { "fid": 1374, "numero_int": 27, "tipo": "(Fotos intervención)", "ruta": "./media/27/media/Fotos intervención/privado/ROLLO3-17.JPG", "publico": 0 }, "geometry": null },
{ "type": "Feature", "properties": { "fid": 1375, "numero_int": 27, "tipo": "(Fotos intervención)", "ruta": "./media/27/media/Fotos intervención/privado/ROLLO3-18.JPG", "publico": 0 }, "geometry": null },
{ "type": "Feature", "properties": { "fid": 1376, "numero_int": 27, "tipo": "(Fotos intervención)", "ruta": "./media/27/media/Fotos intervención/privado/ROLLO3-19.JPG", "publico": 0 }, "geometry": null },
{ "type": "Feature", "properties": { "fid": 1377, "numero_int": 27, "tipo": "(Fotos intervención)", "ruta": "./media/27/media/Fotos intervención/privado/ROLLO3-20.JPG", "publico": 0 }, "geometry": null },
{ "type": "Feature", "properties": { "fid": 1378, "numero_int": 27, "tipo": "(Fotos intervención)", "ruta": "./media/27/media/Fotos intervención/privado/ROLLO3-21.JPG", "publico": 0 }, "geometry": null },
{ "type": "Feature", "properties": { "fid": 1379, "numero_int": 27, "tipo": "(Fotos intervención)", "ruta": "./media/27/media/Fotos intervención/privado/ROLLO3-22.JPG", "publico": 0 }, "geometry": null },
{ "type": "Feature", "properties": { "fid": 1380, "numero_int": 27, "tipo": "(Fotos intervención)", "ruta": "./media/27/media/Fotos intervención/privado/ROLLO3-23.JPG", "publico": 0 }, "geometry": null },
{ "type": "Feature", "properties": { "fid": 1381, "numero_int": 27, "tipo": "(Fotos intervención)", "ruta": "./media/27/media/Fotos intervención/privado/ROLLO3-24.JPG", "publico": 0 }, "geometry": null },
{ "type": "Feature", "properties": { "fid": 1382, "numero_int": 27, "tipo": "(Fotos intervención)", "ruta": "./media/27/media/Fotos intervención/privado/ROLLO3-25.JPG", "publico": 0 }, "geometry": null },
{ "type": "Feature", "properties": { "fid": 1383, "numero_int": 27, "tipo": "(Fotos intervención)", "ruta": "./media/27/media/Fotos intervención/privado/ROLLO3-26.JPG", "publico": 0 }, "geometry": null },
{ "type": "Feature", "properties": { "fid": 1384, "numero_int": 27, "tipo": "(Fotos intervención)", "ruta": "./media/27/media/Fotos intervención/privado/ROLLO3-27.JPG", "publico": 0 }, "geometry": null },
{ "type": "Feature", "properties": { "fid": 1385, "numero_int": 27, "tipo": "(Fotos intervención)", "ruta": "./media/27/media/Fotos intervención/privado/ROLLO3-28.JPG", "publico": 0 }, "geometry": null },
{ "type": "Feature", "properties": { "fid": 1386, "numero_int": 27, "tipo": "(Fotos intervención)", "ruta": "./media/27/media/Fotos intervención/privado/ROLLO4-01.jpg", "publico": 0 }, "geometry": null },
{ "type": "Feature", "properties": { "fid": 1387, "numero_int": 27, "tipo": "(Fotos intervención)", "ruta": "./media/27/media/Fotos intervención/privado/ROLLO4-02.jpg", "publico": 0 }, "geometry": null },
{ "type": "Feature", "properties": { "fid": 1388, "numero_int": 27, "tipo": "(Fotos intervención)", "ruta": "./media/27/media/Fotos intervención/privado/ROLLO4-03.jpg", "publico": 0 }, "geometry": null },
{ "type": "Feature", "properties": { "fid": 1389, "numero_int": 27, "tipo": "(Fotos intervención)", "ruta": "./media/27/media/Fotos intervención/privado/ROLLO4-04.jpg", "publico": 0 }, "geometry": null },
{ "type": "Feature", "properties": { "fid": 1390, "numero_int": 27, "tipo": "(Fotos intervención)", "ruta": "./media/27/media/Fotos intervención/privado/ROLLO4-05.jpg", "publico": 0 }, "geometry": null },
{ "type": "Feature", "properties": { "fid": 1391, "numero_int": 27, "tipo": "(Fotos intervención)", "ruta": "./media/27/media/Fotos intervención/privado/ROLLO4-06.jpg", "publico": 0 }, "geometry": null },
{ "type": "Feature", "properties": { "fid": 1392, "numero_int": 27, "tipo": "(Fotos intervención)", "ruta": "./media/27/media/Fotos intervención/privado/ROLLO4-07.jpg", "publico": 0 }, "geometry": null },
{ "type": "Feature", "properties": { "fid": 1393, "numero_int": 27, "tipo": "(Fotos intervención)", "ruta": "./media/27/media/Fotos intervención/privado/ROLLO4-08.jpg", "publico": 0 }, "geometry": null },
{ "type": "Feature", "properties": { "fid": 1394, "numero_int": 27, "tipo": "(Fotos intervención)", "ruta": "./media/27/media/Fotos intervención/privado/ROLLO4-10.JPG", "publico": 0 }, "geometry": null },
{ "type": "Feature", "properties": { "fid": 1395, "numero_int": 27, "tipo": "(Fotos intervención)", "ruta": "./media/27/media/Fotos intervención/privado/ROLLO4-11.JPG", "publico": 0 }, "geometry": null },
{ "type": "Feature", "properties": { "fid": 1396, "numero_int": 27, "tipo": "(Fotos intervención)", "ruta": "./media/27/media/Fotos intervención/privado/ROLLO4-12.JPG", "publico": 0 }, "geometry": null },
{ "type": "Feature", "properties": { "fid": 1397, "numero_int": 27, "tipo": "(Fotos intervención)", "ruta": "./media/27/media/Fotos intervención/privado/ROLLO4-14.JPG", "publico": 0 }, "geometry": null },
{ "type": "Feature", "properties": { "fid": 1398, "numero_int": 27, "tipo": "(Fotos intervención)", "ruta": "./media/27/media/Fotos intervención/privado/ROLLO4-15.JPG", "publico": 0 }, "geometry": null },
{ "type": "Feature", "properties": { "fid": 1399, "numero_int": 27, "tipo": "(Fotos intervención)", "ruta": "./media/27/media/Fotos intervención/privado/ROLLO4-16.JPG", "publico": 0 }, "geometry": null },
{ "type": "Feature", "properties": { "fid": 1400, "numero_int": 27, "tipo": "(Fotos intervención)", "ruta": "./media/27/media/Fotos intervención/privado/ROLLO4-17.JPG", "publico": 0 }, "geometry": null },
{ "type": "Feature", "properties": { "fid": 1401, "numero_int": 27, "tipo": "(Fotos intervención)", "ruta": "./media/27/media/Fotos intervención/privado/ROLLO4-18.JPG", "publico": 0 }, "geometry": null },
{ "type": "Feature", "properties": { "fid": 1402, "numero_int": 27, "tipo": "(Fotos intervención)", "ruta": "./media/27/media/Fotos intervención/privado/ROLLO4-19.JPG", "publico": 0 }, "geometry": null },
{ "type": "Feature", "properties": { "fid": 1403, "numero_int": 27, "tipo": "(Fotos intervención)", "ruta": "./media/27/media/Fotos intervención/privado/ROLLO4-20.JPG", "publico": 0 }, "geometry": null },
{ "type": "Feature", "properties": { "fid": 1404, "numero_int": 27, "tipo": "(Fotos intervención)", "ruta": "./media/27/media/Fotos intervención/privado/ROLLO4-21.JPG", "publico": 0 }, "geometry": null },
{ "type": "Feature", "properties": { "fid": 1405, "numero_int": 27, "tipo": "(Fotos intervención)", "ruta": "./media/27/media/Fotos intervención/privado/ROLLO4-22.JPG", "publico": 0 }, "geometry": null },
{ "type": "Feature", "properties": { "fid": 1406, "numero_int": 27, "tipo": "(Fotos intervención)", "ruta": "./media/27/media/Fotos intervención/privado/ROLLO4-23.JPG", "publico": 0 }, "geometry": null },
{ "type": "Feature", "properties": { "fid": 1407, "numero_int": 27, "tipo": "(Fotos intervención)", "ruta": "./media/27/media/Fotos intervención/privado/ROLLO4-24.JPG", "publico": 0 }, "geometry": null },
{ "type": "Feature", "properties": { "fid": 1408, "numero_int": 27, "tipo": "(Fotos intervención)", "ruta": "./media/27/media/Fotos intervención/privado/ROLLO4-25.JPG", "publico": 0 }, "geometry": null },
{ "type": "Feature", "properties": { "fid": 1409, "numero_int": 27, "tipo": "(Hemeroteca)", "ruta": "./media/27/media/Hemeroteca/público/MERCADAL_2000-004.jpg", "publico": 1 }, "geometry": null },
{ "type": "Feature", "properties": { "fid": 1410, "numero_int": 27, "tipo": "(Hemeroteca)", "ruta": "./media/27/media/Hemeroteca/público/Prensa_MERCADAL_2000.jpg", "publico": 1 }, "geometry": null },
{ "type": "Feature", "properties": { "fid": 1411, "numero_int": 27, "tipo": "Planimetrías", "ruta": "./media/27/media/Planimetrías/público/INT_27_PlazaMercadal.rar", "publico": 1 }, "geometry": null },
{ "type": "Feature", "properties": { "fid": 1412, "numero_int": 81, "tipo": "(Fotos intervención)", "ruta": "./media/81/media/Fotos intervención/público/ROLLO1-32.JPG", "publico": 1 }, "geometry": null },
{ "type": "Feature", "properties": { "fid": 1413, "numero_int": 81, "tipo": "(Fotos intervención)", "ruta": "./media/81/media/Fotos intervención/público/ROLLO1-33.JPG", "publico": 1 }, "geometry": null },
{ "type": "Feature", "properties": { "fid": 1414, "numero_int": 81, "tipo": "(Fotos intervención)", "ruta": "./media/81/media/Fotos intervención/público/ROLLO1-34.JPG", "publico": 1 }, "geometry": null },
{ "type": "Feature", "properties": { "fid": 1415, "numero_int": 81, "tipo": "(Fotos intervención)", "ruta": "./media/81/media/Fotos intervención/público/ROLLO1-35.jpg", "publico": 1 }, "geometry": null },
{ "type": "Feature", "properties": { "fid": 1416, "numero_int": 81, "tipo": "(Fotos intervención)", "ruta": "./media/81/media/Fotos intervención/público/ROLLO2-00.jpg", "publico": 1 }, "geometry": null },
{ "type": "Feature", "properties": { "fid": 1417, "numero_int": 81, "tipo": "(Fotos intervención)", "ruta": "./media/81/media/Fotos intervención/público/ROLLO2-01.jpg", "publico": 1 }, "geometry": null },
{ "type": "Feature", "properties": { "fid": 1418, "numero_int": 81, "tipo": "(Fotos intervención)", "ruta": "./media/81/media/Fotos intervención/público/ROLLO2-02.jpg", "publico": 1 }, "geometry": null },
{ "type": "Feature", "properties": { "fid": 1419, "numero_int": 81, "tipo": "(Fotos intervención)", "ruta": "./media/81/media/Fotos intervención/público/ROLLO2-03.jpg", "publico": 1 }, "geometry": null },
{ "type": "Feature", "properties": { "fid": 1420, "numero_int": 81, "tipo": "(Fotos intervención)", "ruta": "./media/81/media/Fotos intervención/público/ROLLO2-04.jpg", "publico": 1 }, "geometry": null },
{ "type": "Feature", "properties": { "fid": 1421, "numero_int": 81, "tipo": "(Fotos intervención)", "ruta": "./media/81/media/Fotos intervención/público/ROLLO2-05.jpg", "publico": 1 }, "geometry": null },
{ "type": "Feature", "properties": { "fid": 1422, "numero_int": 81, "tipo": "(Fotos intervención)", "ruta": "./media/81/media/Fotos intervención/público/ROLLO2-06.jpg", "publico": 1 }, "geometry": null },
{ "type": "Feature", "properties": { "fid": 1423, "numero_int": 81, "tipo": "(Fotos intervención)", "ruta": "./media/81/media/Fotos intervención/público/ROLLO2-07.jpg", "publico": 1 }, "geometry": null },
{ "type": "Feature", "properties": { "fid": 1424, "numero_int": 81, "tipo": "(Fotos intervención)", "ruta": "./media/81/media/Fotos intervención/público/ROLLO2-08.jpg", "publico": 1 }, "geometry": null },
{ "type": "Feature", "properties": { "fid": 1425, "numero_int": 81, "tipo": "(Fotos intervención)", "ruta": "./media/81/media/Fotos intervención/público/ROLLO2-09.jpg", "publico": 1 }, "geometry": null },
{ "type": "Feature", "properties": { "fid": 1426, "numero_int": 81, "tipo": "(Fotos intervención)", "ruta": "./media/81/media/Fotos intervención/público/ROLLO2-10.JPG", "publico": 1 }, "geometry": null },
{ "type": "Feature", "properties": { "fid": 1427, "numero_int": 81, "tipo": "(Fotos intervención)", "ruta": "./media/81/media/Fotos intervención/público/ROLLO2-11.JPG", "publico": 1 }, "geometry": null },
{ "type": "Feature", "properties": { "fid": 1428, "numero_int": 81, "tipo": "(Fotos intervención)", "ruta": "./media/81/media/Fotos intervención/público/ROLLO2-12.JPG", "publico": 1 }, "geometry": null },
{ "type": "Feature", "properties": { "fid": 1429, "numero_int": 81, "tipo": "(Fotos intervención)", "ruta": "./media/81/media/Fotos intervención/público/ROLLO2-13.JPG", "publico": 1 }, "geometry": null },
{ "type": "Feature", "properties": { "fid": 1430, "numero_int": 81, "tipo": "(Fotos intervención)", "ruta": "./media/81/media/Fotos intervención/público/ROLLO2-14.JPG", "publico": 1 }, "geometry": null },
{ "type": "Feature", "properties": { "fid": 1431, "numero_int": 81, "tipo": "(Fotos intervención)", "ruta": "./media/81/media/Fotos intervención/público/ROLLO2-15.JPG", "publico": 1 }, "geometry": null },
{ "type": "Feature", "properties": { "fid": 1432, "numero_int": 81, "tipo": "(Fotos intervención)", "ruta": "./media/81/media/Fotos intervención/público/ROLLO2-16.JPG", "publico": 1 }, "geometry": null },
{ "type": "Feature", "properties": { "fid": 1433, "numero_int": 81, "tipo": "(Fotos intervención)", "ruta": "./media/81/media/Fotos intervención/público/ROLLO2-17.JPG", "publico": 1 }, "geometry": null },
{ "type": "Feature", "properties": { "fid": 1434, "numero_int": 81, "tipo": "(Fotos intervención)", "ruta": "./media/81/media/Fotos intervención/privado/ROLLO2-19.JPG", "publico": 0 }, "geometry": null },
{ "type": "Feature", "properties": { "fid": 1435, "numero_int": 81, "tipo": "(Fotos intervención)", "ruta": "./media/81/media/Fotos intervención/privado/ROLLO2-20.JPG", "publico": 0 }, "geometry": null },
{ "type": "Feature", "properties": { "fid": 1436, "numero_int": 81, "tipo": "(Fotos intervención)", "ruta": "./media/81/media/Fotos intervención/privado/ROLLO2-21.JPG", "publico": 0 }, "geometry": null },
{ "type": "Feature", "properties": { "fid": 1437, "numero_int": 81, "tipo": "(Fotos intervención)", "ruta": "./media/81/media/Fotos intervención/privado/ROLLO2-22.JPG", "publico": 0 }, "geometry": null },
{ "type": "Feature", "properties": { "fid": 1438, "numero_int": 81, "tipo": "(Fotos intervención)", "ruta": "./media/81/media/Fotos intervención/privado/ROLLO2-23.JPG", "publico": 0 }, "geometry": null },
{ "type": "Feature", "properties": { "fid": 1439, "numero_int": 81, "tipo": "(Fotos intervención)", "ruta": "./media/81/media/Fotos intervención/privado/ROLLO2-24.JPG", "publico": 0 }, "geometry": null },
{ "type": "Feature", "properties": { "fid": 1440, "numero_int": 81, "tipo": "(Fotos intervención)", "ruta": "./media/81/media/Fotos intervención/privado/ROLLO2-25.JPG", "publico": 0 }, "geometry": null },
{ "type": "Feature", "properties": { "fid": 1441, "numero_int": 81, "tipo": "(Fotos intervención)", "ruta": "./media/81/media/Fotos intervención/privado/ROLLO3-01.jpg", "publico": 0 }, "geometry": null },
{ "type": "Feature", "properties": { "fid": 1442, "numero_int": 81, "tipo": "(Fotos intervención)", "ruta": "./media/81/media/Fotos intervención/privado/ROLLO3-02.jpg", "publico": 0 }, "geometry": null },
{ "type": "Feature", "properties": { "fid": 1443, "numero_int": 81, "tipo": "(Fotos intervención)", "ruta": "./media/81/media/Fotos intervención/privado/ROLLO3-03.jpg", "publico": 0 }, "geometry": null },
{ "type": "Feature", "properties": { "fid": 1444, "numero_int": 81, "tipo": "(Fotos intervención)", "ruta": "./media/81/media/Fotos intervención/privado/ROLLO3-04.jpg", "publico": 0 }, "geometry": null },
{ "type": "Feature", "properties": { "fid": 1445, "numero_int": 81, "tipo": "(Fotos intervención)", "ruta": "./media/81/media/Fotos intervención/privado/ROLLO3-05.jpg", "publico": 0 }, "geometry": null },
{ "type": "Feature", "properties": { "fid": 1446, "numero_int": 81, "tipo": "(Fotos intervención)", "ruta": "./media/81/media/Fotos intervención/privado/ROLLO3-06.jpg", "publico": 0 }, "geometry": null },
{ "type": "Feature", "properties": { "fid": 1447, "numero_int": 81, "tipo": "(Fotos intervención)", "ruta": "./media/81/media/Fotos intervención/privado/ROLLO3-07.jpg", "publico": 0 }, "geometry": null },
{ "type": "Feature", "properties": { "fid": 1448, "numero_int": 81, "tipo": "(Fotos intervención)", "ruta": "./media/81/media/Fotos intervención/privado/ROLLO3-08.jpg", "publico": 0 }, "geometry": null },
{ "type": "Feature", "properties": { "fid": 1449, "numero_int": 81, "tipo": "(Fotos intervención)", "ruta": "./media/81/media/Fotos intervención/privado/ROLLO3-09.jpg", "publico": 0 }, "geometry": null },
{ "type": "Feature", "properties": { "fid": 1450, "numero_int": 81, "tipo": "(Fotos intervención)", "ruta": "./media/81/media/Fotos intervención/privado/ROLLO3-10.JPG", "publico": 0 }, "geometry": null },
{ "type": "Feature", "properties": { "fid": 1451, "numero_int": 81, "tipo": "(Fotos intervención)", "ruta": "./media/81/media/Fotos intervención/privado/ROLLO3-11.JPG", "publico": 0 }, "geometry": null },
{ "type": "Feature", "properties": { "fid": 1452, "numero_int": 81, "tipo": "(Fotos intervención)", "ruta": "./media/81/media/Fotos intervención/privado/ROLLO3-12.JPG", "publico": 0 }, "geometry": null },
{ "type": "Feature", "properties": { "fid": 1453, "numero_int": 81, "tipo": "(Fotos intervención)", "ruta": "./media/81/media/Fotos intervención/privado/ROLLO3-13.JPG", "publico": 0 }, "geometry": null },
{ "type": "Feature", "properties": { "fid": 1454, "numero_int": 81, "tipo": "(Fotos intervención)", "ruta": "./media/81/media/Fotos intervención/privado/ROLLO3-14.JPG", "publico": 0 }, "geometry": null },
{ "type": "Feature", "properties": { "fid": 1455, "numero_int": 81, "tipo": "(Fotos intervención)", "ruta": "./media/81/media/Fotos intervención/privado/ROLLO3-15.JPG", "publico": 0 }, "geometry": null },
{ "type": "Feature", "properties": { "fid": 1456, "numero_int": 81, "tipo": "(Fotos intervención)", "ruta": "./media/81/media/Fotos intervención/privado/ROLLO3-16.JPG", "publico": 0 }, "geometry": null },
{ "type": "Feature", "properties": { "fid": 1457, "numero_int": 81, "tipo": "(Fotos intervención)", "ruta": "./media/81/media/Fotos intervención/privado/ROLLO3-17.JPG", "publico": 0 }, "geometry": null },
{ "type": "Feature", "properties": { "fid": 1458, "numero_int": 81, "tipo": "(Fotos intervención)", "ruta": "./media/81/media/Fotos intervención/privado/ROLLO3-18.JPG", "publico": 0 }, "geometry": null },
{ "type": "Feature", "properties": { "fid": 1459, "numero_int": 81, "tipo": "(Fotos intervención)", "ruta": "./media/81/media/Fotos intervención/privado/ROLLO3-19.JPG", "publico": 0 }, "geometry": null },
{ "type": "Feature", "properties": { "fid": 1460, "numero_int": 81, "tipo": "(Fotos intervención)", "ruta": "./media/81/media/Fotos intervención/privado/ROLLO3-20.JPG", "publico": 0 }, "geometry": null },
{ "type": "Feature", "properties": { "fid": 1461, "numero_int": 81, "tipo": "(Fotos intervención)", "ruta": "./media/81/media/Fotos intervención/privado/ROLLO3-21.JPG", "publico": 0 }, "geometry": null },
{ "type": "Feature", "properties": { "fid": 1462, "numero_int": 81, "tipo": "(Fotos intervención)", "ruta": "./media/81/media/Fotos intervención/privado/ROLLO3-22.JPG", "publico": 0 }, "geometry": null },
{ "type": "Feature", "properties": { "fid": 1463, "numero_int": 81, "tipo": "(Fotos intervención)", "ruta": "./media/81/media/Fotos intervención/privado/ROLLO3-23.JPG", "publico": 0 }, "geometry": null },
{ "type": "Feature", "properties": { "fid": 1464, "numero_int": 81, "tipo": "(Fotos intervención)", "ruta": "./media/81/media/Fotos intervención/privado/ROLLO3-24.JPG", "publico": 0 }, "geometry": null },
{ "type": "Feature", "properties": { "fid": 1465, "numero_int": 81, "tipo": "(Fotos intervención)", "ruta": "./media/81/media/Fotos intervención/privado/ROLLO3-25.JPG", "publico": 0 }, "geometry": null },
{ "type": "Feature", "properties": { "fid": 1466, "numero_int": 81, "tipo": "(Fotos intervención)", "ruta": "./media/81/media/Fotos intervención/privado/ROLLO3-26.JPG", "publico": 0 }, "geometry": null },
{ "type": "Feature", "properties": { "fid": 1467, "numero_int": 81, "tipo": "(Fotos intervención)", "ruta": "./media/81/media/Fotos intervención/privado/ROLLO3-27.JPG", "publico": 0 }, "geometry": null },
{ "type": "Feature", "properties": { "fid": 1468, "numero_int": 81, "tipo": "(Fotos intervención)", "ruta": "./media/81/media/Fotos intervención/privado/ROLLO3-28.JPG", "publico": 0 }, "geometry": null },
{ "type": "Feature", "properties": { "fid": 1469, "numero_int": 81, "tipo": "(Fotos intervención)", "ruta": "./media/81/media/Fotos intervención/privado/ROLLO4-01.jpg", "publico": 0 }, "geometry": null },
{ "type": "Feature", "properties": { "fid": 1470, "numero_int": 81, "tipo": "(Fotos intervención)", "ruta": "./media/81/media/Fotos intervención/privado/ROLLO4-02.jpg", "publico": 0 }, "geometry": null },
{ "type": "Feature", "properties": { "fid": 1471, "numero_int": 81, "tipo": "(Fotos intervención)", "ruta": "./media/81/media/Fotos intervención/privado/ROLLO4-03.jpg", "publico": 0 }, "geometry": null },
{ "type": "Feature", "properties": { "fid": 1472, "numero_int": 81, "tipo": "(Fotos intervención)", "ruta": "./media/81/media/Fotos intervención/privado/ROLLO4-04.jpg", "publico": 0 }, "geometry": null },
{ "type": "Feature", "properties": { "fid": 1473, "numero_int": 81, "tipo": "(Fotos intervención)", "ruta": "./media/81/media/Fotos intervención/privado/ROLLO4-05.jpg", "publico": 0 }, "geometry": null },
{ "type": "Feature", "properties": { "fid": 1474, "numero_int": 81, "tipo": "(Fotos intervención)", "ruta": "./media/81/media/Fotos intervención/privado/ROLLO4-06.jpg", "publico": 0 }, "geometry": null },
{ "type": "Feature", "properties": { "fid": 1475, "numero_int": 81, "tipo": "(Fotos intervención)", "ruta": "./media/81/media/Fotos intervención/privado/ROLLO4-07.jpg", "publico": 0 }, "geometry": null },
{ "type": "Feature", "properties": { "fid": 1476, "numero_int": 81, "tipo": "(Fotos intervención)", "ruta": "./media/81/media/Fotos intervención/privado/ROLLO4-08.jpg", "publico": 0 }, "geometry": null },
{ "type": "Feature", "properties": { "fid": 1477, "numero_int": 81, "tipo": "(Fotos intervención)", "ruta": "./media/81/media/Fotos intervención/privado/ROLLO4-10.JPG", "publico": 0 }, "geometry": null },
{ "type": "Feature", "properties": { "fid": 1478, "numero_int": 81, "tipo": "(Fotos intervención)", "ruta": "./media/81/media/Fotos intervención/privado/ROLLO4-11.JPG", "publico": 0 }, "geometry": null },
{ "type": "Feature", "properties": { "fid": 1479, "numero_int": 81, "tipo": "(Fotos intervención)", "ruta": "./media/81/media/Fotos intervención/privado/ROLLO4-12.JPG", "publico": 0 }, "geometry": null },
{ "type": "Feature", "properties": { "fid": 1480, "numero_int": 81, "tipo": "(Fotos intervención)", "ruta": "./media/81/media/Fotos intervención/privado/ROLLO4-14.JPG", "publico": 0 }, "geometry": null },
{ "type": "Feature", "properties": { "fid": 1481, "numero_int": 81, "tipo": "(Fotos intervención)", "ruta": "./media/81/media/Fotos intervención/privado/ROLLO4-15.JPG", "publico": 0 }, "geometry": null },
{ "type": "Feature", "properties": { "fid": 1482, "numero_int": 81, "tipo": "(Fotos intervención)", "ruta": "./media/81/media/Fotos intervención/privado/ROLLO4-16.JPG", "publico": 0 }, "geometry": null },
{ "type": "Feature", "properties": { "fid": 1483, "numero_int": 81, "tipo": "(Fotos intervención)", "ruta": "./media/81/media/Fotos intervención/privado/ROLLO4-17.JPG", "publico": 0 }, "geometry": null },
{ "type": "Feature", "properties": { "fid": 1484, "numero_int": 81, "tipo": "(Fotos intervención)", "ruta": "./media/81/media/Fotos intervención/privado/ROLLO4-18.JPG", "publico": 0 }, "geometry": null },
{ "type": "Feature", "properties": { "fid": 1485, "numero_int": 81, "tipo": "(Fotos intervención)", "ruta": "./media/81/media/Fotos intervención/privado/ROLLO4-19.JPG", "publico": 0 }, "geometry": null },
{ "type": "Feature", "properties": { "fid": 1486, "numero_int": 81, "tipo": "(Fotos intervención)", "ruta": "./media/81/media/Fotos intervención/privado/ROLLO4-20.JPG", "publico": 0 }, "geometry": null },
{ "type": "Feature", "properties": { "fid": 1487, "numero_int": 81, "tipo": "(Fotos intervención)", "ruta": "./media/81/media/Fotos intervención/privado/ROLLO4-21.JPG", "publico": 0 }, "geometry": null },
{ "type": "Feature", "properties": { "fid": 1488, "numero_int": 81, "tipo": "(Fotos intervención)", "ruta": "./media/81/media/Fotos intervención/privado/ROLLO4-22.JPG", "publico": 0 }, "geometry": null },
{ "type": "Feature", "properties": { "fid": 1489, "numero_int": 81, "tipo": "(Fotos intervención)", "ruta": "./media/81/media/Fotos intervención/privado/ROLLO4-23.JPG", "publico": 0 }, "geometry": null },
{ "type": "Feature", "properties": { "fid": 1490, "numero_int": 81, "tipo": "(Fotos intervención)", "ruta": "./media/81/media/Fotos intervención/privado/ROLLO4-24.JPG", "publico": 0 }, "geometry": null },
{ "type": "Feature", "properties": { "fid": 1491, "numero_int": 81, "tipo": "(Fotos intervención)", "ruta": "./media/81/media/Fotos intervención/privado/ROLLO4-25.JPG", "publico": 0 }, "geometry": null },
{ "type": "Feature", "properties": { "fid": 1492, "numero_int": 81, "tipo": "(Hemeroteca)", "ruta": "./media/81/media/Hemeroteca/público/MERCADAL_2000-004.jpg", "publico": 1 }, "geometry": null },
{ "type": "Feature", "properties": { "fid": 1493, "numero_int": 81, "tipo": "(Hemeroteca)", "ruta": "./media/81/media/Hemeroteca/público/Prensa_MERCADAL_2000.jpg", "publico": 1 }, "geometry": null },
{ "type": "Feature", "properties": { "fid": 1494, "numero_int": 81, "tipo": "Planimetrías", "ruta": "./media/81/media/Planimetrías/público/INT_27_PlazaMercadal.rar", "publico": 1 }, "geometry": null }
]
}
