{
"type": "FeatureCollection",
"name": "Documentos administrativos",
"features": [
{ "type": "Feature", "properties": { "fid": 31, "numero_int": 10, "tipo": "Informe de intervención-Inventario materiales", "ruta": "./media/10/administrativos/Informe de intervención-Inventario materiales/privado/INT_27_InformeExcavacion_Mercadal_2000.pdf", "publico": 0 }, "geometry": null },
{ "type": "Feature", "properties": { "fid": 32, "numero_int": 10, "tipo": "Resolución permiso Gobierno de Navarra", "ruta": "./media/10/administrativos/Resolución permiso Gobierno de Navarra/privado/resolucion permiso excavacion.pdf", "publico": 0 }, "geometry": null },
{ "type": "Feature", "properties": { "fid": 33, "numero_int": 27, "tipo": "Informe de intervención-Inventario materiales", "ruta": "./media/27/administrativos/Informe de intervención-Inventario materiales/privado/INT_27_InformeExcavacion_Mercadal_2000.pdf", "publico": 0 }, "geometry": null },
{ "type": "Feature", "properties": { "fid": 34, "numero_int": 27, "tipo": "Resolución permiso Gobierno de Navarra", "ruta": "./media/27/administrativos/Resolución permiso Gobierno de Navarra/privado/resolucion permiso excavacion.pdf", "publico": 0 }, "geometry": null },
{ "type": "Feature", "properties": { "fid": 35, "numero_int": 81, "tipo": "Informe de intervención-Inventario materiales", "ruta": "./media/81/administrativos/Informe de intervención-Inventario materiales/privado/INT_27_InformeExcavacion_Mercadal_2000.pdf", "publico": 0 }, "geometry": null },
{ "type": "Feature", "properties": { "fid": 36, "numero_int": 81, "tipo": "Resolución permiso Gobierno de Navarra", "ruta": "./media/81/administrativos/Resolución permiso Gobierno de Navarra/privado/resolucion permiso excavacion.pdf", "publico": 0 }, "geometry": null }
]
}
