{
"type": "FeatureCollection",
"name": "Media piezas destacadas",
"features": [
{ "type": "Feature", "properties": { "fid": 23, "num_pieza": 1, "tipo": "Foto", "ruta": "./media/10/piezas_destacadas/1/Foto/público/plato.jpg", "publico": 1, "url": "https://multimedia.arqueotudela.workers.dev/?id=1ZeAGWUoBT8rHMo5x6SZWN7caxdds5BBL" }, "geometry": null },
{ "type": "Feature", "properties": { "fid": 24, "num_pieza": 1, "tipo": "Dibujo", "ruta": "./media/10/piezas_destacadas/1/Dibujo/público/plato.jpg", "publico": 1, "url": "https://multimedia.arqueotudela.workers.dev/?id=1AJjX45KnF2AraqN6N2Kvj4yYqY0CsHQh" }, "geometry": null },
{ "type": "Feature", "properties": { "fid": 25, "num_pieza": 2, "tipo": "Foto", "ruta": "./media/81/piezas_destacadas/2/Foto/público/1824a.jpg", "publico": 1, "url": "https://multimedia.arqueotudela.workers.dev/?id=1oBr4vBbdWT_u7_gf0yjtmalc78XCLnO2" }, "geometry": null },
{ "type": "Feature", "properties": { "fid": 26, "num_pieza": 2, "tipo": "Dibujo", "ruta": "./media/81/piezas_destacadas/2/Dibujo/público/1824.png", "publico": 1, "url": "https://multimedia.arqueotudela.workers.dev/?id=14MyVqu6ji4YXMSvF7GMIhRwxLX9hK-j7" }, "geometry": null },
{ "type": "Feature", "properties": { "fid": 27, "num_pieza": 3, "tipo": "Foto", "ruta": "./media/81/piezas_destacadas/3/Foto/público/683.jpg", "publico": 1, "url": "https://multimedia.arqueotudela.workers.dev/?id=1nUKs-_CiZTlIa9jdZvmjn5u_QAUTTUQK" }, "geometry": null },
{ "type": "Feature", "properties": { "fid": 28, "num_pieza": 3, "tipo": "Dibujo", "ruta": "./media/81/piezas_destacadas/3/Dibujo/público/683.png", "publico": 1, "url": "https://multimedia.arqueotudela.workers.dev/?id=1cfsJH74EFRrhnDesNLMkBG0tSUaVtMSO" }, "geometry": null }
]
}
