{
"type": "FeatureCollection",
"name": "Puntos de intervención",
"crs": { "type": "name", "properties": { "name": "urn:ogc:def:crs:OGC:1.3:CRS84" } },
"features": [
{ "type": "Feature", "properties": { "fid": 1, "numero_int": 3, "denominacion": " Liceo", "n_sigla": null, "direccion": null, "fecha": null, "z_pepri": null, "director": null, "promotor": null, "descrip_restos": null, "ubi_mat_dep_perm": null, "ubi_mat_falta_depos": null, "ubi_mat_dep_tempo": null, "bibliografia": null, "colaboradores": null }, "geometry": { "type": "Point", "coordinates": [ -1.607591429786397, 42.064595003744962 ] } },
{ "type": "Feature", "properties": { "fid": 2, "numero_int": 4, "denominacion": "TorreonCarlista RA11 Cerro", "n_sigla": "_1", "direccion": null, "fecha": null, "z_pepri": null, "director": null, "promotor": null, "descrip_restos": null, "ubi_mat_dep_perm": null, "ubi_mat_falta_depos": null, "ubi_mat_dep_tempo": null, "bibliografia": null, "colaboradores": null }, "geometry": { "type": "Point", "coordinates": [ -1.607850839330136, 42.067028789132578 ] } },
{ "type": "Feature", "properties": { "fid": 3, "numero_int": 5, "denominacion": "ZonaPozos RA23 Cerro", "n_sigla": "_1_1", "direccion": null, "fecha": null, "z_pepri": null, "director": null, "promotor": null, "descrip_restos": null, "ubi_mat_dep_perm": null, "ubi_mat_falta_depos": null, "ubi_mat_dep_tempo": null, "bibliografia": null, "colaboradores": null }, "geometry": { "type": "Point", "coordinates": [ -1.606593666019125, 42.066871750010556 ] } },
{ "type": "Feature", "properties": { "fid": 4, "numero_int": 6, "denominacion": "TorreMonreal 1985-2002", "n_sigla": "_1_1_1", "direccion": null, "fecha": null, "z_pepri": null, "director": null, "promotor": null, "descrip_restos": null, "ubi_mat_dep_perm": null, "ubi_mat_falta_depos": null, "ubi_mat_dep_tempo": null, "bibliografia": null, "colaboradores": null }, "geometry": { "type": "Point", "coordinates": [ -1.606222311168397, 42.058826310511314 ] } },
{ "type": "Feature", "properties": { "fid": 5, "numero_int": 7, "denominacion": "Magdalena 1985-1988", "n_sigla": "_1_1_2", "direccion": null, "fecha": null, "z_pepri": null, "director": null, "promotor": null, "descrip_restos": null, "ubi_mat_dep_perm": null, "ubi_mat_falta_depos": null, "ubi_mat_dep_tempo": null, "bibliografia": null, "colaboradores": null }, "geometry": { "type": "Point", "coordinates": [ -1.604000250684097, 42.064970004452348 ] } },
{ "type": "Feature", "properties": { "fid": 6, "numero_int": 8, "denominacion": "BodegaRoso", "n_sigla": "_1_1_3", "direccion": null, "fecha": null, "z_pepri": null, "director": null, "promotor": null, "descrip_restos": null, "ubi_mat_dep_perm": null, "ubi_mat_falta_depos": null, "ubi_mat_dep_tempo": null, "bibliografia": null, "colaboradores": null }, "geometry": { "type": "Point", "coordinates": [ -1.606018996242776, 42.063680372550742 ] } },
{ "type": "Feature", "properties": { "fid": 7, "numero_int": 9, "denominacion": "MercadoAbastos 1986", "n_sigla": "_1_1_4", "direccion": null, "fecha": null, "z_pepri": null, "director": null, "promotor": null, "descrip_restos": null, "ubi_mat_dep_perm": null, "ubi_mat_falta_depos": null, "ubi_mat_dep_tempo": null, "bibliografia": null, "colaboradores": null }, "geometry": { "type": "Point", "coordinates": [ -1.605706728243665, 42.062678008653023 ] } },
{ "type": "Feature", "properties": { "fid": 8, "numero_int": 10, "denominacion": "Cortapelaires 1", "n_sigla": "_1_1_5", "direccion": "Calle Cortapelaires", "fecha": "17 de mayo de 2024", "z_pepri": null, "director": null, "promotor": null, "descrip_restos": "\nWhere does it come from?\nContrary to popular belief, Lorem Ipsum is not simply random text. It has roots in a piece of classical Latin literature from 45 BC, making it over 2000 years old. Richard McClintock, a Latin professor at Hampden-Sydney College in Virginia, looked up one of the more obscure Latin words, consectetur, from a Lorem Ipsum passage, and going through the cites of the word in classical literature, discovered the undoubtable source. Lorem Ipsum comes from sections 1.10.32 and 1.10.33 of \"de Finibus Bonorum et Malorum\" (The Extremes of Good and Evil) by Cicero, written in 45 BC. This book is a treatise on the theory of ethics, very popular during the Renaissance. The first line of Lorem Ipsum, \"Lorem ipsum dolor sit amet..\", comes from a line in section 1.10.32.\n\nThe standard chunk of Lorem Ipsum used since the 1500s is reproduced below for those interested. Sections 1.10.32 and 1.10.33 from \"de Finibus Bonorum et Malorum\" by Cicero are also reproduced in their exact original form, accompanied by English versions from the 1914 translation by H. Rackham.\n\nWhere can I get some?\nThere are many variations of passages of Lorem Ipsum available, but the majority have suffered alteration in some form, by injected humour, or randomised words which don't look even slightly believable. If you are going to use a passage of Lorem Ipsum, you need to be sure there isn't anything embarrassing hidden in the middle of text. All the Lorem Ipsum generators on the Internet tend to repeat predefined chunks as necessary, making this the first true generator on the Internet. It uses a dictionary of over 200 Latin words, combined with a handful of model sentence structures, to generate Lorem Ipsum which looks reasonable. The generated Lorem Ipsum is therefore always free from repetition, injected humour, or non-characteristic words etc.", "ubi_mat_dep_perm": null, "ubi_mat_falta_depos": null, "ubi_mat_dep_tempo": null, "bibliografia": null, "colaboradores": null }, "geometry": { "type": "Point", "coordinates": [ -1.606659408059294, 42.065358746888556 ] } },
{ "type": "Feature", "properties": { "fid": 9, "numero_int": 11, "denominacion": "Cata RA18 Cerro", "n_sigla": "_1_1_6", "direccion": null, "fecha": null, "z_pepri": null, "director": null, "promotor": null, "descrip_restos": null, "ubi_mat_dep_perm": null, "ubi_mat_falta_depos": null, "ubi_mat_dep_tempo": null, "bibliografia": null, "colaboradores": null }, "geometry": { "type": "Point", "coordinates": [ -1.607564782504856, 42.067425235838989 ] } },
{ "type": "Feature", "properties": { "fid": 10, "numero_int": 12, "denominacion": "Murallas RA10 Cerro", "n_sigla": "_1_1_7", "direccion": null, "fecha": null, "z_pepri": null, "director": null, "promotor": null, "descrip_restos": null, "ubi_mat_dep_perm": null, "ubi_mat_falta_depos": null, "ubi_mat_dep_tempo": null, "bibliografia": null, "colaboradores": null }, "geometry": { "type": "Point", "coordinates": [ -1.606388905742492, 42.067365524043637 ] } },
{ "type": "Feature", "properties": { "fid": 11, "numero_int": 12, "denominacion": "Murallas RA10 Cerro", "n_sigla": "_1_1_7_1", "direccion": null, "fecha": null, "z_pepri": null, "director": null, "promotor": null, "descrip_restos": null, "ubi_mat_dep_perm": null, "ubi_mat_falta_depos": null, "ubi_mat_dep_tempo": null, "bibliografia": null, "colaboradores": null }, "geometry": { "type": "Point", "coordinates": [ -1.606309922884015, 42.067144763204091 ] } },
{ "type": "Feature", "properties": { "fid": 12, "numero_int": 13, "denominacion": "CerroSantaBarbara RA 17", "n_sigla": "_1_1_7_1_1", "direccion": null, "fecha": null, "z_pepri": null, "director": null, "promotor": null, "descrip_restos": null, "ubi_mat_dep_perm": null, "ubi_mat_falta_depos": null, "ubi_mat_dep_tempo": null, "bibliografia": null, "colaboradores": null }, "geometry": { "type": "Point", "coordinates": [ -1.607187202573008, 42.067689357836052 ] } },
{ "type": "Feature", "properties": { "fid": 13, "numero_int": 15, "denominacion": "PlazaVieja ", "n_sigla": "_1_1_7_1_2", "direccion": null, "fecha": null, "z_pepri": null, "director": null, "promotor": null, "descrip_restos": null, "ubi_mat_dep_perm": null, "ubi_mat_falta_depos": null, "ubi_mat_dep_tempo": null, "bibliografia": null, "colaboradores": null }, "geometry": { "type": "Point", "coordinates": [ -1.60543485576173, 42.06388969105798 ] } },
{ "type": "Feature", "properties": { "fid": 14, "numero_int": 14, "denominacion": "Solar Carrera y Claras", "n_sigla": "_1_1_7_1_3", "direccion": null, "fecha": null, "z_pepri": null, "director": null, "promotor": null, "descrip_restos": null, "ubi_mat_dep_perm": null, "ubi_mat_falta_depos": null, "ubi_mat_dep_tempo": null, "bibliografia": null, "colaboradores": null }, "geometry": { "type": "Point", "coordinates": [ -1.603890361191221, 42.061679064817469 ] } },
{ "type": "Feature", "properties": { "fid": 15, "numero_int": 14, "denominacion": "Solar Carrera y Claras", "n_sigla": "_1_1_7_1_4", "direccion": null, "fecha": null, "z_pepri": null, "director": null, "promotor": null, "descrip_restos": null, "ubi_mat_dep_perm": null, "ubi_mat_falta_depos": null, "ubi_mat_dep_tempo": null, "bibliografia": null, "colaboradores": null }, "geometry": { "type": "Point", "coordinates": [ -1.603933526204732, 42.061848501661395 ] } },
{ "type": "Feature", "properties": { "fid": 16, "numero_int": 16, "denominacion": "Plaza Yehuda ha Leví", "n_sigla": "_1_1_7_1_5", "direccion": null, "fecha": null, "z_pepri": null, "director": null, "promotor": null, "descrip_restos": null, "ubi_mat_dep_perm": null, "ubi_mat_falta_depos": null, "ubi_mat_dep_tempo": null, "bibliografia": null, "colaboradores": null }, "geometry": { "type": "Point", "coordinates": [ -1.606147679344835, 42.064292241934069 ] } },
{ "type": "Feature", "properties": { "fid": 17, "numero_int": 17, "denominacion": "Juderia II", "n_sigla": "_1_1_7_1_6", "direccion": null, "fecha": null, "z_pepri": null, "director": null, "promotor": null, "descrip_restos": null, "ubi_mat_dep_perm": null, "ubi_mat_falta_depos": null, "ubi_mat_dep_tempo": null, "bibliografia": null, "colaboradores": null }, "geometry": { "type": "Point", "coordinates": [ -1.603306360348404, 42.062744033205206 ] } },
{ "type": "Feature", "properties": { "fid": 18, "numero_int": 18, "denominacion": "Carnicerias 15", "n_sigla": "_1_1_7_1_6_1", "direccion": null, "fecha": null, "z_pepri": null, "director": null, "promotor": null, "descrip_restos": null, "ubi_mat_dep_perm": null, "ubi_mat_falta_depos": null, "ubi_mat_dep_tempo": null, "bibliografia": null, "colaboradores": null }, "geometry": { "type": "Point", "coordinates": [ -1.606541768990493, 42.062314356553848 ] } },
{ "type": "Feature", "properties": { "fid": 19, "numero_int": 19, "denominacion": "Solares El Liceo", "n_sigla": "_1_1_7_2", "direccion": null, "fecha": null, "z_pepri": null, "director": null, "promotor": null, "descrip_restos": null, "ubi_mat_dep_perm": null, "ubi_mat_falta_depos": null, "ubi_mat_dep_tempo": null, "bibliografia": null, "colaboradores": null }, "geometry": { "type": "Point", "coordinates": [ -1.607558841202129, 42.064935633768805 ] } },
{ "type": "Feature", "properties": { "fid": 20, "numero_int": 19, "denominacion": "Solares El Liceo", "n_sigla": "_1_1_7_3", "direccion": null, "fecha": null, "z_pepri": null, "director": null, "promotor": null, "descrip_restos": null, "ubi_mat_dep_perm": null, "ubi_mat_falta_depos": null, "ubi_mat_dep_tempo": null, "bibliografia": null, "colaboradores": null }, "geometry": { "type": "Point", "coordinates": [ -1.607335385031943, 42.064894059562207 ] } },
{ "type": "Feature", "properties": { "fid": 21, "numero_int": 20, "denominacion": "Muralla", "n_sigla": "_1_1_7_4", "direccion": null, "fecha": null, "z_pepri": null, "director": null, "promotor": null, "descrip_restos": null, "ubi_mat_dep_perm": null, "ubi_mat_falta_depos": null, "ubi_mat_dep_tempo": null, "bibliografia": null, "colaboradores": null }, "geometry": { "type": "Point", "coordinates": [ -1.605299003783192, 42.066411187995811 ] } },
{ "type": "Feature", "properties": { "fid": 22, "numero_int": 21, "denominacion": "SubidaMonumento 1 1997", "n_sigla": "_1_1_7_5", "direccion": null, "fecha": null, "z_pepri": null, "director": null, "promotor": null, "descrip_restos": null, "ubi_mat_dep_perm": null, "ubi_mat_falta_depos": null, "ubi_mat_dep_tempo": null, "bibliografia": null, "colaboradores": null }, "geometry": { "type": "Point", "coordinates": [ -1.608936459490615, 42.066435545953759 ] } },
{ "type": "Feature", "properties": { "fid": 23, "numero_int": 22, "denominacion": "Necropolis Palenque", "n_sigla": "_1_1_7_6", "direccion": null, "fecha": null, "z_pepri": null, "director": null, "promotor": null, "descrip_restos": null, "ubi_mat_dep_perm": null, "ubi_mat_falta_depos": null, "ubi_mat_dep_tempo": null, "bibliografia": null, "colaboradores": null }, "geometry": { "type": "Point", "coordinates": [ -1.609235228022577, 42.070371418367692 ] } },
{ "type": "Feature", "properties": { "fid": 24, "numero_int": 23, "denominacion": "Muro 5-7", "n_sigla": "_1_1_7_7", "direccion": null, "fecha": null, "z_pepri": null, "director": null, "promotor": null, "descrip_restos": null, "ubi_mat_dep_perm": null, "ubi_mat_falta_depos": null, "ubi_mat_dep_tempo": null, "bibliografia": null, "colaboradores": null }, "geometry": { "type": "Point", "coordinates": [ -1.605178373711286, 42.062219469561256 ] } },
{ "type": "Feature", "properties": { "fid": 25, "numero_int": 24, "denominacion": "SanMiguel 14", "n_sigla": "_1_1_7_8", "direccion": null, "fecha": null, "z_pepri": null, "director": null, "promotor": null, "descrip_restos": null, "ubi_mat_dep_perm": null, "ubi_mat_falta_depos": null, "ubi_mat_dep_tempo": null, "bibliografia": null, "colaboradores": null }, "geometry": { "type": "Point", "coordinates": [ -1.605967718822994, 42.065475214839147 ] } },
{ "type": "Feature", "properties": { "fid": 26, "numero_int": 25, "denominacion": "Solar Herrerías 26 y 28", "n_sigla": "_1_1_7_9", "direccion": null, "fecha": null, "z_pepri": null, "director": null, "promotor": null, "descrip_restos": null, "ubi_mat_dep_perm": null, "ubi_mat_falta_depos": null, "ubi_mat_dep_tempo": null, "bibliografia": null, "colaboradores": null }, "geometry": { "type": "Point", "coordinates": [ -1.60771173029562, 42.063388745323707 ] } },
{ "type": "Feature", "properties": { "fid": 27, "numero_int": 25, "denominacion": "Solar Herrerías 26 y 28", "n_sigla": "_1_1_7_10", "direccion": null, "fecha": null, "z_pepri": null, "director": null, "promotor": null, "descrip_restos": null, "ubi_mat_dep_perm": null, "ubi_mat_falta_depos": null, "ubi_mat_dep_tempo": null, "bibliografia": null, "colaboradores": null }, "geometry": { "type": "Point", "coordinates": [ -1.607715435390238, 42.063492085594156 ] } },
{ "type": "Feature", "properties": { "fid": 28, "numero_int": 26, "denominacion": "PaseoCastillo 14", "n_sigla": "_1_1_7_11", "direccion": null, "fecha": null, "z_pepri": null, "director": null, "promotor": null, "descrip_restos": null, "ubi_mat_dep_perm": null, "ubi_mat_falta_depos": null, "ubi_mat_dep_tempo": null, "bibliografia": null, "colaboradores": null }, "geometry": { "type": "Point", "coordinates": [ -1.606656712177703, 42.065932954728723 ] } },
{ "type": "Feature", "properties": { "fid": 29, "numero_int": 27, "denominacion": "PlazaMercadal", "n_sigla": "_1_1_7_12", "direccion": "Plaza Mercadal", "fecha": "4 de abril de 2025", "z_pepri": null, "director": "Miguel Pérez Gil", "promotor": "Ayuntamiento de Tudela", "descrip_restos": "There are many variations of passages of Lorem Ipsum available, but the majority have suffered alteration in some form, by injected humour, or randomised words which don't look even slightly believable. If you are going to use a passage of Lorem Ipsum, you need to be sure there isn't anything embarrassing hidden in the middle of text. All the Lorem Ipsum generators on the Internet tend to repeat predefined chunks as necessary, making this the first true generator on the Internet. It uses a dictionary of over 200 Latin words, combined with a handful of model sentence structures, to generate Lorem Ipsum which looks reasonable. The generated Lorem Ipsum is therefore always free from repetition, injected humour, or non-characteristic words etc.", "ubi_mat_dep_perm": null, "ubi_mat_falta_depos": null, "ubi_mat_dep_tempo": null, "bibliografia": null, "colaboradores": null }, "geometry": { "type": "Point", "coordinates": [ -1.607367256347401, 42.063394936229017 ] } },
{ "type": "Feature", "properties": { "fid": 30, "numero_int": 28, "denominacion": "SanFrancisco 2", "n_sigla": "_1_1_7_13", "direccion": null, "fecha": null, "z_pepri": null, "director": null, "promotor": null, "descrip_restos": null, "ubi_mat_dep_perm": null, "ubi_mat_falta_depos": null, "ubi_mat_dep_tempo": null, "bibliografia": null, "colaboradores": null }, "geometry": { "type": "Point", "coordinates": [ -1.603223553306516, 42.063171666593639 ] } },
{ "type": "Feature", "properties": { "fid": 31, "numero_int": 29, "denominacion": "Caldereros 19", "n_sigla": "_1_1_7_14", "direccion": null, "fecha": null, "z_pepri": null, "director": null, "promotor": null, "descrip_restos": null, "ubi_mat_dep_perm": null, "ubi_mat_falta_depos": null, "ubi_mat_dep_tempo": null, "bibliografia": null, "colaboradores": null }, "geometry": { "type": "Point", "coordinates": [ -1.605425563489031, 42.064950937890494 ] } },
{ "type": "Feature", "properties": { "fid": 32, "numero_int": 30, "denominacion": "SainzAlcaine 7", "n_sigla": "_1_1_7_15", "direccion": null, "fecha": null, "z_pepri": null, "director": null, "promotor": null, "descrip_restos": null, "ubi_mat_dep_perm": null, "ubi_mat_falta_depos": null, "ubi_mat_dep_tempo": null, "bibliografia": null, "colaboradores": null }, "geometry": { "type": "Point", "coordinates": [ -1.607372158124509, 42.065429535667128 ] } },
{ "type": "Feature", "properties": { "fid": 33, "numero_int": 31, "denominacion": "Zurradores 12", "n_sigla": "_1_1_7_16", "direccion": null, "fecha": null, "z_pepri": null, "director": null, "promotor": null, "descrip_restos": null, "ubi_mat_dep_perm": null, "ubi_mat_falta_depos": null, "ubi_mat_dep_tempo": null, "bibliografia": null, "colaboradores": null }, "geometry": { "type": "Point", "coordinates": [ -1.608101872092765, 42.06158940600524 ] } },
{ "type": "Feature", "properties": { "fid": 34, "numero_int": 32, "denominacion": "Calahorra 13", "n_sigla": "_1_1_7_17", "direccion": null, "fecha": null, "z_pepri": null, "director": null, "promotor": null, "descrip_restos": null, "ubi_mat_dep_perm": null, "ubi_mat_falta_depos": null, "ubi_mat_dep_tempo": null, "bibliografia": null, "colaboradores": null }, "geometry": { "type": "Point", "coordinates": [ -1.608314362863523, 42.065322380611697 ] } },
{ "type": "Feature", "properties": { "fid": 35, "numero_int": 33, "denominacion": "SanMiguel 2000", "n_sigla": "_1_1_7_18", "direccion": null, "fecha": null, "z_pepri": null, "director": null, "promotor": null, "descrip_restos": null, "ubi_mat_dep_perm": null, "ubi_mat_falta_depos": null, "ubi_mat_dep_tempo": null, "bibliografia": null, "colaboradores": null }, "geometry": { "type": "Point", "coordinates": [ -1.607414015589361, 42.065549147388609 ] } },
{ "type": "Feature", "properties": { "fid": 36, "numero_int": 34, "denominacion": "Muralla RA21 Cerro", "n_sigla": "_1_1_7_19", "direccion": null, "fecha": null, "z_pepri": null, "director": null, "promotor": null, "descrip_restos": null, "ubi_mat_dep_perm": null, "ubi_mat_falta_depos": null, "ubi_mat_dep_tempo": null, "bibliografia": null, "colaboradores": null }, "geometry": { "type": "Point", "coordinates": [ -1.606903596866124, 42.067202421482698 ] } },
{ "type": "Feature", "properties": { "fid": 37, "numero_int": 35, "denominacion": "MuroBarbacana RA5 Cerro", "n_sigla": "_1_1_7_20", "direccion": null, "fecha": null, "z_pepri": null, "director": null, "promotor": null, "descrip_restos": null, "ubi_mat_dep_perm": null, "ubi_mat_falta_depos": null, "ubi_mat_dep_tempo": null, "bibliografia": null, "colaboradores": null }, "geometry": { "type": "Point", "coordinates": [ -1.606184316938738, 42.066172417295277 ] } },
{ "type": "Feature", "properties": { "fid": 38, "numero_int": 36, "denominacion": "MuroBarbacana RA9 Cerro", "n_sigla": "_1_1_7_21", "direccion": null, "fecha": null, "z_pepri": null, "director": null, "promotor": null, "descrip_restos": null, "ubi_mat_dep_perm": null, "ubi_mat_falta_depos": null, "ubi_mat_dep_tempo": null, "bibliografia": null, "colaboradores": null }, "geometry": { "type": "Point", "coordinates": [ -1.6081240397841, 42.067059799340655 ] } },
{ "type": "Feature", "properties": { "fid": 39, "numero_int": 37, "denominacion": "Herrerias 1", "n_sigla": "_2", "direccion": null, "fecha": null, "z_pepri": null, "director": null, "promotor": null, "descrip_restos": null, "ubi_mat_dep_perm": null, "ubi_mat_falta_depos": null, "ubi_mat_dep_tempo": null, "bibliografia": null, "colaboradores": null }, "geometry": { "type": "Point", "coordinates": [ -1.607160312995157, 42.061676474948783 ] } },
{ "type": "Feature", "properties": { "fid": 40, "numero_int": 38, "denominacion": "Herrerias 10", "n_sigla": "_3", "direccion": null, "fecha": null, "z_pepri": null, "director": null, "promotor": null, "descrip_restos": null, "ubi_mat_dep_perm": null, "ubi_mat_falta_depos": null, "ubi_mat_dep_tempo": null, "bibliografia": null, "colaboradores": null }, "geometry": { "type": "Point", "coordinates": [ -1.607131656758665, 42.062514053256074 ] } },
{ "type": "Feature", "properties": { "fid": 41, "numero_int": 39, "denominacion": "Humilladero", "n_sigla": "_4", "direccion": null, "fecha": null, "z_pepri": null, "director": null, "promotor": null, "descrip_restos": null, "ubi_mat_dep_perm": null, "ubi_mat_falta_depos": null, "ubi_mat_dep_tempo": null, "bibliografia": null, "colaboradores": null }, "geometry": { "type": "Point", "coordinates": [ -1.599972336485035, 42.067146429607682 ] } },
{ "type": "Feature", "properties": { "fid": 42, "numero_int": 40, "denominacion": "Dominicas 17", "n_sigla": "_5", "direccion": null, "fecha": null, "z_pepri": null, "director": null, "promotor": null, "descrip_restos": null, "ubi_mat_dep_perm": null, "ubi_mat_falta_depos": null, "ubi_mat_dep_tempo": null, "bibliografia": null, "colaboradores": null }, "geometry": { "type": "Point", "coordinates": [ -1.610150680746132, 42.062990320184163 ] } },
{ "type": "Feature", "properties": { "fid": 43, "numero_int": 41, "denominacion": "Zurradores 7-9", "n_sigla": "_6", "direccion": null, "fecha": null, "z_pepri": null, "director": null, "promotor": null, "descrip_restos": null, "ubi_mat_dep_perm": null, "ubi_mat_falta_depos": null, "ubi_mat_dep_tempo": null, "bibliografia": null, "colaboradores": null }, "geometry": { "type": "Point", "coordinates": [ -1.607570682027651, 42.06154521672125 ] } },
{ "type": "Feature", "properties": { "fid": 44, "numero_int": 42, "denominacion": "Gayarre 11", "n_sigla": "_7", "direccion": null, "fecha": null, "z_pepri": null, "director": null, "promotor": null, "descrip_restos": null, "ubi_mat_dep_perm": null, "ubi_mat_falta_depos": null, "ubi_mat_dep_tempo": null, "bibliografia": null, "colaboradores": null }, "geometry": { "type": "Point", "coordinates": [ -1.608811220393759, 42.062087083245629 ] } },
{ "type": "Feature", "properties": { "fid": 45, "numero_int": 43, "denominacion": "Calahorra 12", "n_sigla": "_8", "direccion": null, "fecha": null, "z_pepri": null, "director": null, "promotor": null, "descrip_restos": null, "ubi_mat_dep_perm": null, "ubi_mat_falta_depos": null, "ubi_mat_dep_tempo": null, "bibliografia": null, "colaboradores": null }, "geometry": { "type": "Point", "coordinates": [ -1.608447819506744, 42.065623544126872 ] } },
{ "type": "Feature", "properties": { "fid": 46, "numero_int": 44, "denominacion": "Catedral ", "n_sigla": "_9", "direccion": null, "fecha": null, "z_pepri": null, "director": null, "promotor": null, "descrip_restos": null, "ubi_mat_dep_perm": null, "ubi_mat_falta_depos": null, "ubi_mat_dep_tempo": null, "bibliografia": null, "colaboradores": null }, "geometry": { "type": "Point", "coordinates": [ -1.605239120148638, 42.063639763749784 ] } },
{ "type": "Feature", "properties": { "fid": 47, "numero_int": 44, "denominacion": "Catedral ", "n_sigla": "_10", "direccion": null, "fecha": null, "z_pepri": null, "director": null, "promotor": null, "descrip_restos": null, "ubi_mat_dep_perm": null, "ubi_mat_falta_depos": null, "ubi_mat_dep_tempo": null, "bibliografia": null, "colaboradores": null }, "geometry": { "type": "Point", "coordinates": [ -1.605340215859999, 42.063243857675893 ] } },
{ "type": "Feature", "properties": { "fid": 48, "numero_int": 45, "denominacion": "Sondeo RA12 Cerro", "n_sigla": "_11", "direccion": null, "fecha": null, "z_pepri": null, "director": null, "promotor": null, "descrip_restos": null, "ubi_mat_dep_perm": null, "ubi_mat_falta_depos": null, "ubi_mat_dep_tempo": null, "bibliografia": null, "colaboradores": null }, "geometry": { "type": "Point", "coordinates": [ -1.607254569817248, 42.06676236989135 ] } },
{ "type": "Feature", "properties": { "fid": 49, "numero_int": 46, "denominacion": "MurallaAndalusi RA7 Cerro", "n_sigla": "_12", "direccion": null, "fecha": null, "z_pepri": null, "director": null, "promotor": null, "descrip_restos": null, "ubi_mat_dep_perm": null, "ubi_mat_falta_depos": null, "ubi_mat_dep_tempo": null, "bibliografia": null, "colaboradores": null }, "geometry": { "type": "Point", "coordinates": [ -1.608314456272042, 42.067723434506625 ] } },
{ "type": "Feature", "properties": { "fid": 50, "numero_int": 47, "denominacion": "SanSalvador 21", "n_sigla": "_13", "direccion": null, "fecha": null, "z_pepri": null, "director": null, "promotor": null, "descrip_restos": null, "ubi_mat_dep_perm": null, "ubi_mat_falta_depos": null, "ubi_mat_dep_tempo": null, "bibliografia": null, "colaboradores": null }, "geometry": { "type": "Point", "coordinates": [ -1.607515170784374, 42.065221945469894 ] } },
{ "type": "Feature", "properties": { "fid": 51, "numero_int": 48, "denominacion": "Solar Adarbe Magallon", "n_sigla": "_14", "direccion": null, "fecha": null, "z_pepri": null, "director": null, "promotor": null, "descrip_restos": null, "ubi_mat_dep_perm": null, "ubi_mat_falta_depos": null, "ubi_mat_dep_tempo": null, "bibliografia": null, "colaboradores": null }, "geometry": { "type": "Point", "coordinates": [ -1.603842305907273, 42.063611966284164 ] } },
{ "type": "Feature", "properties": { "fid": 52, "numero_int": 49, "denominacion": "Ugarte 17", "n_sigla": "_15", "direccion": null, "fecha": null, "z_pepri": null, "director": null, "promotor": null, "descrip_restos": null, "ubi_mat_dep_perm": null, "ubi_mat_falta_depos": null, "ubi_mat_dep_tempo": null, "bibliografia": null, "colaboradores": null }, "geometry": { "type": "Point", "coordinates": [ -1.606792617608365, 42.060498391245744 ] } },
{ "type": "Feature", "properties": { "fid": 53, "numero_int": 50, "denominacion": "BodegaJudia", "n_sigla": "_16", "direccion": null, "fecha": null, "z_pepri": null, "director": null, "promotor": null, "descrip_restos": null, "ubi_mat_dep_perm": null, "ubi_mat_falta_depos": null, "ubi_mat_dep_tempo": null, "bibliografia": null, "colaboradores": null }, "geometry": { "type": "Point", "coordinates": [ -1.605960596239826, 42.066882721258615 ] } },
{ "type": "Feature", "properties": { "fid": 54, "numero_int": 51, "denominacion": "Dominicas 1", "n_sigla": "_17", "direccion": null, "fecha": null, "z_pepri": null, "director": null, "promotor": null, "descrip_restos": null, "ubi_mat_dep_perm": null, "ubi_mat_falta_depos": null, "ubi_mat_dep_tempo": null, "bibliografia": null, "colaboradores": null }, "geometry": { "type": "Point", "coordinates": [ -1.609535308196582, 42.063366791041616 ] } },
{ "type": "Feature", "properties": { "fid": 55, "numero_int": 52, "denominacion": "Muro 17bis", "n_sigla": "_18", "direccion": null, "fecha": null, "z_pepri": null, "director": null, "promotor": null, "descrip_restos": null, "ubi_mat_dep_perm": null, "ubi_mat_falta_depos": null, "ubi_mat_dep_tempo": null, "bibliografia": null, "colaboradores": null }, "geometry": { "type": "Point", "coordinates": [ -1.604827311354402, 42.06233136492682 ] } },
{ "type": "Feature", "properties": { "fid": 56, "numero_int": 53, "denominacion": "Gayarre 8", "n_sigla": "_19", "direccion": null, "fecha": null, "z_pepri": null, "director": null, "promotor": null, "descrip_restos": null, "ubi_mat_dep_perm": null, "ubi_mat_falta_depos": null, "ubi_mat_dep_tempo": null, "bibliografia": null, "colaboradores": null }, "geometry": { "type": "Point", "coordinates": [ -1.60880079199905, 42.062414104534938 ] } },
{ "type": "Feature", "properties": { "fid": 57, "numero_int": 54, "denominacion": "SanMiguel 50", "n_sigla": "_20", "direccion": null, "fecha": null, "z_pepri": null, "director": null, "promotor": null, "descrip_restos": null, "ubi_mat_dep_perm": null, "ubi_mat_falta_depos": null, "ubi_mat_dep_tempo": null, "bibliografia": null, "colaboradores": null }, "geometry": { "type": "Point", "coordinates": [ -1.608076482632411, 42.065783882444684 ] } },
{ "type": "Feature", "properties": { "fid": 58, "numero_int": 55, "denominacion": "Calahorra 11", "n_sigla": "_20_1", "direccion": null, "fecha": null, "z_pepri": null, "director": null, "promotor": null, "descrip_restos": null, "ubi_mat_dep_perm": null, "ubi_mat_falta_depos": null, "ubi_mat_dep_tempo": null, "bibliografia": null, "colaboradores": null }, "geometry": { "type": "Point", "coordinates": [ -1.608226640959859, 42.065307069760408 ] } },
{ "type": "Feature", "properties": { "fid": 59, "numero_int": 56, "denominacion": "Carrera 15-13", "n_sigla": "_20_2", "direccion": null, "fecha": null, "z_pepri": null, "director": null, "promotor": null, "descrip_restos": null, "ubi_mat_dep_perm": null, "ubi_mat_falta_depos": null, "ubi_mat_dep_tempo": null, "bibliografia": null, "colaboradores": null }, "geometry": { "type": "Point", "coordinates": [ -1.604193898121964, 42.062092345454175 ] } },
{ "type": "Feature", "properties": { "fid": 60, "numero_int": 56, "denominacion": "Carrera 15-13", "n_sigla": "_20_3", "direccion": null, "fecha": null, "z_pepri": null, "director": null, "promotor": null, "descrip_restos": null, "ubi_mat_dep_perm": null, "ubi_mat_falta_depos": null, "ubi_mat_dep_tempo": null, "bibliografia": null, "colaboradores": null }, "geometry": { "type": "Point", "coordinates": [ -1.604026039697919, 42.062139400181692 ] } },
{ "type": "Feature", "properties": { "fid": 61, "numero_int": 57, "denominacion": "Arguedicas Portal 30", "n_sigla": "_20_4", "direccion": null, "fecha": null, "z_pepri": null, "director": null, "promotor": null, "descrip_restos": null, "ubi_mat_dep_perm": null, "ubi_mat_falta_depos": null, "ubi_mat_dep_tempo": null, "bibliografia": null, "colaboradores": null }, "geometry": { "type": "Point", "coordinates": [ -1.603542878261353, 42.064196374995433 ] } },
{ "type": "Feature", "properties": { "fid": 62, "numero_int": 58, "denominacion": "Herrerias 1", "n_sigla": "_20_5", "direccion": null, "fecha": null, "z_pepri": null, "director": null, "promotor": null, "descrip_restos": null, "ubi_mat_dep_perm": null, "ubi_mat_falta_depos": null, "ubi_mat_dep_tempo": null, "bibliografia": null, "colaboradores": null }, "geometry": { "type": "Point", "coordinates": [ -1.607766544199988, 42.062561766435564 ] } },
{ "type": "Feature", "properties": { "fid": 63, "numero_int": 59, "denominacion": "CALLE HERRERIAS ", "n_sigla": "_20_6", "direccion": null, "fecha": null, "z_pepri": null, "director": null, "promotor": null, "descrip_restos": null, "ubi_mat_dep_perm": null, "ubi_mat_falta_depos": null, "ubi_mat_dep_tempo": null, "bibliografia": null, "colaboradores": null }, "geometry": { "type": "Point", "coordinates": [ -1.607690231284014, 42.062808143520421 ] } },
{ "type": "Feature", "properties": { "fid": 64, "numero_int": 60, "denominacion": "Descalzos 4", "n_sigla": "_20_7", "direccion": null, "fecha": null, "z_pepri": null, "director": null, "promotor": null, "descrip_restos": null, "ubi_mat_dep_perm": null, "ubi_mat_falta_depos": null, "ubi_mat_dep_tempo": null, "bibliografia": null, "colaboradores": null }, "geometry": { "type": "Point", "coordinates": [ -1.608607355471026, 42.063472922391931 ] } },
{ "type": "Feature", "properties": { "fid": 65, "numero_int": 61, "denominacion": "Parra 8", "n_sigla": "_20_8", "direccion": null, "fecha": null, "z_pepri": null, "director": null, "promotor": null, "descrip_restos": null, "ubi_mat_dep_perm": null, "ubi_mat_falta_depos": null, "ubi_mat_dep_tempo": null, "bibliografia": null, "colaboradores": null }, "geometry": { "type": "Point", "coordinates": [ -1.603370697819395, 42.063049947052392 ] } },
{ "type": "Feature", "properties": { "fid": 66, "numero_int": 62, "denominacion": "PaseoCastillo 7", "n_sigla": "_20_9", "direccion": null, "fecha": null, "z_pepri": null, "director": null, "promotor": null, "descrip_restos": null, "ubi_mat_dep_perm": null, "ubi_mat_falta_depos": null, "ubi_mat_dep_tempo": null, "bibliografia": null, "colaboradores": null }, "geometry": { "type": "Point", "coordinates": [ -1.604987454398176, 42.065545240743809 ] } },
{ "type": "Feature", "properties": { "fid": 67, "numero_int": 63, "denominacion": "Muro 25", "n_sigla": "_20_10", "direccion": null, "fecha": null, "z_pepri": null, "director": null, "promotor": null, "descrip_restos": null, "ubi_mat_dep_perm": null, "ubi_mat_falta_depos": null, "ubi_mat_dep_tempo": null, "bibliografia": null, "colaboradores": null }, "geometry": { "type": "Point", "coordinates": [ -1.604479441468661, 42.062446834692203 ] } },
{ "type": "Feature", "properties": { "fid": 68, "numero_int": 64, "denominacion": "Aldehuela 6", "n_sigla": "_20_11", "direccion": null, "fecha": null, "z_pepri": null, "director": null, "promotor": null, "descrip_restos": null, "ubi_mat_dep_perm": null, "ubi_mat_falta_depos": null, "ubi_mat_dep_tempo": null, "bibliografia": null, "colaboradores": null }, "geometry": { "type": "Point", "coordinates": [ -1.606089095269289, 42.065096903755624 ] } },
{ "type": "Feature", "properties": { "fid": 69, "numero_int": 65, "denominacion": "LaParra 9", "n_sigla": "_20_9_1", "direccion": null, "fecha": null, "z_pepri": null, "director": null, "promotor": null, "descrip_restos": null, "ubi_mat_dep_perm": null, "ubi_mat_falta_depos": null, "ubi_mat_dep_tempo": null, "bibliografia": null, "colaboradores": null }, "geometry": { "type": "Point", "coordinates": [ -1.603487170785154, 42.063324336823122 ] } },
{ "type": "Feature", "properties": { "fid": 70, "numero_int": 66, "denominacion": "Ugarte 4", "n_sigla": "_20_9_2", "direccion": "Paseo el Queiles", "fecha": "Del 25 de septiembre de 2024 al 30 de septiembre de 2024", "z_pepri": null, "director": "Miguel Pérez Lahoz", "promotor": "Ayuntamiento de Zaragoza", "descrip_restos": null, "ubi_mat_dep_perm": null, "ubi_mat_falta_depos": null, "ubi_mat_dep_tempo": null, "bibliografia": null, "colaboradores": null }, "geometry": { "type": "Point", "coordinates": [ -1.60644681539947, 42.061281779278907 ] } },
{ "type": "Feature", "properties": { "fid": 71, "numero_int": 67, "denominacion": "Herrerias 12", "n_sigla": "_20_9_3", "direccion": null, "fecha": null, "z_pepri": null, "director": null, "promotor": null, "descrip_restos": null, "ubi_mat_dep_perm": null, "ubi_mat_falta_depos": null, "ubi_mat_dep_tempo": null, "bibliografia": null, "colaboradores": null }, "geometry": { "type": "Point", "coordinates": [ -1.607195293237818, 42.062628492701855 ] } },
{ "type": "Feature", "properties": { "fid": 72, "numero_int": 68, "denominacion": "YanguasMiranda 2", "n_sigla": "_20_9_4", "direccion": null, "fecha": null, "z_pepri": null, "director": null, "promotor": null, "descrip_restos": null, "ubi_mat_dep_perm": null, "ubi_mat_falta_depos": null, "ubi_mat_dep_tempo": null, "bibliografia": null, "colaboradores": null }, "geometry": { "type": "Point", "coordinates": [ -1.60650057339078, 42.061798882539925 ] } },
{ "type": "Feature", "properties": { "fid": 73, "numero_int": 69, "denominacion": "LaParra 18", "n_sigla": "_20_9_5", "direccion": null, "fecha": null, "z_pepri": null, "director": null, "promotor": null, "descrip_restos": null, "ubi_mat_dep_perm": null, "ubi_mat_falta_depos": null, "ubi_mat_dep_tempo": null, "bibliografia": null, "colaboradores": null }, "geometry": { "type": "Point", "coordinates": [ -1.604403765674154, 42.063764185249958 ] } },
{ "type": "Feature", "properties": { "fid": 74, "numero_int": 70, "denominacion": "Magallon 5", "n_sigla": "_20_9_6", "direccion": null, "fecha": null, "z_pepri": null, "director": null, "promotor": null, "descrip_restos": null, "ubi_mat_dep_perm": null, "ubi_mat_falta_depos": null, "ubi_mat_dep_tempo": null, "bibliografia": null, "colaboradores": null }, "geometry": { "type": "Point", "coordinates": [ -1.60427136849538, 42.063645371897572 ] } },
{ "type": "Feature", "properties": { "fid": 75, "numero_int": 71, "denominacion": "DiazBRavo 30", "n_sigla": "_20_9_7", "direccion": null, "fecha": null, "z_pepri": null, "director": null, "promotor": null, "descrip_restos": null, "ubi_mat_dep_perm": null, "ubi_mat_falta_depos": null, "ubi_mat_dep_tempo": null, "bibliografia": null, "colaboradores": null }, "geometry": { "type": "Point", "coordinates": [ -1.610614730203194, 42.062650516420149 ] } },
{ "type": "Feature", "properties": { "fid": 76, "numero_int": 72, "denominacion": "Corte", "n_sigla": "_20_9_8", "direccion": null, "fecha": null, "z_pepri": null, "director": null, "promotor": null, "descrip_restos": null, "ubi_mat_dep_perm": null, "ubi_mat_falta_depos": null, "ubi_mat_dep_tempo": null, "bibliografia": null, "colaboradores": null }, "geometry": { "type": "Point", "coordinates": [ -1.60326212285428, 42.06332375959694 ] } },
{ "type": "Feature", "properties": { "fid": 77, "numero_int": 73, "denominacion": "ConventoSanFrancisco-Sementales", "n_sigla": "_20_9_9", "direccion": null, "fecha": null, "z_pepri": null, "director": null, "promotor": null, "descrip_restos": null, "ubi_mat_dep_perm": null, "ubi_mat_falta_depos": null, "ubi_mat_dep_tempo": null, "bibliografia": null, "colaboradores": null }, "geometry": { "type": "Point", "coordinates": [ -1.602731800296533, 42.063049673137435 ] } },
{ "type": "Feature", "properties": { "fid": 78, "numero_int": 74, "denominacion": "Granados", "n_sigla": "_20_9_10", "direccion": null, "fecha": null, "z_pepri": null, "director": null, "promotor": null, "descrip_restos": null, "ubi_mat_dep_perm": null, "ubi_mat_falta_depos": null, "ubi_mat_dep_tempo": null, "bibliografia": null, "colaboradores": null }, "geometry": { "type": "Point", "coordinates": [ -1.608005067051687, 42.064323132091204 ] } },
{ "type": "Feature", "properties": { "fid": 79, "numero_int": 75, "denominacion": "SanJuan y Salvador", "n_sigla": "_20_9_11", "direccion": null, "fecha": null, "z_pepri": null, "director": null, "promotor": null, "descrip_restos": null, "ubi_mat_dep_perm": null, "ubi_mat_falta_depos": null, "ubi_mat_dep_tempo": null, "bibliografia": null, "colaboradores": null }, "geometry": { "type": "Point", "coordinates": [ -1.607786988396835, 42.064997519434058 ] } },
{ "type": "Feature", "properties": { "fid": 80, "numero_int": 75, "denominacion": "SanJuan y Salvador", "n_sigla": "_20_9_12", "direccion": null, "fecha": null, "z_pepri": null, "director": null, "promotor": null, "descrip_restos": null, "ubi_mat_dep_perm": null, "ubi_mat_falta_depos": null, "ubi_mat_dep_tempo": null, "bibliografia": null, "colaboradores": null }, "geometry": { "type": "Point", "coordinates": [ -1.608971601425044, 42.063771527039215 ] } },
{ "type": "Feature", "properties": { "fid": 81, "numero_int": 75, "denominacion": "SanJuan y Salvador", "n_sigla": "_20_9_13", "direccion": null, "fecha": null, "z_pepri": null, "director": null, "promotor": null, "descrip_restos": null, "ubi_mat_dep_perm": null, "ubi_mat_falta_depos": null, "ubi_mat_dep_tempo": null, "bibliografia": null, "colaboradores": null }, "geometry": { "type": "Point", "coordinates": [ -1.609021152229545, 42.064478686142273 ] } },
{ "type": "Feature", "properties": { "fid": 82, "numero_int": 76, "denominacion": "Matadero", "n_sigla": "_20_9_14", "direccion": null, "fecha": null, "z_pepri": null, "director": null, "promotor": null, "descrip_restos": null, "ubi_mat_dep_perm": null, "ubi_mat_falta_depos": null, "ubi_mat_dep_tempo": null, "bibliografia": null, "colaboradores": null }, "geometry": { "type": "Point", "coordinates": [ -1.606572046185671, 42.062001968666962 ] } },
{ "type": "Feature", "properties": { "fid": 83, "numero_int": 77, "denominacion": "Figueruelas", "n_sigla": "_20_9_15", "direccion": null, "fecha": null, "z_pepri": null, "director": null, "promotor": null, "descrip_restos": null, "ubi_mat_dep_perm": null, "ubi_mat_falta_depos": null, "ubi_mat_dep_tempo": null, "bibliografia": null, "colaboradores": null }, "geometry": { "type": "Point", "coordinates": [ -1.609280511802224, 42.062747461683585 ] } },
{ "type": "Feature", "properties": { "fid": 84, "numero_int": 78, "denominacion": "SanNicolas", "n_sigla": "_20_9_16", "direccion": null, "fecha": null, "z_pepri": null, "director": null, "promotor": null, "descrip_restos": null, "ubi_mat_dep_perm": null, "ubi_mat_falta_depos": null, "ubi_mat_dep_tempo": null, "bibliografia": null, "colaboradores": null }, "geometry": { "type": "Point", "coordinates": [ -1.606631170823804, 42.064577750520613 ] } },
{ "type": "Feature", "properties": { "fid": 85, "numero_int": 79, "denominacion": "Pasaje", "n_sigla": "_20_9_17", "direccion": null, "fecha": null, "z_pepri": null, "director": null, "promotor": null, "descrip_restos": null, "ubi_mat_dep_perm": null, "ubi_mat_falta_depos": null, "ubi_mat_dep_tempo": null, "bibliografia": null, "colaboradores": null }, "geometry": { "type": "Point", "coordinates": [ -1.606485022652915, 42.063407619215972 ] } },
{ "type": "Feature", "properties": { "fid": 86, "numero_int": 80, "denominacion": "AbsideSanJorge Pasaje", "n_sigla": "_20_9_18", "direccion": null, "fecha": null, "z_pepri": null, "director": null, "promotor": null, "descrip_restos": null, "ubi_mat_dep_perm": null, "ubi_mat_falta_depos": null, "ubi_mat_dep_tempo": null, "bibliografia": null, "colaboradores": null }, "geometry": { "type": "Point", "coordinates": [ -1.606707811831838, 42.063365105960195 ] } },
{ "type": "Feature", "properties": { "fid": 87, "numero_int": 81, "denominacion": "Coscolin", "n_sigla": "_20_9_19", "direccion": "Calle Mayor", "fecha": "6 de junio de 2024", "z_pepri": 3, "director": "Juan Roble Díaz", "promotor": "Ayuntamiento de Tudela", "descrip_restos": "En este espacio se encuentran almacenados restos de utensilios de elaboración casera con cerámica que servían para el uso doméstico. Además hay una zona amplia donde se podía almacenar los alimentos y las bebidas.", "ubi_mat_dep_perm": null, "ubi_mat_falta_depos": null, "ubi_mat_dep_tempo": null, "bibliografia": null, "colaboradores": null }, "geometry": { "type": "Point", "coordinates": [ -1.605422843852672, 42.06433243119897 ] } },
{ "type": "Feature", "properties": { "fid": 88, "numero_int": 82, "denominacion": "Batalla Tudela", "n_sigla": "_20_9_20", "direccion": null, "fecha": null, "z_pepri": null, "director": null, "promotor": null, "descrip_restos": null, "ubi_mat_dep_perm": null, "ubi_mat_falta_depos": null, "ubi_mat_dep_tempo": null, "bibliografia": null, "colaboradores": null }, "geometry": { "type": "Point", "coordinates": [ -1.61390144457857, 42.053829499958788 ] } },
{ "type": "Feature", "properties": { "fid": 89, "numero_int": 83, "denominacion": "Cementerio", "n_sigla": "_20_9_21", "direccion": null, "fecha": null, "z_pepri": null, "director": null, "promotor": null, "descrip_restos": null, "ubi_mat_dep_perm": null, "ubi_mat_falta_depos": null, "ubi_mat_dep_tempo": null, "bibliografia": null, "colaboradores": null }, "geometry": { "type": "Point", "coordinates": [ -1.610555837188214, 42.056124244326064 ] } },
{ "type": "Feature", "properties": { "fid": 90, "numero_int": 84, "denominacion": "SanNicolas", "n_sigla": "_20_9_22", "direccion": null, "fecha": null, "z_pepri": null, "director": null, "promotor": null, "descrip_restos": null, "ubi_mat_dep_perm": null, "ubi_mat_falta_depos": null, "ubi_mat_dep_tempo": null, "bibliografia": null, "colaboradores": null }, "geometry": { "type": "Point", "coordinates": [ -1.607056463599213, 42.064600140676738 ] } },
{ "type": "Feature", "properties": { "fid": 91, "numero_int": 85, "denominacion": "SanAnton", "n_sigla": "_20_9_23", "direccion": null, "fecha": null, "z_pepri": null, "director": null, "promotor": null, "descrip_restos": null, "ubi_mat_dep_perm": null, "ubi_mat_falta_depos": null, "ubi_mat_dep_tempo": null, "bibliografia": null, "colaboradores": null }, "geometry": { "type": "Point", "coordinates": [ -1.605593616783483, 42.064430718691952 ] } },
{ "type": "Feature", "properties": { "fid": 92, "numero_int": 86, "denominacion": "Mercadal", "n_sigla": "_20_9_24", "direccion": null, "fecha": null, "z_pepri": null, "director": null, "promotor": null, "descrip_restos": null, "ubi_mat_dep_perm": null, "ubi_mat_falta_depos": null, "ubi_mat_dep_tempo": null, "bibliografia": null, "colaboradores": null }, "geometry": { "type": "Point", "coordinates": [ -1.606908478010477, 42.062967290716699 ] } },
{ "type": "Feature", "properties": { "fid": 93, "numero_int": 87, "denominacion": "LaParra", "n_sigla": "_20_9_25", "direccion": null, "fecha": null, "z_pepri": null, "director": null, "promotor": null, "descrip_restos": null, "ubi_mat_dep_perm": null, "ubi_mat_falta_depos": null, "ubi_mat_dep_tempo": null, "bibliografia": null, "colaboradores": null }, "geometry": { "type": "Point", "coordinates": [ -1.603353911933033, 42.063219915406975 ] } },
{ "type": "Feature", "properties": { "fid": 94, "numero_int": 88, "denominacion": "Rua", "n_sigla": "_20_9_26", "direccion": null, "fecha": null, "z_pepri": null, "director": null, "promotor": null, "descrip_restos": null, "ubi_mat_dep_perm": null, "ubi_mat_falta_depos": null, "ubi_mat_dep_tempo": null, "bibliografia": null, "colaboradores": null }, "geometry": { "type": "Point", "coordinates": [ -1.606652767141117, 42.06413960090218 ] } },
{ "type": "Feature", "properties": { "fid": 95, "numero_int": 89, "denominacion": "Pasaje", "n_sigla": "_20_9_27", "direccion": null, "fecha": null, "z_pepri": null, "director": null, "promotor": null, "descrip_restos": null, "ubi_mat_dep_perm": null, "ubi_mat_falta_depos": null, "ubi_mat_dep_tempo": null, "bibliografia": null, "colaboradores": null }, "geometry": { "type": "Point", "coordinates": [ -1.606617607777696, 42.062847721259445 ] } },
{ "type": "Feature", "properties": { "fid": 96, "numero_int": 90, "denominacion": "NecropolisTorreMonreal", "n_sigla": "_20_9_28", "direccion": null, "fecha": null, "z_pepri": null, "director": null, "promotor": null, "descrip_restos": null, "ubi_mat_dep_perm": null, "ubi_mat_falta_depos": null, "ubi_mat_dep_tempo": null, "bibliografia": null, "colaboradores": null }, "geometry": { "type": "Point", "coordinates": [ -1.60368182492837, 42.057727667538423 ] } },
{ "type": "Feature", "properties": { "fid": 97, "numero_int": 91, "denominacion": "TrujalPasaje", "n_sigla": "_20_9_29", "direccion": null, "fecha": null, "z_pepri": null, "director": null, "promotor": null, "descrip_restos": null, "ubi_mat_dep_perm": null, "ubi_mat_falta_depos": null, "ubi_mat_dep_tempo": null, "bibliografia": null, "colaboradores": null }, "geometry": { "type": "Point", "coordinates": [ -1.606512893799938, 42.063257479379729 ] } },
{ "type": "Feature", "properties": { "fid": 98, "numero_int": 92, "denominacion": "Herrerias", "n_sigla": "_20_9_30", "direccion": null, "fecha": null, "z_pepri": null, "director": null, "promotor": null, "descrip_restos": null, "ubi_mat_dep_perm": null, "ubi_mat_falta_depos": null, "ubi_mat_dep_tempo": null, "bibliografia": null, "colaboradores": null }, "geometry": { "type": "Point", "coordinates": [ -1.607172908006803, 42.06240693377196 ] } },
{ "type": "Feature", "properties": { "fid": 99, "numero_int": 93, "denominacion": "AvBarrio46", "n_sigla": "_20_9_31", "direccion": null, "fecha": null, "z_pepri": null, "director": null, "promotor": null, "descrip_restos": null, "ubi_mat_dep_perm": null, "ubi_mat_falta_depos": null, "ubi_mat_dep_tempo": null, "bibliografia": null, "colaboradores": null }, "geometry": { "type": "Point", "coordinates": [ -1.60469909964227, 42.057323274422394 ] } },
{ "type": "Feature", "properties": { "fid": 100, "numero_int": 94, "denominacion": "SanNicolas", "n_sigla": "_20_9_32", "direccion": null, "fecha": null, "z_pepri": null, "director": null, "promotor": null, "descrip_restos": null, "ubi_mat_dep_perm": null, "ubi_mat_falta_depos": null, "ubi_mat_dep_tempo": null, "bibliografia": null, "colaboradores": null }, "geometry": { "type": "Point", "coordinates": [ -1.607055762770966, 42.064938982033475 ] } },
{ "type": "Feature", "properties": { "fid": 101, "numero_int": 95, "denominacion": "Chapinerias", "n_sigla": "_20_9_33", "direccion": null, "fecha": null, "z_pepri": null, "director": null, "promotor": null, "descrip_restos": null, "ubi_mat_dep_perm": null, "ubi_mat_falta_depos": null, "ubi_mat_dep_tempo": null, "bibliografia": null, "colaboradores": null }, "geometry": { "type": "Point", "coordinates": [ -1.607002031279499, 42.064049380614094 ] } }
]
}
