{
"type": "FeatureCollection",
"name": "Actuaciones en intervención",
"features": [
{ "type": "Feature", "properties": { "fid": 1, "numero_int": 10, "cod_act": "EXCA" }, "geometry": null },
{ "type": "Feature", "properties": { "fid": 2, "numero_int": 27, "cod_act": "SOND" }, "geometry": null },
{ "type": "Feature", "properties": { "fid": 3, "numero_int": 66, "cod_act": "EXCA" }, "geometry": null },
{ "type": "Feature", "properties": { "fid": 4, "numero_int": 81, "cod_act": "EXCA" }, "geometry": null },
{ "type": "Feature", "properties": { "fid": 5, "numero_int": 81, "cod_act": "SOND" }, "geometry": null }
]
}
