{
"type": "FeatureCollection",
"name": "Media piezas destacadas",
"features": [
{ "type": "Feature", "properties": { "fid": 3029, "num_pieza": 1, "tipo": "Foto", "ruta": "./media/10/piezas_destacadas/1/Foto/público/plato.jpg", "publico": 1, "url": null }, "geometry": null },
{ "type": "Feature", "properties": { "fid": 3030, "num_pieza": 1, "tipo": "Dibujo", "ruta": "./media/10/piezas_destacadas/1/Dibujo/público/plato.jpg", "publico": 1, "url": null }, "geometry": null },
{ "type": "Feature", "properties": { "fid": 3031, "num_pieza": 87, "tipo": "Foto", "ruta": "./media/10/piezas_destacadas/87/Foto/público/ataifor_manganeso_n.jpg", "publico": 1, "url": null }, "geometry": null },
{ "type": "Feature", "properties": { "fid": 3034, "num_pieza": 87, "tipo": "Dibujo", "ruta": "./media/10/piezas_destacadas/87/Dibujo/público/DIBUJO ATAIFOR027.jpg", "publico": 1, "url": null }, "geometry": null },
{ "type": "Feature", "properties": { "fid": 3036, "num_pieza": 88, "tipo": "Foto", "ruta": "./media/10/piezas_destacadas/88/Foto/público/ataifor_cortapelaires_ii_1.jpg", "publico": 1, "url": null }, "geometry": null },
{ "type": "Feature", "properties": { "fid": 3037, "num_pieza": 88, "tipo": "Foto", "ruta": "./media/10/piezas_destacadas/88/Foto/público/ataifor_cortapelaires_ii_n.jpg", "publico": 1, "url": null }, "geometry": null },
{ "type": "Feature", "properties": { "fid": 3040, "num_pieza": 88, "tipo": "Dibujo", "ruta": "./media/10/piezas_destacadas/88/Dibujo/público/DIBUJO ATAIFOR026.jpg", "publico": 1, "url": null }, "geometry": null },
{ "type": "Feature", "properties": { "fid": 3042, "num_pieza": 89, "tipo": "Dibujo", "ruta": "./media/10/piezas_destacadas/89/Dibujo/público/Jarrita_Cortapelaires_1.jpg", "publico": 1, "url": null }, "geometry": null },
{ "type": "Feature", "properties": { "fid": 3044, "num_pieza": 90, "tipo": "Foto", "ruta": "./media/10/piezas_destacadas/90/Foto/público/ESTAMPILLADA_GRIS_N.jpg", "publico": 1, "url": null }, "geometry": null },
{ "type": "Feature", "properties": { "fid": 3047, "num_pieza": 91, "tipo": "Foto", "ruta": "./media/10/piezas_destacadas/91/Foto/público/loza dorada III_n.jpg", "publico": 1, "url": null }, "geometry": null },
{ "type": "Feature", "properties": { "fid": 3050, "num_pieza": 92, "tipo": "Foto", "ruta": "./media/10/piezas_destacadas/92/Foto/público/loza_dorada_I_n.jpg", "publico": 1, "url": null }, "geometry": null },
{ "type": "Feature", "properties": { "fid": 3053, "num_pieza": 93, "tipo": "Foto", "ruta": "./media/11/piezas_destacadas/93/Foto/público/PLATO_N.jpg", "publico": 1, "url": null }, "geometry": null },
{ "type": "Feature", "properties": { "fid": 3056, "num_pieza": 93, "tipo": "Dibujo", "ruta": "./media/11/piezas_destacadas/93/Dibujo/público/INT_11_Plato_Cerro_87.jpg", "publico": 1, "url": null }, "geometry": null },
{ "type": "Feature", "properties": { "fid": 3058, "num_pieza": 94, "tipo": "Foto", "ruta": "./media/12/piezas_destacadas/94/Foto/público/plato_sal_INT_12_N.jpg", "publico": 1, "url": null }, "geometry": null },
{ "type": "Feature", "properties": { "fid": 3061, "num_pieza": 94, "tipo": "Dibujo", "ruta": "./media/12/piezas_destacadas/94/Dibujo/público/INT12_PlatodeSal_Cubeta6856.jpg", "publico": 1, "url": null }, "geometry": null },
{ "type": "Feature", "properties": { "fid": 3063, "num_pieza": 95, "tipo": "Foto", "ruta": "./media/12/piezas_destacadas/95/Foto/público/azulejo_mujer_INT_12_N.jpg", "publico": 1, "url": null }, "geometry": null },
{ "type": "Feature", "properties": { "fid": 3066, "num_pieza": 95, "tipo": "Dibujo", "ruta": "./media/12/piezas_destacadas/95/Dibujo/público/12_Azulejo_Juego_Cubeta6864_.jpg", "publico": 1, "url": null }, "geometry": null },
{ "type": "Feature", "properties": { "fid": 3072, "num_pieza": 96, "tipo": "Foto", "ruta": "./media/12/piezas_destacadas/96/Foto/público/azulejo_cadenas_INT_12_N.jpg", "publico": 1, "url": null }, "geometry": null },
{ "type": "Feature", "properties": { "fid": 3075, "num_pieza": 96, "tipo": "Dibujo", "ruta": "./media/12/piezas_destacadas/96/Dibujo/público/12_Azulejo_Juego_Cubeta6864_.jpg", "publico": 1, "url": null }, "geometry": null },
{ "type": "Feature", "properties": { "fid": 3077, "num_pieza": 97, "tipo": "Foto", "ruta": "./media/12/piezas_destacadas/97/Foto/público/tacita_INT_13_N.jpg", "publico": 1, "url": null }, "geometry": null },
{ "type": "Feature", "properties": { "fid": 3080, "num_pieza": 97, "tipo": "Dibujo", "ruta": "./media/12/piezas_destacadas/97/Dibujo/público/12_Azulejo_Juego_Cubeta6864_.jpg", "publico": 1, "url": null }, "geometry": null },
{ "type": "Feature", "properties": { "fid": 3082, "num_pieza": 100, "tipo": "Foto", "ruta": "./media/13/piezas_destacadas/100/Foto/público/ataifor sta barbara 88_n.jpg", "publico": 1, "url": null }, "geometry": null },
{ "type": "Feature", "properties": { "fid": 3085, "num_pieza": 101, "tipo": "Foto", "ruta": "./media/13/piezas_destacadas/101/Foto/público/TAPADERAS_N.jpg", "publico": 1, "url": null }, "geometry": null },
{ "type": "Feature", "properties": { "fid": 3088, "num_pieza": 102, "tipo": "Foto", "ruta": "./media/13/piezas_destacadas/102/Foto/público/PLATO DE SAL_N.jpg", "publico": 1, "url": null }, "geometry": null },
{ "type": "Feature", "properties": { "fid": 3091, "num_pieza": 103, "tipo": "Foto", "ruta": "./media/13/piezas_destacadas/103/Foto/público/COPA_N.jpg", "publico": 1, "url": null }, "geometry": null },
{ "type": "Feature", "properties": { "fid": 3094, "num_pieza": 98, "tipo": "Foto", "ruta": "./media/13/piezas_destacadas/98/Foto/público/VASO BITRONCOCONICO_N.jpg", "publico": 1, "url": null }, "geometry": null },
{ "type": "Feature", "properties": { "fid": 3097, "num_pieza": 99, "tipo": "Foto", "ruta": "./media/13/piezas_destacadas/99/Foto/público/INCISA_II_N.jpg", "publico": 1, "url": null }, "geometry": null },
{ "type": "Feature", "properties": { "fid": 3098, "num_pieza": 99, "tipo": "Foto", "ruta": "./media/13/piezas_destacadas/99/Foto/público/INCISA_I_N.jpg", "publico": 1, "url": null }, "geometry": null },
{ "type": "Feature", "properties": { "fid": 3103, "num_pieza": 104, "tipo": "Foto", "ruta": "./media/14/piezas_destacadas/104/Foto/público/barras_alfarero_INT_14_N.jpg", "publico": 1, "url": null }, "geometry": null },
{ "type": "Feature", "properties": { "fid": 3106, "num_pieza": 105, "tipo": "Foto", "ruta": "./media/14/piezas_destacadas/105/Foto/público/cuerda_seca_carrea_claras_n_INT_14.jpg", "publico": 1, "url": null }, "geometry": null },
{ "type": "Feature", "properties": { "fid": 3109, "num_pieza": 105, "tipo": "Dibujo", "ruta": "./media/14/piezas_destacadas/105/Dibujo/público/INT14_CuerdaSeca_1_.jpg", "publico": 1, "url": null }, "geometry": null },
{ "type": "Feature", "properties": { "fid": 3111, "num_pieza": 106, "tipo": "Foto", "ruta": "./media/14/piezas_destacadas/106/Foto/público/cuerda_seca_melada_n_INT_14.jpg", "publico": 1, "url": null }, "geometry": null },
{ "type": "Feature", "properties": { "fid": 3114, "num_pieza": 106, "tipo": "Dibujo", "ruta": "./media/14/piezas_destacadas/106/Dibujo/público/INT14_CuerdaSeca_2_.jpg", "publico": 1, "url": null }, "geometry": null },
{ "type": "Feature", "properties": { "fid": 3116, "num_pieza": 107, "tipo": "Foto", "ruta": "./media/14/piezas_destacadas/107/Foto/público/ceramica_relieve_n.jpg", "publico": 1, "url": null }, "geometry": null },
{ "type": "Feature", "properties": { "fid": 3119, "num_pieza": 107, "tipo": "Dibujo", "ruta": "./media/14/piezas_destacadas/107/Dibujo/público/INT_14_Hombro-Molde.jpg", "publico": 1, "url": null }, "geometry": null },
{ "type": "Feature", "properties": { "fid": 3121, "num_pieza": 113, "tipo": "Foto", "ruta": "./media/16/piezas_destacadas/113/Foto/público/Plato_manzana_rua_INT_16_N.jpg", "publico": 1, "url": null }, "geometry": null },
{ "type": "Feature", "properties": { "fid": 3124, "num_pieza": 113, "tipo": "Dibujo", "ruta": "./media/16/piezas_destacadas/113/Dibujo/público/Plato.jpg", "publico": 1, "url": null }, "geometry": null },
{ "type": "Feature", "properties": { "fid": 3126, "num_pieza": 114, "tipo": "Foto", "ruta": "./media/16/piezas_destacadas/114/Foto/público/plato_gallo_INT_16_N.jpg", "publico": 1, "url": null }, "geometry": null },
{ "type": "Feature", "properties": { "fid": 3129, "num_pieza": 114, "tipo": "Dibujo", "ruta": "./media/16/piezas_destacadas/114/Dibujo/público/Frutero_Gallo.jpg", "publico": 1, "url": null }, "geometry": null },
{ "type": "Feature", "properties": { "fid": 3131, "num_pieza": 116, "tipo": "Foto", "ruta": "./media/16/piezas_destacadas/116/Foto/público/loza dorada II_n.jpg", "publico": 1, "url": null }, "geometry": null },
{ "type": "Feature", "properties": { "fid": 3134, "num_pieza": 117, "tipo": "Foto", "ruta": "./media/16/piezas_destacadas/117/Foto/público/CANDIL_PIQUERA_N.jpg", "publico": 1, "url": null }, "geometry": null },
{ "type": "Feature", "properties": { "fid": 3137, "num_pieza": 117, "tipo": "Dibujo", "ruta": "./media/16/piezas_destacadas/117/Dibujo/público/Candil.jpg", "publico": 1, "url": null }, "geometry": null },
{ "type": "Feature", "properties": { "fid": 3139, "num_pieza": 118, "tipo": "Foto", "ruta": "./media/16/piezas_destacadas/118/Foto/público/ESCUDILLA_LATERAL_II_N.jpg", "publico": 1, "url": null }, "geometry": null },
{ "type": "Feature", "properties": { "fid": 3144, "num_pieza": 120, "tipo": "Foto", "ruta": "./media/17/piezas_destacadas/120/Foto/público/asa_INT_17_B.jpg", "publico": 1, "url": null }, "geometry": null },
{ "type": "Feature", "properties": { "fid": 3145, "num_pieza": 120, "tipo": "Foto", "ruta": "./media/17/piezas_destacadas/120/Foto/público/asa_INT_17_N.jpg", "publico": 1, "url": null }, "geometry": null },
{ "type": "Feature", "properties": { "fid": 3148, "num_pieza": 120, "tipo": "Dibujo", "ruta": "./media/17/piezas_destacadas/120/Dibujo/público/INT_Asa_Pintada.jpg", "publico": 1, "url": null }, "geometry": null },
{ "type": "Feature", "properties": { "fid": 3150, "num_pieza": 121, "tipo": "Foto", "ruta": "./media/18/piezas_destacadas/121/Foto/público/Sigillata_INT_18_N.jpg", "publico": 1, "url": null }, "geometry": null },
{ "type": "Feature", "properties": { "fid": 3153, "num_pieza": 121, "tipo": "Dibujo", "ruta": "./media/18/piezas_destacadas/121/Dibujo/público/INT_18_CARNICERIAS_TSH_37.jpg", "publico": 1, "url": null }, "geometry": null },
{ "type": "Feature", "properties": { "fid": 3155, "num_pieza": 122, "tipo": "Foto", "ruta": "./media/18/piezas_destacadas/122/Foto/público/sigillata_II_INT_18_N.jpg", "publico": 1, "url": null }, "geometry": null },
{ "type": "Feature", "properties": { "fid": 3158, "num_pieza": 123, "tipo": "Foto", "ruta": "./media/18/piezas_destacadas/123/Foto/público/sigilita_III_INT_18_N.jpg", "publico": 1, "url": null }, "geometry": null },
{ "type": "Feature", "properties": { "fid": 3161, "num_pieza": 123, "tipo": "Dibujo", "ruta": "./media/18/piezas_destacadas/123/Dibujo/público/INT_18_CARNICERIAS_DRAG_15-17.jpg", "publico": 1, "url": null }, "geometry": null },
{ "type": "Feature", "properties": { "fid": 3163, "num_pieza": 124, "tipo": "Foto", "ruta": "./media/19/piezas_destacadas/124/Foto/público/boca_jarra_n_INT_29.jpg", "publico": 1, "url": null }, "geometry": null },
{ "type": "Feature", "properties": { "fid": 3166, "num_pieza": 124, "tipo": "Dibujo", "ruta": "./media/19/piezas_destacadas/124/Dibujo/público/INT_19_Boca_Jarro.jpg", "publico": 1, "url": null }, "geometry": null },
{ "type": "Feature", "properties": { "fid": 3168, "num_pieza": 126, "tipo": "Foto", "ruta": "./media/19/piezas_destacadas/126/Foto/público/ataifor verde y manganeso_n.jpg", "publico": 1, "url": null }, "geometry": null },
{ "type": "Feature", "properties": { "fid": 3171, "num_pieza": 127, "tipo": "Foto", "ruta": "./media/20/piezas_destacadas/127/Foto/público/escudilla_cerro_97_n.jpg", "publico": 1, "url": null }, "geometry": null },
{ "type": "Feature", "properties": { "fid": 3174, "num_pieza": 128, "tipo": "Foto", "ruta": "./media/20/piezas_destacadas/128/Foto/público/ESCUDILLA_CENITAL_N.jpg", "publico": 1, "url": null }, "geometry": null },
{ "type": "Feature", "properties": { "fid": 3177, "num_pieza": 129, "tipo": "Foto", "ruta": "./media/20/piezas_destacadas/129/Foto/público/MOLDE_N_INT_20.jpg", "publico": 1, "url": null }, "geometry": null },
{ "type": "Feature", "properties": { "fid": 3180, "num_pieza": 129, "tipo": "Dibujo", "ruta": "./media/20/piezas_destacadas/129/Dibujo/público/INT_20_MoldeRelieve_.jpg", "publico": 1, "url": null }, "geometry": null },
{ "type": "Feature", "properties": { "fid": 3182, "num_pieza": 130, "tipo": "Foto", "ruta": "./media/20/piezas_destacadas/130/Foto/público/CANDIL_JUDIO_N.jpg", "publico": 1, "url": null }, "geometry": null },
{ "type": "Feature", "properties": { "fid": 3185, "num_pieza": 133, "tipo": "Foto", "ruta": "./media/20/piezas_destacadas/133/Foto/público/frag_capitel_INT_20_N.jpg", "publico": 1, "url": null }, "geometry": null },
{ "type": "Feature", "properties": { "fid": 3188, "num_pieza": 135, "tipo": "Foto", "ruta": "./media/23/piezas_destacadas/135/Foto/público/loza_dorada_azul_INT_23_N.jpg", "publico": 1, "url": null }, "geometry": null },
{ "type": "Feature", "properties": { "fid": 3191, "num_pieza": 135, "tipo": "Dibujo", "ruta": "./media/23/piezas_destacadas/135/Dibujo/público/INT_23_Loza_Dorada.jpg", "publico": 1, "url": null }, "geometry": null },
{ "type": "Feature", "properties": { "fid": 3193, "num_pieza": 136, "tipo": "Foto", "ruta": "./media/25/piezas_destacadas/136/Foto/público/JOFAINA_N_INT_25.jpg", "publico": 1, "url": null }, "geometry": null },
{ "type": "Feature", "properties": { "fid": 3196, "num_pieza": 136, "tipo": "Dibujo", "ruta": "./media/25/piezas_destacadas/136/Dibujo/público/INT_25_JofainaCarenada_117_.jpg", "publico": 1, "url": null }, "geometry": null },
{ "type": "Feature", "properties": { "fid": 3198, "num_pieza": 137, "tipo": "Foto", "ruta": "./media/25/piezas_destacadas/137/Foto/público/VIDRIADA VERDE RELIEVE_N_INT_25.jpg", "publico": 1, "url": null }, "geometry": null },
{ "type": "Feature", "properties": { "fid": 3201, "num_pieza": 137, "tipo": "Dibujo", "ruta": "./media/25/piezas_destacadas/137/Dibujo/público/INT_25_Vidriada_Relieve_122.jpg", "publico": 1, "url": null }, "geometry": null },
{ "type": "Feature", "properties": { "fid": 3203, "num_pieza": 138, "tipo": "Foto", "ruta": "./media/26/piezas_destacadas/138/Foto/público/fondo_mano_INT_26_B.jpg", "publico": 1, "url": null }, "geometry": null },
{ "type": "Feature", "properties": { "fid": 3204, "num_pieza": 138, "tipo": "Foto", "ruta": "./media/26/piezas_destacadas/138/Foto/público/fondo_mano_INT_26_N.jpg", "publico": 1, "url": null }, "geometry": null },
{ "type": "Feature", "properties": { "fid": 3207, "num_pieza": 138, "tipo": "Dibujo", "ruta": "./media/26/piezas_destacadas/138/Dibujo/público/INT_26_CuenoManoFatima.jpg", "publico": 1, "url": null }, "geometry": null },
{ "type": "Feature", "properties": { "fid": 3209, "num_pieza": 139, "tipo": "Foto", "ruta": "./media/26/piezas_destacadas/139/Foto/público/fondo_estrella_INT_26_N.jpg", "publico": 1, "url": null }, "geometry": null },
{ "type": "Feature", "properties": { "fid": 3212, "num_pieza": 139, "tipo": "Dibujo", "ruta": "./media/26/piezas_destacadas/139/Dibujo/público/INT_26_CuencoEstrellaDavid.jpg", "publico": 1, "url": null }, "geometry": null },
{ "type": "Feature", "properties": { "fid": 3214, "num_pieza": 140, "tipo": "Foto", "ruta": "./media/26/piezas_destacadas/140/Foto/público/fragmento_cnadil_judio_INT_26_N.jpg", "publico": 1, "url": null }, "geometry": null },
{ "type": "Feature", "properties": { "fid": 3217, "num_pieza": 140, "tipo": "Dibujo", "ruta": "./media/26/piezas_destacadas/140/Dibujo/público/INT_26_Candil_Hanuka.jpg", "publico": 1, "url": null }, "geometry": null },
{ "type": "Feature", "properties": { "fid": 3219, "num_pieza": 141, "tipo": "Foto", "ruta": "./media/26/piezas_destacadas/141/Foto/público/candil_pellizco_INT_26_N.jpg", "publico": 1, "url": null }, "geometry": null },
{ "type": "Feature", "properties": { "fid": 3222, "num_pieza": 141, "tipo": "Dibujo", "ruta": "./media/26/piezas_destacadas/141/Dibujo/público/INT_26_Candil_Pellizco.jpg", "publico": 1, "url": null }, "geometry": null },
{ "type": "Feature", "properties": { "fid": 3224, "num_pieza": 142, "tipo": "Foto", "ruta": "./media/27/piezas_destacadas/142/Foto/público/porcelana_elefante_INT_27_N.jpg", "publico": 1, "url": null }, "geometry": null },
{ "type": "Feature", "properties": { "fid": 3227, "num_pieza": 143, "tipo": "Foto", "ruta": "./media/27/piezas_destacadas/143/Foto/público/pesa_telar_INT_27_N.jpg", "publico": 1, "url": null }, "geometry": null },
{ "type": "Feature", "properties": { "fid": 3230, "num_pieza": 143, "tipo": "Dibujo", "ruta": "./media/27/piezas_destacadas/143/Dibujo/público/INT_27_Pondus.jpg", "publico": 1, "url": null }, "geometry": null },
{ "type": "Feature", "properties": { "fid": 3232, "num_pieza": 149, "tipo": "Foto", "ruta": "./media/29/piezas_destacadas/149/Foto/público/ATIFLES_N.jpg", "publico": 1, "url": null }, "geometry": null },
{ "type": "Feature", "properties": { "fid": 3235, "num_pieza": 6, "tipo": "Foto", "ruta": "./media/3/piezas_destacadas/6/Foto/público/6_INT_3_ESCUDILLA_LOZA_DORADA_B.jpg", "publico": 1, "url": null }, "geometry": null },
{ "type": "Feature", "properties": { "fid": 3236, "num_pieza": 6, "tipo": "Foto", "ruta": "./media/3/piezas_destacadas/6/Foto/público/6_INT_3_ESCUDILLA_LOZA_DORADA_N.jpg", "publico": 1, "url": null }, "geometry": null },
{ "type": "Feature", "properties": { "fid": 3239, "num_pieza": 6, "tipo": "Dibujo", "ruta": "./media/3/piezas_destacadas/6/Dibujo/público/INT_3_SolarLiceo_LozaDora.png", "publico": 1, "url": null }, "geometry": null },
{ "type": "Feature", "properties": { "fid": 3242, "num_pieza": 7, "tipo": "Foto", "ruta": "./media/3/piezas_destacadas/7/Foto/público/INT_3_PLATO_SAL_B.jpg", "publico": 1, "url": null }, "geometry": null },
{ "type": "Feature", "properties": { "fid": 3243, "num_pieza": 7, "tipo": "Foto", "ruta": "./media/3/piezas_destacadas/7/Foto/público/INT_3_PLATO_SAL_N.jpg", "publico": 1, "url": null }, "geometry": null },
{ "type": "Feature", "properties": { "fid": 3246, "num_pieza": 7, "tipo": "Dibujo", "ruta": "./media/3/piezas_destacadas/7/Dibujo/público/INT_3_SolarLiceo_PlatoSal.jpg", "publico": 1, "url": null }, "geometry": null },
{ "type": "Feature", "properties": { "fid": 3249, "num_pieza": 8, "tipo": "Foto", "ruta": "./media/3/piezas_destacadas/8/Foto/público/INT_3_P_3_B.jpg", "publico": 1, "url": null }, "geometry": null },
{ "type": "Feature", "properties": { "fid": 3250, "num_pieza": 8, "tipo": "Foto", "ruta": "./media/3/piezas_destacadas/8/Foto/público/INT_3_P_3_N.jpg", "publico": 1, "url": null }, "geometry": null },
{ "type": "Feature", "properties": { "fid": 3253, "num_pieza": 8, "tipo": "Dibujo", "ruta": "./media/3/piezas_destacadas/8/Dibujo/público/INT_3_SolarLiceo_LozaDora.jpg", "publico": 1, "url": null }, "geometry": null },
{ "type": "Feature", "properties": { "fid": 3256, "num_pieza": 146, "tipo": "Foto", "ruta": "./media/33/piezas_destacadas/146/Foto/público/FONDO_LOZA_DORADA_INT_33_N.jpg", "publico": 1, "url": null }, "geometry": null },
{ "type": "Feature", "properties": { "fid": 3259, "num_pieza": 146, "tipo": "Dibujo", "ruta": "./media/33/piezas_destacadas/146/Dibujo/público/INT_35_Fondo_LozaDorada_321.jpg", "publico": 1, "url": null }, "geometry": null },
{ "type": "Feature", "properties": { "fid": 3261, "num_pieza": 147, "tipo": "Foto", "ruta": "./media/33/piezas_destacadas/147/Foto/público/PLATO_LOZA_DORADA_N_INT_33.jpg", "publico": 1, "url": null }, "geometry": null },
{ "type": "Feature", "properties": { "fid": 3264, "num_pieza": 147, "tipo": "Dibujo", "ruta": "./media/33/piezas_destacadas/147/Dibujo/público/INT_35_Escudilla_376.jpg", "publico": 1, "url": null }, "geometry": null },
{ "type": "Feature", "properties": { "fid": 3266, "num_pieza": 148, "tipo": "Foto", "ruta": "./media/33/piezas_destacadas/148/Foto/público/ESCUDILLA_N_INT_33.jpg", "publico": 1, "url": null }, "geometry": null },
{ "type": "Feature", "properties": { "fid": 3269, "num_pieza": 148, "tipo": "Dibujo", "ruta": "./media/33/piezas_destacadas/148/Dibujo/público/INT_35_Escudilla_376.jpg", "publico": 1, "url": null }, "geometry": null },
{ "type": "Feature", "properties": { "fid": 3271, "num_pieza": 369, "tipo": "Foto", "ruta": "./media/33/piezas_destacadas/369/Foto/público/HUESO_TALLADO_INT_33_N.jpg", "publico": 1, "url": null }, "geometry": null },
{ "type": "Feature", "properties": { "fid": 3274, "num_pieza": 369, "tipo": "Dibujo", "ruta": "./media/33/piezas_destacadas/369/Dibujo/público/INT_35_Brazalete_Arquero.jpg", "publico": 1, "url": null }, "geometry": null },
{ "type": "Feature", "properties": { "fid": 3276, "num_pieza": 150, "tipo": "Foto", "ruta": "./media/35/piezas_destacadas/150/Foto/público/escudilla_orejetas_INT_36_N.jpg", "publico": 1, "url": null }, "geometry": null },
{ "type": "Feature", "properties": { "fid": 3279, "num_pieza": 150, "tipo": "Dibujo", "ruta": "./media/35/piezas_destacadas/150/Dibujo/público/INT_36_EscudillaOrejetas_187.jpg", "publico": 1, "url": null }, "geometry": null },
{ "type": "Feature", "properties": { "fid": 3281, "num_pieza": 152, "tipo": "Foto", "ruta": "./media/35/piezas_destacadas/152/Foto/público/candil_judio_entero_INT_35_N.jpg", "publico": 1, "url": null }, "geometry": null },
{ "type": "Feature", "properties": { "fid": 3284, "num_pieza": 152, "tipo": "Dibujo", "ruta": "./media/35/piezas_destacadas/152/Dibujo/público/INT_36_Candil_Hanuka_.jpg", "publico": 1, "url": null }, "geometry": null },
{ "type": "Feature", "properties": { "fid": 3286, "num_pieza": 153, "tipo": "Foto", "ruta": "./media/35/piezas_destacadas/153/Foto/público/CANDIL_N.jpg", "publico": 1, "url": null }, "geometry": null },
{ "type": "Feature", "properties": { "fid": 3289, "num_pieza": 153, "tipo": "Dibujo", "ruta": "./media/35/piezas_destacadas/153/Dibujo/público/INT_35_Hanuka_.jpg", "publico": 1, "url": null }, "geometry": null },
{ "type": "Feature", "properties": { "fid": 3291, "num_pieza": 155, "tipo": "Foto", "ruta": "./media/36/piezas_destacadas/155/Foto/público/fondo_ave_INT_36_N.jpg", "publico": 1, "url": null }, "geometry": null },
{ "type": "Feature", "properties": { "fid": 3294, "num_pieza": 155, "tipo": "Dibujo", "ruta": "./media/36/piezas_destacadas/155/Dibujo/público/INT_36_Fondo_Ave.jpg", "publico": 1, "url": null }, "geometry": null },
{ "type": "Feature", "properties": { "fid": 3296, "num_pieza": 157, "tipo": "Foto", "ruta": "./media/39/piezas_destacadas/157/Foto/público/TEJAS_N_INT_39.jpg", "publico": 1, "url": null }, "geometry": null },
{ "type": "Feature", "properties": { "fid": 3299, "num_pieza": 10, "tipo": "Foto", "ruta": "./media/4/piezas_destacadas/10/Foto/público/INT_4_P_2_N.jpg", "publico": 1, "url": null }, "geometry": null },
{ "type": "Feature", "properties": { "fid": 3302, "num_pieza": 174, "tipo": "Foto", "ruta": "./media/45/piezas_destacadas/174/Foto/público/BORDE_EDAD_HIERRO_N_INT_45.jpg", "publico": 1, "url": null }, "geometry": null },
{ "type": "Feature", "properties": { "fid": 3305, "num_pieza": 175, "tipo": "Foto", "ruta": "./media/45/piezas_destacadas/175/Foto/público/KALATHOS_2002_N_INT_45.jpg", "publico": 1, "url": null }, "geometry": null },
{ "type": "Feature", "properties": { "fid": 3308, "num_pieza": 176, "tipo": "Foto", "ruta": "./media/45/piezas_destacadas/176/Foto/público/FONDO_PLATO_SIGILLATA_1294_2002_N_INT_45.jpg", "publico": 1, "url": null }, "geometry": null },
{ "type": "Feature", "properties": { "fid": 3311, "num_pieza": 178, "tipo": "Foto", "ruta": "./media/45/piezas_destacadas/178/Foto/público/ESGRAFIADA_2002_N_INT_45.jpg", "publico": 1, "url": null }, "geometry": null },
{ "type": "Feature", "properties": { "fid": 3314, "num_pieza": 181, "tipo": "Foto", "ruta": "./media/45/piezas_destacadas/181/Foto/público/JARRA_CUERDA_SECA_N_INT_45.jpg", "publico": 1, "url": null }, "geometry": null },
{ "type": "Feature", "properties": { "fid": 3317, "num_pieza": 183, "tipo": "Foto", "ruta": "./media/45/piezas_destacadas/183/Foto/público/CANDIL_INT_45_N.jpg", "publico": 1, "url": null }, "geometry": null },
{ "type": "Feature", "properties": { "fid": 3320, "num_pieza": 184, "tipo": "Foto", "ruta": "./media/45/piezas_destacadas/184/Foto/público/JARRA_CUERDA_SECA_2002_N_INT_45.jpg", "publico": 1, "url": null }, "geometry": null },
{ "type": "Feature", "properties": { "fid": 3323, "num_pieza": 185, "tipo": "Foto", "ruta": "./media/45/piezas_destacadas/185/Foto/público/TAPADERA_2002_N_INT_45.jpg", "publico": 1, "url": null }, "geometry": null },
{ "type": "Feature", "properties": { "fid": 3326, "num_pieza": 186, "tipo": "Foto", "ruta": "./media/45/piezas_destacadas/186/Foto/público/TAMBOR_2002_N_INT_45.jpg", "publico": 1, "url": null }, "geometry": null },
{ "type": "Feature", "properties": { "fid": 3329, "num_pieza": 187, "tipo": "Foto", "ruta": "./media/45/piezas_destacadas/187/Foto/público/CUENCO INCISO_N_INT_45.jpg", "publico": 1, "url": null }, "geometry": null },
{ "type": "Feature", "properties": { "fid": 3332, "num_pieza": 187, "tipo": "Dibujo", "ruta": "./media/45/piezas_destacadas/187/Dibujo/público/INT_45_Fondo_HierroII.jpg", "publico": 1, "url": null }, "geometry": null },
{ "type": "Feature", "properties": { "fid": 3334, "num_pieza": 188, "tipo": "Foto", "ruta": "./media/45/piezas_destacadas/188/Foto/público/TEGULA_1501_N_INT_45.jpg", "publico": 1, "url": null }, "geometry": null },
{ "type": "Feature", "properties": { "fid": 3337, "num_pieza": 188, "tipo": "Dibujo", "ruta": "./media/45/piezas_destacadas/188/Dibujo/público/INT_45_Tegula.jpg", "publico": 1, "url": null }, "geometry": null },
{ "type": "Feature", "properties": { "fid": 3339, "num_pieza": 189, "tipo": "Foto", "ruta": "./media/45/piezas_destacadas/189/Foto/público/CERAMICA_INCISA_TRIANGULO_N_INT_45.jpg", "publico": 1, "url": null }, "geometry": null },
{ "type": "Feature", "properties": { "fid": 3342, "num_pieza": 189, "tipo": "Dibujo", "ruta": "./media/45/piezas_destacadas/189/Dibujo/público/INT_45_EdadHierro_incisa.jpg", "publico": 1, "url": null }, "geometry": null },
{ "type": "Feature", "properties": { "fid": 3344, "num_pieza": 190, "tipo": "Foto", "ruta": "./media/45/piezas_destacadas/190/Foto/público/ESCUDILLA_2003_N_INT_45.jpg", "publico": 1, "url": null }, "geometry": null },
{ "type": "Feature", "properties": { "fid": 3349, "num_pieza": 191, "tipo": "Foto", "ruta": "./media/45/piezas_destacadas/191/Foto/público/ATAIFOR_2003_N_INT_45.jpg", "publico": 1, "url": null }, "geometry": null },
{ "type": "Feature", "properties": { "fid": 3352, "num_pieza": 192, "tipo": "Foto", "ruta": "./media/45/piezas_destacadas/192/Foto/público/jarra_cuerda_seca_213_N_INT_45.jpg", "publico": 1, "url": null }, "geometry": null },
{ "type": "Feature", "properties": { "fid": 3355, "num_pieza": 193, "tipo": "Foto", "ruta": "./media/45/piezas_destacadas/193/Foto/público/JOFAINA_N_INT_45.jpg", "publico": 1, "url": null }, "geometry": null },
{ "type": "Feature", "properties": { "fid": 3358, "num_pieza": 194, "tipo": "Foto", "ruta": "./media/45/piezas_destacadas/194/Foto/público/GRAN CUENCO_2003_N_INT_45.jpg", "publico": 1, "url": null }, "geometry": null },
{ "type": "Feature", "properties": { "fid": 3361, "num_pieza": 195, "tipo": "Foto", "ruta": "./media/45/piezas_destacadas/195/Foto/público/JARRA_PINTADA_MANGANESO_2003_N_INT_45.jpg", "publico": 1, "url": null }, "geometry": null },
{ "type": "Feature", "properties": { "fid": 3364, "num_pieza": 197, "tipo": "Foto", "ruta": "./media/45/piezas_destacadas/197/Foto/público/OLLA_2003_N_INT_45.jpg", "publico": 1, "url": null }, "geometry": null },
{ "type": "Feature", "properties": { "fid": 3367, "num_pieza": 198, "tipo": "Foto", "ruta": "./media/45/piezas_destacadas/198/Foto/público/botellita vidriada.jpg", "publico": 1, "url": null }, "geometry": null },
{ "type": "Feature", "properties": { "fid": 3370, "num_pieza": 200, "tipo": "Foto", "ruta": "./media/45/piezas_destacadas/200/Foto/público/BRAZALETE ARQUERO_N.jpg", "publico": 1, "url": null }, "geometry": null },
{ "type": "Feature", "properties": { "fid": 3373, "num_pieza": 201, "tipo": "Foto", "ruta": "./media/45/piezas_destacadas/201/Foto/público/cuenta coral_n.jpg", "publico": 1, "url": null }, "geometry": null },
{ "type": "Feature", "properties": { "fid": 3376, "num_pieza": 202, "tipo": "Foto", "ruta": "./media/47/piezas_destacadas/202/Foto/público/ROMANA_GRAFITO_B.jpg", "publico": 1, "url": null }, "geometry": null },
{ "type": "Feature", "properties": { "fid": 3379, "num_pieza": 203, "tipo": "Foto", "ruta": "./media/47/piezas_destacadas/203/Foto/público/candil_N.jpg", "publico": 1, "url": null }, "geometry": null },
{ "type": "Feature", "properties": { "fid": 3382, "num_pieza": 203, "tipo": "Dibujo", "ruta": "./media/47/piezas_destacadas/203/Dibujo/público/INT_47_Candil.jpg", "publico": 1, "url": null }, "geometry": null },
{ "type": "Feature", "properties": { "fid": 3384, "num_pieza": 204, "tipo": "Foto", "ruta": "./media/47/piezas_destacadas/204/Foto/público/olla_I_N.jpg", "publico": 1, "url": null }, "geometry": null },
{ "type": "Feature", "properties": { "fid": 3387, "num_pieza": 205, "tipo": "Foto", "ruta": "./media/47/piezas_destacadas/205/Foto/público/OLLA_II_N.jpg", "publico": 1, "url": null }, "geometry": null },
{ "type": "Feature", "properties": { "fid": 3390, "num_pieza": 206, "tipo": "Foto", "ruta": "./media/47/piezas_destacadas/206/Foto/público/BOTELLA_GLOBULAR_N.jpg", "publico": 1, "url": null }, "geometry": null },
{ "type": "Feature", "properties": { "fid": 3393, "num_pieza": 206, "tipo": "Dibujo", "ruta": "./media/47/piezas_destacadas/206/Dibujo/público/ĉ.jpg", "publico": 1, "url": null }, "geometry": null },
{ "type": "Feature", "properties": { "fid": 3395, "num_pieza": 209, "tipo": "Foto", "ruta": "./media/48/piezas_destacadas/209/Foto/público/JARRA_1_ASA_INT_48_N.jpg", "publico": 1, "url": null }, "geometry": null },
{ "type": "Feature", "properties": { "fid": 3398, "num_pieza": 209, "tipo": "Dibujo", "ruta": "./media/48/piezas_destacadas/209/Dibujo/público/INT_48_JarroBoca_Ancha.jpg", "publico": 1, "url": null }, "geometry": null },
{ "type": "Feature", "properties": { "fid": 3400, "num_pieza": 210, "tipo": "Foto", "ruta": "./media/48/piezas_destacadas/210/Foto/público/jarra_2_asas_INT_48_N.jpg", "publico": 1, "url": null }, "geometry": null },
{ "type": "Feature", "properties": { "fid": 3403, "num_pieza": 210, "tipo": "Dibujo", "ruta": "./media/48/piezas_destacadas/210/Dibujo/público/INT_48_JarraBoca_Ancha.jpg", "publico": 1, "url": null }, "geometry": null },
{ "type": "Feature", "properties": { "fid": 3405, "num_pieza": 211, "tipo": "Foto", "ruta": "./media/48/piezas_destacadas/211/Foto/público/IMG_4077_jarra_estrangulada_INT_48_Magallon_N.jpg", "publico": 1, "url": null }, "geometry": null },
{ "type": "Feature", "properties": { "fid": 3408, "num_pieza": 211, "tipo": "Dibujo", "ruta": "./media/48/piezas_destacadas/211/Dibujo/público/Jarro_Cuello_Estrangulado.jpg", "publico": 1, "url": null }, "geometry": null },
{ "type": "Feature", "properties": { "fid": 3410, "num_pieza": 212, "tipo": "Foto", "ruta": "./media/48/piezas_destacadas/212/Foto/público/orza_int_48_N.jpg", "publico": 1, "url": null }, "geometry": null },
{ "type": "Feature", "properties": { "fid": 3413, "num_pieza": 212, "tipo": "Dibujo", "ruta": "./media/48/piezas_destacadas/212/Dibujo/público/Jarro_Orza_pequeña.jpg", "publico": 1, "url": null }, "geometry": null },
{ "type": "Feature", "properties": { "fid": 3415, "num_pieza": 213, "tipo": "Foto", "ruta": "./media/48/piezas_destacadas/213/Foto/público/CANDIL_INT_48_N.jpg", "publico": 1, "url": null }, "geometry": null },
{ "type": "Feature", "properties": { "fid": 3418, "num_pieza": 213, "tipo": "Dibujo", "ruta": "./media/48/piezas_destacadas/213/Dibujo/público/INT_48_Candil_Piquera.jpg", "publico": 1, "url": null }, "geometry": null },
{ "type": "Feature", "properties": { "fid": 3420, "num_pieza": 12, "tipo": "Foto", "ruta": "./media/5/piezas_destacadas/12/Foto/público/INT_5_cuello_vidriado_N.jpg", "publico": 1, "url": null }, "geometry": null },
{ "type": "Feature", "properties": { "fid": 3423, "num_pieza": 14, "tipo": "Foto", "ruta": "./media/5/piezas_destacadas/14/Foto/público/cuerda seca_N.jpg", "publico": 1, "url": null }, "geometry": null },
{ "type": "Feature", "properties": { "fid": 3426, "num_pieza": 15, "tipo": "Foto", "ruta": "./media/5/piezas_destacadas/15/Foto/público/ASA_CUERDA_SECA_N.jpg", "publico": 1, "url": null }, "geometry": null },
{ "type": "Feature", "properties": { "fid": 3429, "num_pieza": 16, "tipo": "Foto", "ruta": "./media/5/piezas_destacadas/16/Foto/público/INT_5_CUERDA_SECA_II_N.jpg", "publico": 1, "url": null }, "geometry": null },
{ "type": "Feature", "properties": { "fid": 3432, "num_pieza": 17, "tipo": "Foto", "ruta": "./media/5/piezas_destacadas/17/Foto/público/INT_5_FONDO_ATAIFOR_VERDE_MG_N.jpg", "publico": 1, "url": null }, "geometry": null },
{ "type": "Feature", "properties": { "fid": 3435, "num_pieza": 18, "tipo": "Foto", "ruta": "./media/5/piezas_destacadas/18/Foto/público/FONDO_MANO_FATIMA_N.jpg", "publico": 1, "url": null }, "geometry": null },
{ "type": "Feature", "properties": { "fid": 3438, "num_pieza": 18, "tipo": "Dibujo", "ruta": "./media/5/piezas_destacadas/18/Dibujo/público/INT_5_Mano_Fatima.jpg", "publico": 1, "url": null }, "geometry": null },
{ "type": "Feature", "properties": { "fid": 3440, "num_pieza": 19, "tipo": "Foto", "ruta": "./media/5/piezas_destacadas/19/Foto/público/INT_5_moneda_I_CSB_85_N.jpg", "publico": 1, "url": null }, "geometry": null },
{ "type": "Feature", "properties": { "fid": 3443, "num_pieza": 20, "tipo": "Foto", "ruta": "./media/5/piezas_destacadas/20/Foto/público/INT_5_MONEDA_II_CSB_85_N.jpg", "publico": 1, "url": null }, "geometry": null },
{ "type": "Feature", "properties": { "fid": 3446, "num_pieza": 21, "tipo": "Foto", "ruta": "./media/5/piezas_destacadas/21/Foto/público/INT_5_cabeza_angelote_N.jpg", "publico": 1, "url": null }, "geometry": null },
{ "type": "Feature", "properties": { "fid": 3449, "num_pieza": 22, "tipo": "Foto", "ruta": "./media/5/piezas_destacadas/22/Foto/público/INT_5_JARRA_PINTADA_MANGANESO_B.jpg", "publico": 1, "url": null }, "geometry": null },
{ "type": "Feature", "properties": { "fid": 3450, "num_pieza": 22, "tipo": "Foto", "ruta": "./media/5/piezas_destacadas/22/Foto/público/INT_5_JARRA_PINTADA_MANGANESO_N.jpg", "publico": 1, "url": null }, "geometry": null },
{ "type": "Feature", "properties": { "fid": 3453, "num_pieza": 24, "tipo": "Foto", "ruta": "./media/5/piezas_destacadas/24/Foto/público/INT_5_AZULEJO_N.jpg", "publico": 1, "url": null }, "geometry": null },
{ "type": "Feature", "properties": { "fid": 3456, "num_pieza": 24, "tipo": "Dibujo", "ruta": "./media/5/piezas_destacadas/24/Dibujo/público/AzulejoAzul.jpg", "publico": 1, "url": null }, "geometry": null },
{ "type": "Feature", "properties": { "fid": 3459, "num_pieza": 25, "tipo": "Foto", "ruta": "./media/5/piezas_destacadas/25/Foto/público/jarra_pintada_N.jpg", "publico": 1, "url": null }, "geometry": null },
{ "type": "Feature", "properties": { "fid": 3462, "num_pieza": 25, "tipo": "Dibujo", "ruta": "./media/5/piezas_destacadas/25/Dibujo/público/INT_5_Cantara.jpg", "publico": 1, "url": null }, "geometry": null },
{ "type": "Feature", "properties": { "fid": 3465, "num_pieza": 218, "tipo": "Foto", "ruta": "./media/50/piezas_destacadas/218/Foto/público/plato_toro_INT_50_N.jpg", "publico": 1, "url": null }, "geometry": null },
{ "type": "Feature", "properties": { "fid": 3468, "num_pieza": 218, "tipo": "Dibujo", "ruta": "./media/50/piezas_destacadas/218/Dibujo/público/INT_50_PlatoToro.jpg", "publico": 1, "url": null }, "geometry": null },
{ "type": "Feature", "properties": { "fid": 3470, "num_pieza": 219, "tipo": "Foto", "ruta": "./media/50/piezas_destacadas/219/Foto/público/escudilla_II_INT_50_N.jpg", "publico": 1, "url": null }, "geometry": null },
{ "type": "Feature", "properties": { "fid": 3473, "num_pieza": 219, "tipo": "Dibujo", "ruta": "./media/50/piezas_destacadas/219/Dibujo/público/INT_50_Cuenco_3BandasVerde-Morado.jpg", "publico": 1, "url": null }, "geometry": null },
{ "type": "Feature", "properties": { "fid": 3475, "num_pieza": 220, "tipo": "Foto", "ruta": "./media/50/piezas_destacadas/220/Foto/público/escudilla_III_INT_50_N.jpg", "publico": 1, "url": null }, "geometry": null },
{ "type": "Feature", "properties": { "fid": 3478, "num_pieza": 220, "tipo": "Dibujo", "ruta": "./media/50/piezas_destacadas/220/Dibujo/público/INT_50_CuencoCarenado_II.jpg", "publico": 1, "url": null }, "geometry": null },
{ "type": "Feature", "properties": { "fid": 3480, "num_pieza": 221, "tipo": "Foto", "ruta": "./media/50/piezas_destacadas/221/Foto/público/escudilla_IV_INT_50_N.jpg", "publico": 1, "url": null }, "geometry": null },
{ "type": "Feature", "properties": { "fid": 3483, "num_pieza": 221, "tipo": "Dibujo", "ruta": "./media/50/piezas_destacadas/221/Dibujo/público/INT_50_CuencoCarenado_I.jpg", "publico": 1, "url": null }, "geometry": null },
{ "type": "Feature", "properties": { "fid": 3485, "num_pieza": 222, "tipo": "Foto", "ruta": "./media/50/piezas_destacadas/222/Foto/público/escudilla_I_cenital_INT_50_N_INT_50.jpg", "publico": 1, "url": null }, "geometry": null },
{ "type": "Feature", "properties": { "fid": 3488, "num_pieza": 222, "tipo": "Dibujo", "ruta": "./media/50/piezas_destacadas/222/Dibujo/público/INT_CuencoCarenadoAzul.jpg", "publico": 1, "url": null }, "geometry": null },
{ "type": "Feature", "properties": { "fid": 3490, "num_pieza": 223, "tipo": "Foto", "ruta": "./media/50/piezas_destacadas/223/Foto/público/plato_mujer_INT_50_N.jpg", "publico": 1, "url": null }, "geometry": null },
{ "type": "Feature", "properties": { "fid": 3493, "num_pieza": 223, "tipo": "Dibujo", "ruta": "./media/50/piezas_destacadas/223/Dibujo/público/INT_50_GranPlato_Mujer.jpg", "publico": 1, "url": null }, "geometry": null },
{ "type": "Feature", "properties": { "fid": 3495, "num_pieza": 224, "tipo": "Foto", "ruta": "./media/50/piezas_destacadas/224/Foto/público/plato_conejo_INT_50_N.jpg", "publico": 1, "url": null }, "geometry": null },
{ "type": "Feature", "properties": { "fid": 3498, "num_pieza": 224, "tipo": "Dibujo", "ruta": "./media/50/piezas_destacadas/224/Dibujo/público/INT_50_PlatoConejo.jpg", "publico": 1, "url": null }, "geometry": null },
{ "type": "Feature", "properties": { "fid": 3500, "num_pieza": 225, "tipo": "Foto", "ruta": "./media/50/piezas_destacadas/225/Foto/público/cenital_escudilla_arcos_INT_50_N.jpg", "publico": 1, "url": null }, "geometry": null },
{ "type": "Feature", "properties": { "fid": 3503, "num_pieza": 225, "tipo": "Dibujo", "ruta": "./media/50/piezas_destacadas/225/Dibujo/público/INT_50_Escudilla_ArcosGoticos.jpg", "publico": 1, "url": null }, "geometry": null },
{ "type": "Feature", "properties": { "fid": 3505, "num_pieza": 226, "tipo": "Foto", "ruta": "./media/50/piezas_destacadas/226/Foto/público/ESCUDILLA_LETRA_N_INT_50.jpg", "publico": 1, "url": null }, "geometry": null },
{ "type": "Feature", "properties": { "fid": 3508, "num_pieza": 226, "tipo": "Dibujo", "ruta": "./media/50/piezas_destacadas/226/Dibujo/público/INT_50_EscudillaCarenada_LetraCoron.jpg", "publico": 1, "url": null }, "geometry": null },
{ "type": "Feature", "properties": { "fid": 3510, "num_pieza": 228, "tipo": "Foto", "ruta": "./media/50/piezas_destacadas/228/Foto/público/mano_almirez_INT_50.jpg", "publico": 1, "url": null }, "geometry": null },
{ "type": "Feature", "properties": { "fid": 3513, "num_pieza": 231, "tipo": "Foto", "ruta": "./media/50/piezas_destacadas/231/Foto/público/ESCUDILLA_ESPUELAS_N_INT_50.jpg", "publico": 1, "url": null }, "geometry": null },
{ "type": "Feature", "properties": { "fid": 3516, "num_pieza": 231, "tipo": "Dibujo", "ruta": "./media/50/piezas_destacadas/231/Dibujo/público/INT_50_Escudilla_Acicates.jpg", "publico": 1, "url": null }, "geometry": null },
{ "type": "Feature", "properties": { "fid": 3518, "num_pieza": 232, "tipo": "Foto", "ruta": "./media/50/piezas_destacadas/232/Foto/público/ESCUDILLA_TRIANGULO_CENITAL_N_INT_50.jpg", "publico": 1, "url": null }, "geometry": null },
{ "type": "Feature", "properties": { "fid": 3521, "num_pieza": 232, "tipo": "Dibujo", "ruta": "./media/50/piezas_destacadas/232/Dibujo/público/INT_50_CuencoCarenado_3arbolesradia.jpg", "publico": 1, "url": null }, "geometry": null },
{ "type": "Feature", "properties": { "fid": 3523, "num_pieza": 233, "tipo": "Foto", "ruta": "./media/50/piezas_destacadas/233/Foto/público/CUENCO_MELADO_CENITAL_N_INT_50.jpg", "publico": 1, "url": null }, "geometry": null },
{ "type": "Feature", "properties": { "fid": 3526, "num_pieza": 233, "tipo": "Dibujo", "ruta": "./media/50/piezas_destacadas/233/Dibujo/público/INT_50__CuencoCarenado.jpg", "publico": 1, "url": null }, "geometry": null },
{ "type": "Feature", "properties": { "fid": 3528, "num_pieza": 234, "tipo": "Foto", "ruta": "./media/50/piezas_destacadas/234/Foto/público/plato_sal_int_50_N.jpg", "publico": 1, "url": null }, "geometry": null },
{ "type": "Feature", "properties": { "fid": 3531, "num_pieza": 234, "tipo": "Dibujo", "ruta": "./media/50/piezas_destacadas/234/Dibujo/público/INT_50_PlatoSa.jpg", "publico": 1, "url": null }, "geometry": null },
{ "type": "Feature", "properties": { "fid": 3533, "num_pieza": 235, "tipo": "Foto", "ruta": "./media/50/piezas_destacadas/235/Foto/público/hueso_INT_50_N.jpg", "publico": 1, "url": null }, "geometry": null },
{ "type": "Feature", "properties": { "fid": 3536, "num_pieza": 235, "tipo": "Dibujo", "ruta": "./media/50/piezas_destacadas/235/Dibujo/público/INT_35_Yunque_Hoz.jpg", "publico": 1, "url": null }, "geometry": null },
{ "type": "Feature", "properties": { "fid": 3538, "num_pieza": 27, "tipo": "Foto", "ruta": "./media/6/piezas_destacadas/27/Foto/público/INT_6_P_1_N.jpg", "publico": 1, "url": null }, "geometry": null },
{ "type": "Feature", "properties": { "fid": 3541, "num_pieza": 28, "tipo": "Foto", "ruta": "./media/6/piezas_destacadas/28/Foto/público/INT_6_P_3_N.jpg", "publico": 1, "url": null }, "geometry": null },
{ "type": "Feature", "properties": { "fid": 3544, "num_pieza": 29, "tipo": "Foto", "ruta": "./media/6/piezas_destacadas/29/Foto/público/INT_6_P_2_N.jpg", "publico": 1, "url": null }, "geometry": null },
{ "type": "Feature", "properties": { "fid": 3547, "num_pieza": 250, "tipo": "Foto", "ruta": "./media/69/piezas_destacadas/250/Foto/público/LUCERNA_N_INT_69.jpg", "publico": 1, "url": null }, "geometry": null },
{ "type": "Feature", "properties": { "fid": 3550, "num_pieza": 250, "tipo": "Dibujo", "ruta": "./media/69/piezas_destacadas/250/Dibujo/público/INT_69_Portal18_LucernaRomana.jpg", "publico": 1, "url": null }, "geometry": null },
{ "type": "Feature", "properties": { "fid": 3552, "num_pieza": 47, "tipo": "Foto", "ruta": "./media/7/piezas_destacadas/47/Foto/público/zumbador_INT_7_N.jpg", "publico": 1, "url": null }, "geometry": null },
{ "type": "Feature", "properties": { "fid": 3555, "num_pieza": 47, "tipo": "Dibujo", "ruta": "./media/7/piezas_destacadas/47/Dibujo/público/Silvador.jpg", "publico": 1, "url": null }, "geometry": null },
{ "type": "Feature", "properties": { "fid": 3558, "num_pieza": 48, "tipo": "Dibujo", "ruta": "./media/7/piezas_destacadas/48/Dibujo/público/Especiero.jpg", "publico": 1, "url": null }, "geometry": null },
{ "type": "Feature", "properties": { "fid": 3561, "num_pieza": 274, "tipo": "Foto", "ruta": "./media/73/piezas_destacadas/274/Foto/público/MOLDE_N_INT_73.jpg", "publico": 1, "url": null }, "geometry": null },
{ "type": "Feature", "properties": { "fid": 3564, "num_pieza": 275, "tipo": "Dibujo", "ruta": "./media/73/piezas_destacadas/275/Dibujo/público/TINAJA_ESTAMPILLADA_N_INT_73.jpg", "publico": 1, "url": null }, "geometry": null },
{ "type": "Feature", "properties": { "fid": 3567, "num_pieza": 276, "tipo": "Foto", "ruta": "./media/73/piezas_destacadas/276/Foto/público/JARRITA ROJA_N_INT_73.jpg", "publico": 1, "url": null }, "geometry": null },
{ "type": "Feature", "properties": { "fid": 3570, "num_pieza": 276, "tipo": "Dibujo", "ruta": "./media/73/piezas_destacadas/276/Dibujo/público/INT_73_JarritaEngobeRojo.jpg", "publico": 1, "url": null }, "geometry": null },
{ "type": "Feature", "properties": { "fid": 3572, "num_pieza": 277, "tipo": "Foto", "ruta": "./media/73/piezas_destacadas/277/Foto/público/JARRA_CUELLO_ESTRECHO_N_INT_73.jpg", "publico": 1, "url": null }, "geometry": null },
{ "type": "Feature", "properties": { "fid": 3575, "num_pieza": 277, "tipo": "Dibujo", "ruta": "./media/73/piezas_destacadas/277/Dibujo/público/INT_73_JarroCuelloAlto.jpg", "publico": 1, "url": null }, "geometry": null },
{ "type": "Feature", "properties": { "fid": 3577, "num_pieza": 278, "tipo": "Foto", "ruta": "./media/73/piezas_destacadas/278/Foto/público/JARRITO PINTADO_N_INT_73.jpg", "publico": 1, "url": null }, "geometry": null },
{ "type": "Feature", "properties": { "fid": 3580, "num_pieza": 278, "tipo": "Dibujo", "ruta": "./media/73/piezas_destacadas/278/Dibujo/público/INT_73_JarritoPintado.jpg", "publico": 1, "url": null }, "geometry": null },
{ "type": "Feature", "properties": { "fid": 3582, "num_pieza": 279, "tipo": "Foto", "ruta": "./media/73/piezas_destacadas/279/Foto/público/TUBERIA_N_INT_73.jpg", "publico": 1, "url": null }, "geometry": null },
{ "type": "Feature", "properties": { "fid": 3585, "num_pieza": 279, "tipo": "Dibujo", "ruta": "./media/73/piezas_destacadas/279/Dibujo/público/INT_73_Tuberia.jpg", "publico": 1, "url": null }, "geometry": null },
{ "type": "Feature", "properties": { "fid": 3587, "num_pieza": 280, "tipo": "Foto", "ruta": "./media/73/piezas_destacadas/280/Foto/público/JARRA_GLOBULAR_N_INT_73.jpg", "publico": 1, "url": null }, "geometry": null },
{ "type": "Feature", "properties": { "fid": 3590, "num_pieza": 280, "tipo": "Dibujo", "ruta": "./media/73/piezas_destacadas/280/Dibujo/público/INT_73_RedomaGlobular.jpg", "publico": 1, "url": null }, "geometry": null },
{ "type": "Feature", "properties": { "fid": 3592, "num_pieza": 281, "tipo": "Foto", "ruta": "./media/73/piezas_destacadas/281/Foto/público/taza_sementales_N_INT_73.jpg", "publico": 1, "url": null }, "geometry": null },
{ "type": "Feature", "properties": { "fid": 3595, "num_pieza": 281, "tipo": "Dibujo", "ruta": "./media/73/piezas_destacadas/281/Dibujo/público/INT_73_TazaPintada.jpg", "publico": 1, "url": null }, "geometry": null },
{ "type": "Feature", "properties": { "fid": 3597, "num_pieza": 284, "tipo": "Foto", "ruta": "./media/78/piezas_destacadas/284/Foto/público/TAZA_N_INT_78.jpg", "publico": 1, "url": null }, "geometry": null },
{ "type": "Feature", "properties": { "fid": 3600, "num_pieza": 284, "tipo": "Dibujo", "ruta": "./media/78/piezas_destacadas/284/Dibujo/público/INT_78_Taza_.jpg", "publico": 1, "url": null }, "geometry": null },
{ "type": "Feature", "properties": { "fid": 3602, "num_pieza": 49, "tipo": "Foto", "ruta": "./media/8/piezas_destacadas/49/Foto/público/INT_8_BOTE_POLVOS_N.jpg", "publico": 1, "url": null }, "geometry": null },
{ "type": "Feature", "properties": { "fid": 3605, "num_pieza": 49, "tipo": "Dibujo", "ruta": "./media/8/piezas_destacadas/49/Dibujo/público/Plato_6898.jpg", "publico": 1, "url": null }, "geometry": null },
{ "type": "Feature", "properties": { "fid": 3608, "num_pieza": 50, "tipo": "Foto", "ruta": "./media/8/piezas_destacadas/50/Foto/público/INT_8_MANCERINA_LOZA_INGLESA_N.jpg", "publico": 1, "url": null }, "geometry": null },
{ "type": "Feature", "properties": { "fid": 3610, "num_pieza": 51, "tipo": "Foto", "ruta": "./media/8/piezas_destacadas/51/Foto/público/INT_8_P_23_N.jpg", "publico": 1, "url": null }, "geometry": null },
{ "type": "Feature", "properties": { "fid": 3613, "num_pieza": 51, "tipo": "Dibujo", "ruta": "./media/8/piezas_destacadas/51/Dibujo/público/Plato_n59_13650.jpg", "publico": 1, "url": null }, "geometry": null },
{ "type": "Feature", "properties": { "fid": 3616, "num_pieza": 52, "tipo": "Foto", "ruta": "./media/8/piezas_destacadas/52/Foto/público/INT_8_PLATO_MUEL_GRANDE_N.jpg", "publico": 1, "url": null }, "geometry": null },
{ "type": "Feature", "properties": { "fid": 3619, "num_pieza": 53, "tipo": "Foto", "ruta": "./media/8/piezas_destacadas/53/Foto/público/PLATO_VILLAFELICHE_GRANDE_N.jpg", "publico": 1, "url": null }, "geometry": null },
{ "type": "Feature", "properties": { "fid": 3622, "num_pieza": 53, "tipo": "Dibujo", "ruta": "./media/8/piezas_destacadas/53/Dibujo/público/Plato_19_6898.jpg", "publico": 1, "url": null }, "geometry": null },
{ "type": "Feature", "properties": { "fid": 3625, "num_pieza": 54, "tipo": "Foto", "ruta": "./media/8/piezas_destacadas/54/Foto/público/PLATO VILLAFELICHE PEQUEÑO_57_N.jpg", "publico": 1, "url": null }, "geometry": null },
{ "type": "Feature", "properties": { "fid": 3628, "num_pieza": 54, "tipo": "Dibujo", "ruta": "./media/8/piezas_destacadas/54/Dibujo/público/Plato_n60_13650.jpg", "publico": 1, "url": null }, "geometry": null },
{ "type": "Feature", "properties": { "fid": 3631, "num_pieza": 55, "tipo": "Foto", "ruta": "./media/8/piezas_destacadas/55/Foto/público/INT_8_P_27_N.jpg", "publico": 1, "url": null }, "geometry": null },
{ "type": "Feature", "properties": { "fid": 3634, "num_pieza": 55, "tipo": "Dibujo", "ruta": "./media/8/piezas_destacadas/55/Dibujo/público/Plato_n55_13650.jpg", "publico": 1, "url": null }, "geometry": null },
{ "type": "Feature", "properties": { "fid": 3637, "num_pieza": 56, "tipo": "Foto", "ruta": "./media/8/piezas_destacadas/56/Foto/público/INT_8_P_17_N.jpg", "publico": 1, "url": null }, "geometry": null },
{ "type": "Feature", "properties": { "fid": 3640, "num_pieza": 57, "tipo": "Foto", "ruta": "./media/8/piezas_destacadas/57/Foto/público/INT_8_PLATO_ORLA_CASTELLANA_N.jpg", "publico": 1, "url": null }, "geometry": null },
{ "type": "Feature", "properties": { "fid": 3643, "num_pieza": 57, "tipo": "Dibujo", "ruta": "./media/8/piezas_destacadas/57/Dibujo/público/Plato_n55_13650.jpg", "publico": 1, "url": null }, "geometry": null },
{ "type": "Feature", "properties": { "fid": 3646, "num_pieza": 58, "tipo": "Foto", "ruta": "./media/8/piezas_destacadas/58/Foto/público/INT_8_MANCERINA_N.jpg", "publico": 1, "url": null }, "geometry": null },
{ "type": "Feature", "properties": { "fid": 3649, "num_pieza": 58, "tipo": "Dibujo", "ruta": "./media/8/piezas_destacadas/58/Dibujo/público/Mancerina_n13_6898.jpg", "publico": 1, "url": null }, "geometry": null },
{ "type": "Feature", "properties": { "fid": 3652, "num_pieza": 59, "tipo": "Foto", "ruta": "./media/8/piezas_destacadas/59/Foto/público/INT_8_MIELERO_N.jpg", "publico": 1, "url": null }, "geometry": null },
{ "type": "Feature", "properties": { "fid": 3655, "num_pieza": 59, "tipo": "Dibujo", "ruta": "./media/8/piezas_destacadas/59/Dibujo/público/Mielero_6897.jpg", "publico": 1, "url": null }, "geometry": null },
{ "type": "Feature", "properties": { "fid": 3658, "num_pieza": 60, "tipo": "Foto", "ruta": "./media/8/piezas_destacadas/60/Foto/público/INT_8_PLATO_VIDRIADO_N.jpg", "publico": 1, "url": null }, "geometry": null },
{ "type": "Feature", "properties": { "fid": 3661, "num_pieza": 60, "tipo": "Dibujo", "ruta": "./media/8/piezas_destacadas/60/Dibujo/público/Plato_n_21_6898.jpg", "publico": 1, "url": null }, "geometry": null },
{ "type": "Feature", "properties": { "fid": 3664, "num_pieza": 61, "tipo": "Foto", "ruta": "./media/8/piezas_destacadas/61/Foto/público/INT_8_BOTEJA_II_N.jpg", "publico": 1, "url": null }, "geometry": null },
{ "type": "Feature", "properties": { "fid": 3667, "num_pieza": 61, "tipo": "Dibujo", "ruta": "./media/8/piezas_destacadas/61/Dibujo/público/Boteja_13616.jpg", "publico": 1, "url": null }, "geometry": null },
{ "type": "Feature", "properties": { "fid": 3670, "num_pieza": 62, "tipo": "Foto", "ruta": "./media/8/piezas_destacadas/62/Foto/público/INT_8_P_2_N.jpg", "publico": 1, "url": null }, "geometry": null },
{ "type": "Feature", "properties": { "fid": 3673, "num_pieza": 62, "tipo": "Dibujo", "ruta": "./media/8/piezas_destacadas/62/Dibujo/público/Boteja_6916.jpg", "publico": 1, "url": null }, "geometry": null },
{ "type": "Feature", "properties": { "fid": 3676, "num_pieza": 63, "tipo": "Foto", "ruta": "./media/8/piezas_destacadas/63/Foto/público/BACIA BARBERO_N_int_8.jpg", "publico": 1, "url": null }, "geometry": null },
{ "type": "Feature", "properties": { "fid": 3679, "num_pieza": 63, "tipo": "Dibujo", "ruta": "./media/8/piezas_destacadas/63/Dibujo/público/Bacia_Barbero_6920.jpg", "publico": 1, "url": null }, "geometry": null },
{ "type": "Feature", "properties": { "fid": 3682, "num_pieza": 64, "tipo": "Foto", "ruta": "./media/8/piezas_destacadas/64/Foto/público/INT_8_FRUTERO_FLOR_BICROMA_N.jpg", "publico": 1, "url": null }, "geometry": null },
{ "type": "Feature", "properties": { "fid": 3685, "num_pieza": 64, "tipo": "Dibujo", "ruta": "./media/8/piezas_destacadas/64/Dibujo/público/Plato_6687.jpg", "publico": 1, "url": null }, "geometry": null },
{ "type": "Feature", "properties": { "fid": 3688, "num_pieza": 65, "tipo": "Foto", "ruta": "./media/8/piezas_destacadas/65/Foto/público/INT_8_BACIN_VIDRIADO_N.jpg", "publico": 1, "url": null }, "geometry": null },
{ "type": "Feature", "properties": { "fid": 3691, "num_pieza": 65, "tipo": "Dibujo", "ruta": "./media/8/piezas_destacadas/65/Dibujo/público/Bacin_13620.jpg", "publico": 1, "url": null }, "geometry": null },
{ "type": "Feature", "properties": { "fid": 3694, "num_pieza": 66, "tipo": "Foto", "ruta": "./media/8/piezas_destacadas/66/Foto/público/INT_8_JARRA_JESUITAS_N.jpg", "publico": 1, "url": null }, "geometry": null },
{ "type": "Feature", "properties": { "fid": 3697, "num_pieza": 66, "tipo": "Dibujo", "ruta": "./media/8/piezas_destacadas/66/Dibujo/público/Bacin_Flor_13629.jpg", "publico": 1, "url": null }, "geometry": null },
{ "type": "Feature", "properties": { "fid": 3700, "num_pieza": 67, "tipo": "Foto", "ruta": "./media/8/piezas_destacadas/67/Foto/público/INT_8_BOTIJO_N.jpg", "publico": 1, "url": null }, "geometry": null },
{ "type": "Feature", "properties": { "fid": 3703, "num_pieza": 67, "tipo": "Dibujo", "ruta": "./media/8/piezas_destacadas/67/Dibujo/público/Botijo_6919.jpg", "publico": 1, "url": null }, "geometry": null },
{ "type": "Feature", "properties": { "fid": 3706, "num_pieza": 68, "tipo": "Foto", "ruta": "./media/8/piezas_destacadas/68/Foto/público/INT_8_BACIN_FLOR_N.jpg", "publico": 1, "url": null }, "geometry": null },
{ "type": "Feature", "properties": { "fid": 3709, "num_pieza": 69, "tipo": "Foto", "ruta": "./media/8/piezas_destacadas/69/Foto/público/INT_8_FONDO_PLATO_N.jpg", "publico": 1, "url": null }, "geometry": null },
{ "type": "Feature", "properties": { "fid": 3712, "num_pieza": 69, "tipo": "Dibujo", "ruta": "./media/8/piezas_destacadas/69/Dibujo/público/Plato_6706.jpg", "publico": 1, "url": null }, "geometry": null },
{ "type": "Feature", "properties": { "fid": 3715, "num_pieza": 70, "tipo": "Foto", "ruta": "./media/8/piezas_destacadas/70/Foto/público/plato_reticula_INT_8_N.jpg", "publico": 1, "url": null }, "geometry": null },
{ "type": "Feature", "properties": { "fid": 3718, "num_pieza": 70, "tipo": "Dibujo", "ruta": "./media/8/piezas_destacadas/70/Dibujo/público/Plato_6687.jpg", "publico": 1, "url": null }, "geometry": null },
{ "type": "Feature", "properties": { "fid": 3721, "num_pieza": 71, "tipo": "Foto", "ruta": "./media/8/piezas_destacadas/71/Foto/público/PLATO_ROSO_FLOR_CENTRAL_N.jpg", "publico": 1, "url": null }, "geometry": null },
{ "type": "Feature", "properties": { "fid": 3724, "num_pieza": 71, "tipo": "Dibujo", "ruta": "./media/8/piezas_destacadas/71/Dibujo/público/Plato_6824.jpg", "publico": 1, "url": null }, "geometry": null },
{ "type": "Feature", "properties": { "fid": 3727, "num_pieza": 72, "tipo": "Foto", "ruta": "./media/8/piezas_destacadas/72/Foto/público/INT_8_FRUTERO_AZUL_N.jpg", "publico": 1, "url": null }, "geometry": null },
{ "type": "Feature", "properties": { "fid": 3730, "num_pieza": 72, "tipo": "Dibujo", "ruta": "./media/8/piezas_destacadas/72/Dibujo/público/Frutero_Cubeta_6752.jpg", "publico": 1, "url": null }, "geometry": null },
{ "type": "Feature", "properties": { "fid": 3733, "num_pieza": 73, "tipo": "Foto", "ruta": "./media/8/piezas_destacadas/73/Foto/público/INT_8_BOLICHE_N.jpg", "publico": 1, "url": null }, "geometry": null },
{ "type": "Feature", "properties": { "fid": 3736, "num_pieza": 73, "tipo": "Dibujo", "ruta": "./media/8/piezas_destacadas/73/Dibujo/público/Boliche_6898.jpg", "publico": 1, "url": null }, "geometry": null },
{ "type": "Feature", "properties": { "fid": 3739, "num_pieza": 74, "tipo": "Foto", "ruta": "./media/8/piezas_destacadas/74/Foto/público/INT_8_P_28_N.jpg", "publico": 1, "url": null }, "geometry": null },
{ "type": "Feature", "properties": { "fid": 3742, "num_pieza": 74, "tipo": "Dibujo", "ruta": "./media/8/piezas_destacadas/74/Dibujo/público/Plato_11_6898.jpg", "publico": 1, "url": null }, "geometry": null },
{ "type": "Feature", "properties": { "fid": 3745, "num_pieza": 75, "tipo": "Dibujo", "ruta": "./media/8/piezas_destacadas/75/Dibujo/público/Jicara.jpg", "publico": 1, "url": null }, "geometry": null },
{ "type": "Feature", "properties": { "fid": 3748, "num_pieza": 76, "tipo": "Foto", "ruta": "./media/8/piezas_destacadas/76/Foto/público/JICARAS CON ASA_B_int_8 (2).jpg", "publico": 1, "url": null }, "geometry": null },
{ "type": "Feature", "properties": { "fid": 3751, "num_pieza": 76, "tipo": "Dibujo", "ruta": "./media/8/piezas_destacadas/76/Dibujo/público/Jicara_Cilindrica.jpg", "publico": 1, "url": null }, "geometry": null },
{ "type": "Feature", "properties": { "fid": 3754, "num_pieza": 77, "tipo": "Foto", "ruta": "./media/8/piezas_destacadas/77/Foto/público/INT_8_P_16_N.jpg", "publico": 1, "url": null }, "geometry": null },
{ "type": "Feature", "properties": { "fid": 3757, "num_pieza": 77, "tipo": "Dibujo", "ruta": "./media/8/piezas_destacadas/77/Dibujo/público/Cuenco.jpg", "publico": 1, "url": null }, "geometry": null },
{ "type": "Feature", "properties": { "fid": 3760, "num_pieza": 78, "tipo": "Foto", "ruta": "./media/8/piezas_destacadas/78/Foto/público/INT_8_P_24_N.jpg", "publico": 1, "url": null }, "geometry": null },
{ "type": "Feature", "properties": { "fid": 3763, "num_pieza": 78, "tipo": "Dibujo", "ruta": "./media/8/piezas_destacadas/78/Dibujo/público/Plato_n53_13650.jpg", "publico": 1, "url": null }, "geometry": null },
{ "type": "Feature", "properties": { "fid": 3766, "num_pieza": 289, "tipo": "Foto", "ruta": "./media/81/piezas_destacadas/289/Foto/público/ORZA_PEQUEÑA_N_INT_81.jpg", "publico": 1, "url": null }, "geometry": null },
{ "type": "Feature", "properties": { "fid": 3769, "num_pieza": 289, "tipo": "Dibujo", "ruta": "./media/81/piezas_destacadas/289/Dibujo/público/INT_81_OrzaPequeña.jpg", "publico": 1, "url": null }, "geometry": null },
{ "type": "Feature", "properties": { "fid": 3771, "num_pieza": 291, "tipo": "Foto", "ruta": "./media/81/piezas_destacadas/291/Foto/público/ESCUDILLA_COSCOLIN_N_INT_81.jpg", "publico": 1, "url": null }, "geometry": null },
{ "type": "Feature", "properties": { "fid": 3774, "num_pieza": 291, "tipo": "Dibujo", "ruta": "./media/81/piezas_destacadas/291/Dibujo/público/INT_EscudillaAzul.jpg", "publico": 1, "url": null }, "geometry": null },
{ "type": "Feature", "properties": { "fid": 3776, "num_pieza": 336, "tipo": "Foto", "ruta": "./media/84/piezas_destacadas/336/Foto/público/JARRA_N_INT_84.jpg", "publico": 1, "url": null }, "geometry": null },
{ "type": "Feature", "properties": { "fid": 3779, "num_pieza": 336, "tipo": "Dibujo", "ruta": "./media/84/piezas_destacadas/336/Dibujo/público/INT_84_Botella.jpg", "publico": 1, "url": null }, "geometry": null },
{ "type": "Feature", "properties": { "fid": 3781, "num_pieza": 337, "tipo": "Foto", "ruta": "./media/88/piezas_destacadas/337/Foto/público/Jarra_2_Asas_bn_INT_88.jpg", "publico": 1, "url": null }, "geometry": null },
{ "type": "Feature", "properties": { "fid": 3784, "num_pieza": 337, "tipo": "Dibujo", "ruta": "./media/88/piezas_destacadas/337/Dibujo/público/Jarra_2_asas_DIBUJO.jpg", "publico": 1, "url": null }, "geometry": null },
{ "type": "Feature", "properties": { "fid": 3786, "num_pieza": 338, "tipo": "Dibujo", "ruta": "./media/88/piezas_destacadas/338/Dibujo/público/Jarro_1_asa.jpg", "publico": 1, "url": null }, "geometry": null },
{ "type": "Feature", "properties": { "fid": 3788, "num_pieza": 339, "tipo": "Foto", "ruta": "./media/88/piezas_destacadas/339/Foto/público/Jarra_Pintada_bn_INT_88.jpg", "publico": 1, "url": null }, "geometry": null },
{ "type": "Feature", "properties": { "fid": 3791, "num_pieza": 339, "tipo": "Dibujo", "ruta": "./media/88/piezas_destacadas/339/Dibujo/público/Jarra_Pintada_DIBUJO.jpg", "publico": 1, "url": null }, "geometry": null },
{ "type": "Feature", "properties": { "fid": 3793, "num_pieza": 340, "tipo": "Foto", "ruta": "./media/88/piezas_destacadas/340/Foto/público/Cuerda_Seca_bn_INT_88.jpg", "publico": 1, "url": null }, "geometry": null },
{ "type": "Feature", "properties": { "fid": 3796, "num_pieza": 340, "tipo": "Dibujo", "ruta": "./media/88/piezas_destacadas/340/Dibujo/público/Jarra_CuerdaSeca.jpg", "publico": 1, "url": null }, "geometry": null },
{ "type": "Feature", "properties": { "fid": 3798, "num_pieza": 341, "tipo": "Foto", "ruta": "./media/88/piezas_destacadas/341/Foto/público/INT_88_Rua_29_CANDIL_N.jpg", "publico": 1, "url": null }, "geometry": null },
{ "type": "Feature", "properties": { "fid": 3801, "num_pieza": 342, "tipo": "Foto", "ruta": "./media/88/piezas_destacadas/342/Foto/público/olla_asa_cocina_n_INT_88.jpg", "publico": 1, "url": null }, "geometry": null },
{ "type": "Feature", "properties": { "fid": 3804, "num_pieza": 342, "tipo": "Dibujo", "ruta": "./media/88/piezas_destacadas/342/Dibujo/público/Cocina.jpg", "publico": 1, "url": null }, "geometry": null },
{ "type": "Feature", "properties": { "fid": 3806, "num_pieza": 343, "tipo": "Foto", "ruta": "./media/88/piezas_destacadas/343/Foto/público/Jarra_Lobulada_n_INT_88.jpg", "publico": 1, "url": null }, "geometry": null },
{ "type": "Feature", "properties": { "fid": 3809, "num_pieza": 343, "tipo": "Dibujo", "ruta": "./media/88/piezas_destacadas/343/Dibujo/público/Jarra_Lobulada_DIBUJO.jpg", "publico": 1, "url": null }, "geometry": null },
{ "type": "Feature", "properties": { "fid": 3811, "num_pieza": 344, "tipo": "Foto", "ruta": "./media/88/piezas_destacadas/344/Foto/público/ataifor_n_INT_88.jpg", "publico": 1, "url": null }, "geometry": null },
{ "type": "Feature", "properties": { "fid": 3814, "num_pieza": 344, "tipo": "Dibujo", "ruta": "./media/88/piezas_destacadas/344/Dibujo/público/Ataifor.jpg", "publico": 1, "url": null }, "geometry": null },
{ "type": "Feature", "properties": { "fid": 3816, "num_pieza": 345, "tipo": "Foto", "ruta": "./media/88/piezas_destacadas/345/Foto/público/INT_88_Rua_29_JOFAINA_N.jpg", "publico": 1, "url": null }, "geometry": null },
{ "type": "Feature", "properties": { "fid": 3819, "num_pieza": 345, "tipo": "Dibujo", "ruta": "./media/88/piezas_destacadas/345/Dibujo/público/Jofaina.jpg", "publico": 1, "url": null }, "geometry": null },
{ "type": "Feature", "properties": { "fid": 3821, "num_pieza": 346, "tipo": "Foto", "ruta": "./media/88/piezas_destacadas/346/Foto/público/INT_88_Rua_29_CUERNO_N.jpg", "publico": 1, "url": null }, "geometry": null },
{ "type": "Feature", "properties": { "fid": 3824, "num_pieza": 346, "tipo": "Dibujo", "ruta": "./media/88/piezas_destacadas/346/Dibujo/público/Cuerno.jpg", "publico": 1, "url": null }, "geometry": null },
{ "type": "Feature", "properties": { "fid": 3826, "num_pieza": 347, "tipo": "Foto", "ruta": "./media/88/piezas_destacadas/347/Foto/público/INT_88_Rua_29_TAMBOR_N.jpg", "publico": 1, "url": null }, "geometry": null },
{ "type": "Feature", "properties": { "fid": 3829, "num_pieza": 347, "tipo": "Dibujo", "ruta": "./media/88/piezas_destacadas/347/Dibujo/público/Tapadera-Tambor.jpg", "publico": 1, "url": null }, "geometry": null },
{ "type": "Feature", "properties": { "fid": 3831, "num_pieza": 348, "tipo": "Foto", "ruta": "./media/88/piezas_destacadas/348/Foto/público/INT_88_Rua_29_OLLA_GRANDE_N.jpg", "publico": 1, "url": null }, "geometry": null },
{ "type": "Feature", "properties": { "fid": 3834, "num_pieza": 349, "tipo": "Foto", "ruta": "./media/88/piezas_destacadas/349/Foto/público/Tapadera_N_INT_88.jpg", "publico": 1, "url": null }, "geometry": null },
{ "type": "Feature", "properties": { "fid": 3837, "num_pieza": 349, "tipo": "Dibujo", "ruta": "./media/88/piezas_destacadas/349/Dibujo/público/Tapadera.jpg", "publico": 1, "url": null }, "geometry": null },
{ "type": "Feature", "properties": { "fid": 3839, "num_pieza": 350, "tipo": "Dibujo", "ruta": "./media/88/piezas_destacadas/350/Dibujo/público/Olla_candil.jpg", "publico": 1, "url": null }, "geometry": null },
{ "type": "Feature", "properties": { "fid": 3841, "num_pieza": 351, "tipo": "Foto", "ruta": "./media/88/piezas_destacadas/351/Foto/público/Botella_globular_bn_INT_88.jpg", "publico": 1, "url": null }, "geometry": null },
{ "type": "Feature", "properties": { "fid": 3844, "num_pieza": 352, "tipo": "Foto", "ruta": "./media/88/piezas_destacadas/352/Foto/público/INT_88_Rua_29_LOZA_DORADA_N.jpg", "publico": 1, "url": null }, "geometry": null },
{ "type": "Feature", "properties": { "fid": 3847, "num_pieza": 352, "tipo": "Dibujo", "ruta": "./media/88/piezas_destacadas/352/Dibujo/público/Loza_Dorada.jpg", "publico": 1, "url": null }, "geometry": null },
{ "type": "Feature", "properties": { "fid": 3849, "num_pieza": 81, "tipo": "Foto", "ruta": "./media/9/piezas_destacadas/81/Foto/público/PILA_AGUA_BENDITA_INT_9_N.jpg", "publico": 1, "url": null }, "geometry": null },
{ "type": "Feature", "properties": { "fid": 3852, "num_pieza": 82, "tipo": "Foto", "ruta": "./media/9/piezas_destacadas/82/Foto/público/AZULEJO_LISO_INT_9_N.jpg", "publico": 1, "url": null }, "geometry": null },
{ "type": "Feature", "properties": { "fid": 3855, "num_pieza": 82, "tipo": "Dibujo", "ruta": "./media/9/piezas_destacadas/82/Dibujo/público/INT_9_MA_Reconstrucc_1.jpg", "publico": 1, "url": null }, "geometry": null },
{ "type": "Feature", "properties": { "fid": 3857, "num_pieza": 83, "tipo": "Foto", "ruta": "./media/9/piezas_destacadas/83/Foto/público/AZULEJO_RELIEVE_INT_9_N.jpg", "publico": 1, "url": null }, "geometry": null },
{ "type": "Feature", "properties": { "fid": 3860, "num_pieza": 83, "tipo": "Dibujo", "ruta": "./media/9/piezas_destacadas/83/Dibujo/público/INT_9_MA_Reconstrucc_2.jpg", "publico": 1, "url": null }, "geometry": null },
{ "type": "Feature", "properties": { "fid": 3862, "num_pieza": 84, "tipo": "Foto", "ruta": "./media/9/piezas_destacadas/84/Foto/público/Plato_sol_INT_9_N.jpg", "publico": 1, "url": null }, "geometry": null },
{ "type": "Feature", "properties": { "fid": 3865, "num_pieza": 84, "tipo": "Dibujo", "ruta": "./media/9/piezas_destacadas/84/Dibujo/público/INT_9_MA_86-19-3_Plato_Sol.jpg", "publico": 1, "url": null }, "geometry": null },
{ "type": "Feature", "properties": { "fid": 3867, "num_pieza": 85, "tipo": "Foto", "ruta": "./media/9/piezas_destacadas/85/Foto/público/plato_mercado_abastos_INT_9_N.jpg", "publico": 1, "url": null }, "geometry": null },
{ "type": "Feature", "properties": { "fid": 3870, "num_pieza": 85, "tipo": "Dibujo", "ruta": "./media/9/piezas_destacadas/85/Dibujo/público/INT_9_MA__86-D-5.jpg", "publico": 1, "url": null }, "geometry": null }
]
}
