{
"type": "FeatureCollection",
"name": "Murallas de Tudela",
"crs": { "type": "name", "properties": { "name": "urn:ogc:def:crs:OGC:1.3:CRS84" } },
"features": [
{ "type": "Feature", "properties": { "fid": 1, "id": 1 }, "geometry": { "type": "MultiLineString", "coordinates": [ [ [ -1.606431328439305, 42.068565516768317 ], [ -1.607243015602984, 42.068554925808662 ], [ -1.608616546228493, 42.067498906748341 ], [ -1.608798910033373, 42.067372726034932 ], [ -1.60879737774493, 42.067266622470534 ], [ -1.608819139927529, 42.067141194351578 ], [ -1.608821887967849, 42.066711691137058 ], [ -1.608808366420435, 42.066492604914522 ], [ -1.60879780448794, 42.066361532684979 ], [ -1.608869449031178, 42.066098466931763 ], [ -1.60889210614351, 42.06595506674519 ], [ -1.608867503683003, 42.065824278958623 ], [ -1.608577005483295, 42.06580944482252 ], [ -1.608258465097215, 42.065576374618544 ], [ -1.608187972384653, 42.065507319501833 ], [ -1.607912326874926, 42.065388490236337 ], [ -1.60770992249641, 42.065352036861505 ], [ -1.607392429716573, 42.065216745737494 ], [ -1.60721016954707, 42.065081634838499 ], [ -1.606922625030672, 42.065010964670691 ], [ -1.606351987761856, 42.064919429156014 ], [ -1.60611723913397, 42.064959561933314 ], [ -1.605973547615228, 42.064987755085454 ], [ -1.605699705724457, 42.065003347844268 ], [ -1.605285042571968, 42.065047412535648 ], [ -1.605020379214715, 42.065151422438397 ], [ -1.60460983471526, 42.065148621326308 ], [ -1.604501487186122, 42.065129048375404 ], [ -1.604291830352455, 42.065126498423723 ], [ -1.604112128535471, 42.065143298031629 ], [ -1.603991980699996, 42.065170314676926 ], [ -1.603792273349421, 42.065234251987881 ] ] ] } },
{ "type": "Feature", "properties": { "fid": 2, "id": 2 }, "geometry": { "type": "MultiLineString", "coordinates": [ [ [ -1.608867503683003, 42.065824278958623 ], [ -1.608885093991989, 42.065158404551489 ], [ -1.608778943940312, 42.064989800011539 ], [ -1.608791782659912, 42.064737160601375 ], [ -1.608744710551226, 42.064545629570439 ], [ -1.608415442646954, 42.064144257538317 ], [ -1.608277932725463, 42.063958904168139 ], [ -1.608231111051368, 42.063856311150147 ], [ -1.608121999012685, 42.063871782580556 ], [ -1.608022599701707, 42.063748478689988 ], [ -1.607903885196355, 42.063652467690964 ], [ -1.607767912286542, 42.063564431187309 ], [ -1.60765202766435, 42.063394798130666 ], [ -1.607513273642456, 42.063154868636659 ], [ -1.607352579403996, 42.062881918989966 ], [ -1.606935704478741, 42.062166685730709 ], [ -1.606915596115672, 42.062032899027301 ], [ -1.606764598105748, 42.06178814358492 ], [ -1.606292089033799, 42.06174009827668 ], [ -1.605867836904123, 42.061865234579273 ], [ -1.605709846234398, 42.061919007184784 ], [ -1.605564400873851, 42.061997471710171 ], [ -1.605525365500579, 42.062040434997613 ], [ -1.605240567880708, 42.062173373890126 ], [ -1.604666382243581, 42.062370084256607 ], [ -1.604097112865356, 42.062565032868775 ], [ -1.603777580908086, 42.062570984079265 ], [ -1.603454866731458, 42.062581770185822 ], [ -1.603377234058032, 42.062601189517977 ], [ -1.602835891266548, 42.062807288938345 ], [ -1.60246682705616, 42.06294541344554 ], [ -1.60198749331374, 42.063357612382724 ], [ -1.601831967826563, 42.063466795149772 ], [ -1.603708437577048, 42.065286731882189 ], [ -1.603708437577048, 42.065286731882189 ] ] ] } },
{ "type": "Feature", "properties": { "fid": 3, "id": 3 }, "geometry": { "type": "MultiLineString", "coordinates": [ [ [ -1.608885093991989, 42.065158404551489 ], [ -1.609433646984985, 42.065156608725601 ], [ -1.610222200291869, 42.064777040051482 ], [ -1.610733574028602, 42.064384615691687 ], [ -1.611519527913097, 42.064056079083151 ], [ -1.611211929740043, 42.063671056249994 ], [ -1.611273282973281, 42.063334667793576 ], [ -1.611066451810346, 42.062988556432131 ], [ -1.610792475140445, 42.062376750340427 ], [ -1.61076343397486, 42.062148215176201 ], [ -1.610921391794383, 42.061665589459317 ], [ -1.610728117683738, 42.061513944306952 ], [ -1.6101058999527, 42.06126977449518 ], [ -1.609620327682931, 42.061173745335381 ], [ -1.608645895058488, 42.061305605344792 ], [ -1.608497468347982, 42.061329717193694 ], [ -1.608128815608087, 42.061428936421599 ], [ -1.607696488344568, 42.061661741159071 ], [ -1.607526105552904, 42.061745838867417 ], [ -1.607369884237108, 42.061809662214451 ], [ -1.606915596115672, 42.062032899027301 ], [ -1.606915596115672, 42.062032899027301 ] ] ] } }
]
}
