{
"type": "FeatureCollection",
"name": "Parcelas catastrales en intervención",
"features": [
{ "type": "Feature", "properties": { "fid": 1777, "numero_int": 95, "tipo": "Urbana", "cod_muni": 232, "cod_poligono": 5, "num_parcela": 406 }, "geometry": null },
{ "type": "Feature", "properties": { "fid": 1778, "numero_int": 94, "tipo": "Urbana", "cod_muni": 232, "cod_poligono": 5, "num_parcela": 337 }, "geometry": null },
{ "type": "Feature", "properties": { "fid": 1779, "numero_int": 91, "tipo": "Urbana", "cod_muni": 232, "cod_poligono": 5, "num_parcela": 1863 }, "geometry": null },
{ "type": "Feature", "properties": { "fid": 1780, "numero_int": 90, "tipo": "Urbana", "cod_muni": 232, "cod_poligono": 3, "num_parcela": 1113 }, "geometry": null },
{ "type": "Feature", "properties": { "fid": 1781, "numero_int": 90, "tipo": "Urbana", "cod_muni": 232, "cod_poligono": 3, "num_parcela": 1230 }, "geometry": null },
{ "type": "Feature", "properties": { "fid": 1782, "numero_int": 90, "tipo": "Urbana", "cod_muni": 232, "cod_poligono": 3, "num_parcela": 2386 }, "geometry": null },
{ "type": "Feature", "properties": { "fid": 1783, "numero_int": 93, "tipo": "Urbana", "cod_muni": 232, "cod_poligono": 3, "num_parcela": 1117 }, "geometry": null },
{ "type": "Feature", "properties": { "fid": 1784, "numero_int": 92, "tipo": "Urbana", "cod_muni": 232, "cod_poligono": 5, "num_parcela": 46 }, "geometry": null },
{ "type": "Feature", "properties": { "fid": 1785, "numero_int": 7, "tipo": "Urbana", "cod_muni": 232, "cod_poligono": 5, "num_parcela": 267 }, "geometry": null },
{ "type": "Feature", "properties": { "fid": 1786, "numero_int": 6, "tipo": "Urbana", "cod_muni": 232, "cod_poligono": 3, "num_parcela": 2391 }, "geometry": null },
{ "type": "Feature", "properties": { "fid": 1787, "numero_int": 9, "tipo": "Urbana", "cod_muni": 232, "cod_poligono": 5, "num_parcela": 901 }, "geometry": null },
{ "type": "Feature", "properties": { "fid": 1788, "numero_int": 8, "tipo": "Urbana", "cod_muni": 232, "cod_poligono": 5, "num_parcela": 1481 }, "geometry": null },
{ "type": "Feature", "properties": { "fid": 1789, "numero_int": 3, "tipo": "Urbana", "cod_muni": 232, "cod_poligono": 5, "num_parcela": 1698 }, "geometry": null },
{ "type": "Feature", "properties": { "fid": 1790, "numero_int": 5, "tipo": "Mixta", "cod_muni": 232, "cod_poligono": 7, "num_parcela": 912 }, "geometry": null },
{ "type": "Feature", "properties": { "fid": 1791, "numero_int": 4, "tipo": "Mixta", "cod_muni": 232, "cod_poligono": 7, "num_parcela": 912 }, "geometry": null },
{ "type": "Feature", "properties": { "fid": 1792, "numero_int": 14, "tipo": "Urbana", "cod_muni": 232, "cod_poligono": 3, "num_parcela": 1516 }, "geometry": null },
{ "type": "Feature", "properties": { "fid": 1793, "numero_int": 14, "tipo": "Urbana", "cod_muni": 232, "cod_poligono": 3, "num_parcela": 1522 }, "geometry": null },
{ "type": "Feature", "properties": { "fid": 1794, "numero_int": 15, "tipo": "Vía", "cod_muni": 232, "cod_poligono": 5, "num_parcela": 8043 }, "geometry": null },
{ "type": "Feature", "properties": { "fid": 1795, "numero_int": 17, "tipo": "Urbana", "cod_muni": 232, "cod_poligono": 5, "num_parcela": 1653 }, "geometry": null },
{ "type": "Feature", "properties": { "fid": 1796, "numero_int": 16, "tipo": "Vía", "cod_muni": 232, "cod_poligono": 5, "num_parcela": 8122 }, "geometry": null },
{ "type": "Feature", "properties": { "fid": 1797, "numero_int": 11, "tipo": "Mixta", "cod_muni": 232, "cod_poligono": 7, "num_parcela": 912 }, "geometry": null },
{ "type": "Feature", "properties": { "fid": 1798, "numero_int": 10, "tipo": "Urbana", "cod_muni": 232, "cod_poligono": 5, "num_parcela": 450 }, "geometry": null },
{ "type": "Feature", "properties": { "fid": 1799, "numero_int": 13, "tipo": "Mixta", "cod_muni": 232, "cod_poligono": 7, "num_parcela": 912 }, "geometry": null },
{ "type": "Feature", "properties": { "fid": 1800, "numero_int": 12, "tipo": "Mixta", "cod_muni": 232, "cod_poligono": 7, "num_parcela": 912 }, "geometry": null },
{ "type": "Feature", "properties": { "fid": 1801, "numero_int": 23, "tipo": "Urbana", "cod_muni": 232, "cod_poligono": 5, "num_parcela": 1694 }, "geometry": null },
{ "type": "Feature", "properties": { "fid": 1802, "numero_int": 22, "tipo": "(Rústica)", "cod_muni": 232, "cod_poligono": 7, "num_parcela": 279 }, "geometry": null },
{ "type": "Feature", "properties": { "fid": 1803, "numero_int": 22, "tipo": "(Rústica)", "cod_muni": 232, "cod_poligono": 7, "num_parcela": 281 }, "geometry": null },
{ "type": "Feature", "properties": { "fid": 1804, "numero_int": 22, "tipo": "(Rústica)", "cod_muni": 232, "cod_poligono": 7, "num_parcela": 278 }, "geometry": null },
{ "type": "Feature", "properties": { "fid": 1805, "numero_int": 25, "tipo": "Urbana", "cod_muni": 232, "cod_poligono": 5, "num_parcela": 115 }, "geometry": null },
{ "type": "Feature", "properties": { "fid": 1806, "numero_int": 25, "tipo": "Urbana", "cod_muni": 232, "cod_poligono": 5, "num_parcela": 117 }, "geometry": null },
{ "type": "Feature", "properties": { "fid": 1807, "numero_int": 24, "tipo": "Urbana", "cod_muni": 232, "cod_poligono": 5, "num_parcela": 937 }, "geometry": null },
{ "type": "Feature", "properties": { "fid": 1808, "numero_int": 19, "tipo": "Urbana", "cod_muni": 232, "cod_poligono": 5, "num_parcela": 1601 }, "geometry": null },
{ "type": "Feature", "properties": { "fid": 1809, "numero_int": 19, "tipo": "Urbana", "cod_muni": 232, "cod_poligono": 5, "num_parcela": 1602 }, "geometry": null },
{ "type": "Feature", "properties": { "fid": 1810, "numero_int": 18, "tipo": "Urbana", "cod_muni": 232, "cod_poligono": 5, "num_parcela": 1652 }, "geometry": null },
{ "type": "Feature", "properties": { "fid": 1811, "numero_int": 21, "tipo": "Urbana", "cod_muni": 232, "cod_poligono": 7, "num_parcela": 233 }, "geometry": null },
{ "type": "Feature", "properties": { "fid": 1812, "numero_int": 20, "tipo": "Mixta", "cod_muni": 232, "cod_poligono": 7, "num_parcela": 912 }, "geometry": null },
{ "type": "Feature", "properties": { "fid": 1813, "numero_int": 31, "tipo": "Urbana", "cod_muni": 232, "cod_poligono": 5, "num_parcela": 1041 }, "geometry": null },
{ "type": "Feature", "properties": { "fid": 1814, "numero_int": 30, "tipo": "Urbana", "cod_muni": 232, "cod_poligono": 7, "num_parcela": 151 }, "geometry": null },
{ "type": "Feature", "properties": { "fid": 1815, "numero_int": 33, "tipo": "Vía", "cod_muni": 232, "cod_poligono": 5, "num_parcela": 8120 }, "geometry": null },
{ "type": "Feature", "properties": { "fid": 1816, "numero_int": 32, "tipo": "Urbana", "cod_muni": 232, "cod_poligono": 5, "num_parcela": 347 }, "geometry": null },
{ "type": "Feature", "properties": { "fid": 1817, "numero_int": 27, "tipo": "Vía", "cod_muni": 232, "cod_poligono": 5, "num_parcela": 8048 }, "geometry": null },
{ "type": "Feature", "properties": { "fid": 1818, "numero_int": 27, "tipo": "Vía", "cod_muni": 232, "cod_poligono": 5, "num_parcela": 8061 }, "geometry": null },
{ "type": "Feature", "properties": { "fid": 1819, "numero_int": 27, "tipo": "Vía", "cod_muni": 232, "cod_poligono": 5, "num_parcela": 8157 }, "geometry": null },
{ "type": "Feature", "properties": { "fid": 1820, "numero_int": 26, "tipo": "Urbana", "cod_muni": 232, "cod_poligono": 7, "num_parcela": 158 }, "geometry": null },
{ "type": "Feature", "properties": { "fid": 1821, "numero_int": 29, "tipo": "Urbana", "cod_muni": 232, "cod_poligono": 5, "num_parcela": 1730 }, "geometry": null },
{ "type": "Feature", "properties": { "fid": 1822, "numero_int": 28, "tipo": "Urbana", "cod_muni": 232, "cod_poligono": 5, "num_parcela": 730 }, "geometry": null },
{ "type": "Feature", "properties": { "fid": 1823, "numero_int": 39, "tipo": "(Rústica)", "cod_muni": 232, "cod_poligono": 8, "num_parcela": 444 }, "geometry": null },
{ "type": "Feature", "properties": { "fid": 1824, "numero_int": 38, "tipo": "Urbana", "cod_muni": 232, "cod_poligono": 5, "num_parcela": 1733 }, "geometry": null },
{ "type": "Feature", "properties": { "fid": 1825, "numero_int": 41, "tipo": "Urbana", "cod_muni": 232, "cod_poligono": 5, "num_parcela": 1721 }, "geometry": null },
{ "type": "Feature", "properties": { "fid": 1826, "numero_int": 40, "tipo": "Urbana", "cod_muni": 232, "cod_poligono": 5, "num_parcela": 1194 }, "geometry": null },
{ "type": "Feature", "properties": { "fid": 1827, "numero_int": 35, "tipo": "Mixta", "cod_muni": 232, "cod_poligono": 7, "num_parcela": 912 }, "geometry": null },
{ "type": "Feature", "properties": { "fid": 1828, "numero_int": 34, "tipo": "(Rústica)", "cod_muni": 232, "cod_poligono": 7, "num_parcela": 307 }, "geometry": null },
{ "type": "Feature", "properties": { "fid": 1829, "numero_int": 34, "tipo": "Mixta", "cod_muni": 232, "cod_poligono": 7, "num_parcela": 912 }, "geometry": null },
{ "type": "Feature", "properties": { "fid": 1830, "numero_int": 37, "tipo": "Urbana", "cod_muni": 232, "cod_poligono": 5, "num_parcela": 1710 }, "geometry": null },
{ "type": "Feature", "properties": { "fid": 1831, "numero_int": 36, "tipo": "Mixta", "cod_muni": 232, "cod_poligono": 7, "num_parcela": 912 }, "geometry": null },
{ "type": "Feature", "properties": { "fid": 1832, "numero_int": 47, "tipo": "Urbana", "cod_muni": 232, "cod_poligono": 5, "num_parcela": 161 }, "geometry": null },
{ "type": "Feature", "properties": { "fid": 1833, "numero_int": 46, "tipo": "Mixta", "cod_muni": 232, "cod_poligono": 7, "num_parcela": 912 }, "geometry": null },
{ "type": "Feature", "properties": { "fid": 1834, "numero_int": 49, "tipo": "Urbana", "cod_muni": 232, "cod_poligono": 3, "num_parcela": 1588 }, "geometry": null },
{ "type": "Feature", "properties": { "fid": 1835, "numero_int": 48, "tipo": "Urbana", "cod_muni": 232, "cod_poligono": 5, "num_parcela": 1813 }, "geometry": null },
{ "type": "Feature", "properties": { "fid": 1836, "numero_int": 43, "tipo": "Urbana", "cod_muni": 232, "cod_poligono": 5, "num_parcela": 1086 }, "geometry": null },
{ "type": "Feature", "properties": { "fid": 1837, "numero_int": 42, "tipo": "Urbana", "cod_muni": 232, "cod_poligono": 5, "num_parcela": 1731 }, "geometry": null },
{ "type": "Feature", "properties": { "fid": 1838, "numero_int": 45, "tipo": "Mixta", "cod_muni": 232, "cod_poligono": 7, "num_parcela": 912 }, "geometry": null },
{ "type": "Feature", "properties": { "fid": 1839, "numero_int": 44, "tipo": "Urbana", "cod_muni": 232, "cod_poligono": 5, "num_parcela": 686 }, "geometry": null },
{ "type": "Feature", "properties": { "fid": 1840, "numero_int": 55, "tipo": "Urbana", "cod_muni": 232, "cod_poligono": 5, "num_parcela": 1128 }, "geometry": null },
{ "type": "Feature", "properties": { "fid": 1841, "numero_int": 54, "tipo": "Urbana", "cod_muni": 232, "cod_poligono": 5, "num_parcela": 1815 }, "geometry": null },
{ "type": "Feature", "properties": { "fid": 1842, "numero_int": 57, "tipo": "Urbana", "cod_muni": 232, "cod_poligono": 5, "num_parcela": 727 }, "geometry": null },
{ "type": "Feature", "properties": { "fid": 1843, "numero_int": 56, "tipo": "Urbana", "cod_muni": 232, "cod_poligono": 3, "num_parcela": 1024 }, "geometry": null },
{ "type": "Feature", "properties": { "fid": 1844, "numero_int": 56, "tipo": "Urbana", "cod_muni": 232, "cod_poligono": 3, "num_parcela": 1025 }, "geometry": null },
{ "type": "Feature", "properties": { "fid": 1845, "numero_int": 51, "tipo": "Urbana", "cod_muni": 232, "cod_poligono": 5, "num_parcela": 1180 }, "geometry": null },
{ "type": "Feature", "properties": { "fid": 1846, "numero_int": 50, "tipo": "Mixta", "cod_muni": 232, "cod_poligono": 7, "num_parcela": 912 }, "geometry": null },
{ "type": "Feature", "properties": { "fid": 1847, "numero_int": 53, "tipo": "Urbana", "cod_muni": 232, "cod_poligono": 5, "num_parcela": 12 }, "geometry": null },
{ "type": "Feature", "properties": { "fid": 1848, "numero_int": 52, "tipo": "Urbana", "cod_muni": 232, "cod_poligono": 5, "num_parcela": 978 }, "geometry": null },
{ "type": "Feature", "properties": { "fid": 1849, "numero_int": 63, "tipo": "Urbana", "cod_muni": 232, "cod_poligono": 5, "num_parcela": 974 }, "geometry": null },
{ "type": "Feature", "properties": { "fid": 1850, "numero_int": 62, "tipo": "Urbana", "cod_muni": 232, "cod_poligono": 5, "num_parcela": 156 }, "geometry": null },
{ "type": "Feature", "properties": { "fid": 1851, "numero_int": 65, "tipo": "Urbana", "cod_muni": 232, "cod_poligono": 5, "num_parcela": 766 }, "geometry": null },
{ "type": "Feature", "properties": { "fid": 1852, "numero_int": 64, "tipo": "Urbana", "cod_muni": 232, "cod_poligono": 5, "num_parcela": 271 }, "geometry": null },
{ "type": "Feature", "properties": { "fid": 1853, "numero_int": 59, "tipo": "Vía", "cod_muni": 232, "cod_poligono": 5, "num_parcela": 8060 }, "geometry": null },
{ "type": "Feature", "properties": { "fid": 1854, "numero_int": 58, "tipo": "Urbana", "cod_muni": 232, "cod_poligono": 5, "num_parcela": 902 }, "geometry": null },
{ "type": "Feature", "properties": { "fid": 1855, "numero_int": 61, "tipo": "Urbana", "cod_muni": 232, "cod_poligono": 5, "num_parcela": 295 }, "geometry": null },
{ "type": "Feature", "properties": { "fid": 1856, "numero_int": 60, "tipo": "Urbana", "cod_muni": 232, "cod_poligono": 5, "num_parcela": 211 }, "geometry": null },
{ "type": "Feature", "properties": { "fid": 1857, "numero_int": 71, "tipo": "Urbana", "cod_muni": 232, "cod_poligono": 5, "num_parcela": 1229 }, "geometry": null },
{ "type": "Feature", "properties": { "fid": 1858, "numero_int": 70, "tipo": "Urbana", "cod_muni": 232, "cod_poligono": 5, "num_parcela": 755 }, "geometry": null },
{ "type": "Feature", "properties": { "fid": 1859, "numero_int": 73, "tipo": "Urbana", "cod_muni": 232, "cod_poligono": 5, "num_parcela": 690 }, "geometry": null },
{ "type": "Feature", "properties": { "fid": 1860, "numero_int": 72, "tipo": "Urbana", "cod_muni": 232, "cod_poligono": 5, "num_parcela": 734 }, "geometry": null },
{ "type": "Feature", "properties": { "fid": 1861, "numero_int": 67, "tipo": "Urbana", "cod_muni": 232, "cod_poligono": 5, "num_parcela": 44 }, "geometry": null },
{ "type": "Feature", "properties": { "fid": 1862, "numero_int": 66, "tipo": "Urbana", "cod_muni": 232, "cod_poligono": 5, "num_parcela": 1133 }, "geometry": null },
{ "type": "Feature", "properties": { "fid": 1863, "numero_int": 69, "tipo": "Urbana", "cod_muni": 232, "cod_poligono": 5, "num_parcela": 752 }, "geometry": null },
{ "type": "Feature", "properties": { "fid": 1864, "numero_int": 68, "tipo": "Urbana", "cod_muni": 232, "cod_poligono": 5, "num_parcela": 1800 }, "geometry": null },
{ "type": "Feature", "properties": { "fid": 1865, "numero_int": 79, "tipo": "Urbana", "cod_muni": 232, "cod_poligono": 5, "num_parcela": 1840 }, "geometry": null },
{ "type": "Feature", "properties": { "fid": 1866, "numero_int": 78, "tipo": "Urbana", "cod_muni": 232, "cod_poligono": 5, "num_parcela": 581 }, "geometry": null },
{ "type": "Feature", "properties": { "fid": 1867, "numero_int": 81, "tipo": "Urbana", "cod_muni": 232, "cod_poligono": 5, "num_parcela": 671 }, "geometry": null },
{ "type": "Feature", "properties": { "fid": 1868, "numero_int": 81, "tipo": "Urbana", "cod_muni": 232, "cod_poligono": 5, "num_parcela": 675 }, "geometry": null },
{ "type": "Feature", "properties": { "fid": 1869, "numero_int": 81, "tipo": "Urbana", "cod_muni": 232, "cod_poligono": 5, "num_parcela": 1871 }, "geometry": null },
{ "type": "Feature", "properties": { "fid": 1870, "numero_int": 81, "tipo": "Urbana", "cod_muni": 232, "cod_poligono": 5, "num_parcela": 658 }, "geometry": null },
{ "type": "Feature", "properties": { "fid": 1871, "numero_int": 81, "tipo": "Urbana", "cod_muni": 232, "cod_poligono": 5, "num_parcela": 1851 }, "geometry": null },
{ "type": "Feature", "properties": { "fid": 1872, "numero_int": 81, "tipo": "Urbana", "cod_muni": 232, "cod_poligono": 5, "num_parcela": 683 }, "geometry": null },
{ "type": "Feature", "properties": { "fid": 1873, "numero_int": 80, "tipo": "Urbana", "cod_muni": 232, "cod_poligono": 5, "num_parcela": 561 }, "geometry": null },
{ "type": "Feature", "properties": { "fid": 1874, "numero_int": 75, "tipo": "Vía", "cod_muni": 232, "cod_poligono": 5, "num_parcela": 8050 }, "geometry": null },
{ "type": "Feature", "properties": { "fid": 1875, "numero_int": 75, "tipo": "Vía", "cod_muni": 232, "cod_poligono": 5, "num_parcela": 8013 }, "geometry": null },
{ "type": "Feature", "properties": { "fid": 1876, "numero_int": 75, "tipo": "Vía", "cod_muni": 232, "cod_poligono": 5, "num_parcela": 8014 }, "geometry": null },
{ "type": "Feature", "properties": { "fid": 1877, "numero_int": 74, "tipo": "Urbana", "cod_muni": 232, "cod_poligono": 5, "num_parcela": 70 }, "geometry": null },
{ "type": "Feature", "properties": { "fid": 1878, "numero_int": 77, "tipo": "Urbana", "cod_muni": 232, "cod_poligono": 5, "num_parcela": 19 }, "geometry": null },
{ "type": "Feature", "properties": { "fid": 1879, "numero_int": 76, "tipo": "Urbana", "cod_muni": 232, "cod_poligono": 5, "num_parcela": 996 }, "geometry": null },
{ "type": "Feature", "properties": { "fid": 1880, "numero_int": 87, "tipo": "Urbana", "cod_muni": 232, "cod_poligono": 5, "num_parcela": 769 }, "geometry": null },
{ "type": "Feature", "properties": { "fid": 1881, "numero_int": 86, "tipo": "Urbana", "cod_muni": 232, "cod_poligono": 5, "num_parcela": 624 }, "geometry": null },
{ "type": "Feature", "properties": { "fid": 1882, "numero_int": 89, "tipo": "Urbana", "cod_muni": 232, "cod_poligono": 5, "num_parcela": 631 }, "geometry": null },
{ "type": "Feature", "properties": { "fid": 1883, "numero_int": 88, "tipo": "Urbana", "cod_muni": 232, "cod_poligono": 5, "num_parcela": 1864 }, "geometry": null },
{ "type": "Feature", "properties": { "fid": 1884, "numero_int": 83, "tipo": "Urbana", "cod_muni": 232, "cod_poligono": 4, "num_parcela": 136 }, "geometry": null },
{ "type": "Feature", "properties": { "fid": 1885, "numero_int": 82, "tipo": "Mixta", "cod_muni": 232, "cod_poligono": 4, "num_parcela": 307 }, "geometry": null },
{ "type": "Feature", "properties": { "fid": 1886, "numero_int": 85, "tipo": "Urbana", "cod_muni": 232, "cod_poligono": 5, "num_parcela": 1851 }, "geometry": null },
{ "type": "Feature", "properties": { "fid": 1887, "numero_int": 84, "tipo": "Urbana", "cod_muni": 232, "cod_poligono": 5, "num_parcela": 54 }, "geometry": null }
]
}
