{
"type": "FeatureCollection",
"name": "Restos en intervención",
"features": [
{ "type": "Feature", "properties": { "fid": 1, "numero_int": 10, "conserva_restos": 1, "restos_in_situ": 0, "restos_visibles": 0, "restos_visitables": 0, "res_observaci": null, "tipo_resto": "ESP_DOM", "subtipo_resto": "COCI", "fase_hist": "AND_MUS" }, "geometry": null },
{ "type": "Feature", "properties": { "fid": 2, "numero_int": 27, "conserva_restos": 1, "restos_in_situ": 1, "restos_visibles": 1, "restos_visitables": 1, "res_observaci": "La zona debe permanecer cubierta", "tipo_resto": "ESP_PUB", "subtipo_resto": "MERC", "fase_hist": "MED_CRI" }, "geometry": null },
{ "type": "Feature", "properties": { "fid": 3, "numero_int": 66, "conserva_restos": 1, "restos_in_situ": 0, "restos_visibles": 0, "restos_visitables": 0, "res_observaci": null, "tipo_resto": "ESP_DOM", "subtipo_resto": "COCI", "fase_hist": "MED_CRI" }, "geometry": null },
{ "type": "Feature", "properties": { "fid": 4, "numero_int": 81, "conserva_restos": 1, "restos_in_situ": 0, "restos_visibles": 0, "restos_visitables": 0, "res_observaci": null, "tipo_resto": "ESP_DOM", "subtipo_resto": "BODE", "fase_hist": "MED_CRI" }, "geometry": null },
{ "type": "Feature", "properties": { "fid": 5, "numero_int": 81, "conserva_restos": 1, "restos_in_situ": 0, "restos_visibles": 0, "restos_visitables": 0, "res_observaci": null, "tipo_resto": "ESP_ART", "subtipo_resto": "HORN_ART", "fase_hist": "MODERN" }, "geometry": null }
]
}
