{
"type": "FeatureCollection",
"name": "Subtipo de restos",
"features": [
{ "type": "Feature", "properties": { "fid": 1, "cod_subtipo_rest": "ALCA", "nom_subtipo_res": "Alcazaba", "subtipo_tipo": "FORT" }, "geometry": null },
{ "type": "Feature", "properties": { "fid": 2, "cod_subtipo_rest": "ALJI", "nom_subtipo_res": "Aljibe", "subtipo_tipo": "INFRA" }, "geometry": null },
{ "type": "Feature", "properties": { "fid": 3, "cod_subtipo_rest": "ALMA", "nom_subtipo_res": "Almacén", "subtipo_tipo": "ESP_DOM" }, "geometry": null },
{ "type": "Feature", "properties": { "fid": 4, "cod_subtipo_rest": "ALMI", "nom_subtipo_res": "Alminar", "subtipo_tipo": "EDI_REL" }, "geometry": null },
{ "type": "Feature", "properties": { "fid": 5, "cod_subtipo_rest": "BAÑO", "nom_subtipo_res": "Baños", "subtipo_tipo": "ESP_DOM" }, "geometry": null },
{ "type": "Feature", "properties": { "fid": 6, "cod_subtipo_rest": "BARB", "nom_subtipo_res": "Barbacana", "subtipo_tipo": "FORT" }, "geometry": null },
{ "type": "Feature", "properties": { "fid": 7, "cod_subtipo_rest": "BASI", "nom_subtipo_res": "Basílicas", "subtipo_tipo": "EDI_REL" }, "geometry": null },
{ "type": "Feature", "properties": { "fid": 8, "cod_subtipo_rest": "BODE", "nom_subtipo_res": "Bodega", "subtipo_tipo": "ESP_DOM" }, "geometry": null },
{ "type": "Feature", "properties": { "fid": 9, "cod_subtipo_rest": "CALL", "nom_subtipo_res": "Calle", "subtipo_tipo": "ESP_PUB" }, "geometry": null },
{ "type": "Feature", "properties": { "fid": 10, "cod_subtipo_rest": "CAMP", "nom_subtipo_res": "Campamento", "subtipo_tipo": "ESP_PUB" }, "geometry": null },
{ "type": "Feature", "properties": { "fid": 11, "cod_subtipo_rest": "CANA", "nom_subtipo_res": "Canal", "subtipo_tipo": "INFRA" }, "geometry": null },
{ "type": "Feature", "properties": { "fid": 12, "cod_subtipo_rest": "CASA", "nom_subtipo_res": "Casa", "subtipo_tipo": "VIV" }, "geometry": null },
{ "type": "Feature", "properties": { "fid": 13, "cod_subtipo_rest": "CAST", "nom_subtipo_res": "Castillo", "subtipo_tipo": "FORT" }, "geometry": null },
{ "type": "Feature", "properties": { "fid": 14, "cod_subtipo_rest": "CASTR", "nom_subtipo_res": "Castro", "subtipo_tipo": "FORT" }, "geometry": null },
{ "type": "Feature", "properties": { "fid": 15, "cod_subtipo_rest": "CATE", "nom_subtipo_res": "Catedral", "subtipo_tipo": "EDI_REL" }, "geometry": null },
{ "type": "Feature", "properties": { "fid": 16, "cod_subtipo_rest": "COCI", "nom_subtipo_res": "Cocina", "subtipo_tipo": "ESP_DOM" }, "geometry": null },
{ "type": "Feature", "properties": { "fid": 17, "cod_subtipo_rest": "CONV", "nom_subtipo_res": "Convento", "subtipo_tipo": "EDI_REL" }, "geometry": null },
{ "type": "Feature", "properties": { "fid": 18, "cod_subtipo_rest": "DEPO_RIT", "nom_subtipo_res": "Depósito ritual", "subtipo_tipo": "ESP_FUN" }, "geometry": null },
{ "type": "Feature", "properties": { "fid": 19, "cod_subtipo_rest": "ESTA", "nom_subtipo_res": "Establo", "subtipo_tipo": "ESP_DOM" }, "geometry": null },
{ "type": "Feature", "properties": { "fid": 20, "cod_subtipo_rest": "FOSO", "nom_subtipo_res": "Foso", "subtipo_tipo": "FORT" }, "geometry": null },
{ "type": "Feature", "properties": { "fid": 21, "cod_subtipo_rest": "FUEN", "nom_subtipo_res": "Fuente", "subtipo_tipo": "INFRA" }, "geometry": null },
{ "type": "Feature", "properties": { "fid": 22, "cod_subtipo_rest": "HORN_DOM", "nom_subtipo_res": "Horno doméstico", "subtipo_tipo": "ESP_DOM" }, "geometry": null },
{ "type": "Feature", "properties": { "fid": 23, "cod_subtipo_rest": "HORN_ART", "nom_subtipo_res": "Horno artesanal", "subtipo_tipo": "ESP_ART" }, "geometry": null },
{ "type": "Feature", "properties": { "fid": 24, "cod_subtipo_rest": "IGLE", "nom_subtipo_res": "Iglesia", "subtipo_tipo": "EDI_REL" }, "geometry": null },
{ "type": "Feature", "properties": { "fid": 25, "cod_subtipo_rest": "JUDE", "nom_subtipo_res": "Judería", "subtipo_tipo": "ESP_PUB" }, "geometry": null },
{ "type": "Feature", "properties": { "fid": 26, "cod_subtipo_rest": "LETR", "nom_subtipo_res": "Letrina", "subtipo_tipo": "ESP_DOM" }, "geometry": null },
{ "type": "Feature", "properties": { "fid": 27, "cod_subtipo_rest": "MERC", "nom_subtipo_res": "Mercado", "subtipo_tipo": "ESP_PUB" }, "geometry": null },
{ "type": "Feature", "properties": { "fid": 28, "cod_subtipo_rest": "MEZQ", "nom_subtipo_res": "Mezquita", "subtipo_tipo": "EDI_REL" }, "geometry": null },
{ "type": "Feature", "properties": { "fid": 29, "cod_subtipo_rest": "MONA", "nom_subtipo_res": "Monasterios", "subtipo_tipo": "EDI_REL" }, "geometry": null },
{ "type": "Feature", "properties": { "fid": 30, "cod_subtipo_rest": "MURA", "nom_subtipo_res": "Muralla", "subtipo_tipo": "FORT" }, "geometry": null },
{ "type": "Feature", "properties": { "fid": 31, "cod_subtipo_rest": "PALA", "nom_subtipo_res": "Palacio", "subtipo_tipo": "VIV" }, "geometry": null },
{ "type": "Feature", "properties": { "fid": 32, "cod_subtipo_rest": "PATI", "nom_subtipo_res": "Patio", "subtipo_tipo": "ESP_DOM" }, "geometry": null },
{ "type": "Feature", "properties": { "fid": 33, "cod_subtipo_rest": "PLAZ", "nom_subtipo_res": "Plaza", "subtipo_tipo": "ESP_PUB" }, "geometry": null },
{ "type": "Feature", "properties": { "fid": 34, "cod_subtipo_rest": "POZO", "nom_subtipo_res": "Pozo", "subtipo_tipo": "INFRA" }, "geometry": null },
{ "type": "Feature", "properties": { "fid": 35, "cod_subtipo_rest": "PUER", "nom_subtipo_res": "Puerta", "subtipo_tipo": "ESP_DOM" }, "geometry": null },
{ "type": "Feature", "properties": { "fid": 36, "cod_subtipo_rest": "SILO", "nom_subtipo_res": "Silo", "subtipo_tipo": "ESP_DOM" }, "geometry": null },
{ "type": "Feature", "properties": { "fid": 37, "cod_subtipo_rest": "SINA", "nom_subtipo_res": "Sinagoga", "subtipo_tipo": "EDI_REL" }, "geometry": null },
{ "type": "Feature", "properties": { "fid": 38, "cod_subtipo_rest": "TEMP", "nom_subtipo_res": "Templos", "subtipo_tipo": "EDI_REL" }, "geometry": null },
{ "type": "Feature", "properties": { "fid": 39, "cod_subtipo_rest": "TORR", "nom_subtipo_res": "Torre", "subtipo_tipo": "FORT" }, "geometry": null },
{ "type": "Feature", "properties": { "fid": 40, "cod_subtipo_rest": "TORON", "nom_subtipo_res": "Torreón", "subtipo_tipo": "FORT" }, "geometry": null },
{ "type": "Feature", "properties": { "fid": 41, "cod_subtipo_rest": "ZAGU", "nom_subtipo_res": "Zaguán", "subtipo_tipo": "ESP_DOM" }, "geometry": null },
{ "type": "Feature", "properties": { "fid": 42, "cod_subtipo_rest": "MUR", "nom_subtipo_res": "Muro", "subtipo_tipo": "FORT" }, "geometry": null }
]
}
